Region,Number,Volcano Name,Country,Location,Latitude,Longitude,Elevation (m),Type,Status,Last Known Eruption
West Indies,1600-21-,Piparo,Trinidad,Trinidad,10,-61,140,Mud volcano,Historical,D1
West Indies,1600-08=,"Diables, Morne aux",Dominica,W Indies,15.612,-61.43,861,Stratovolcano,Fumarolic,U
West Indies,1600-09=,"Diablotins, Morne",Dominica,W Indies,15.503,-61.397,1430,Stratovolcano,Holocene,U
West Indies,1600-11=,"Plat Pays, Morne",Dominica,W Indies,15.255,-61.341,940,Stratovolcano,Radiocarbon,D5
West Indies,1600-10=,"Trois Pitons, Morne",Dominica,W Indies,15.37,-61.33,1387,Lava dome,Historical,D3
West Indies,1600-101,"Watt, Morne",Dominica,W Indies,15.307,-61.305,1224,Stratovolcanoes,Historical,D2
West Indies,1600-17=,St. Catherine,Grenada,W Indies,12.15,-61.67,840,Stratovolcano,Holocene,U
West Indies,1600-06=,Soufriere Guadeloupe,Guadeloupe,W Indies,16.044,-61.664,1467,Stratovolcano,Historical,D1
West Indies,1600-12=,Pelee,Martinique,W Indies,14.809,-61.165,1394,Stratovolcano,Historical,D2
West Indies,1600-05=,Soufriere Hills,Montserrat,W Indies,16.72,-62.18,915,Stratovolcano,Historical,D1
West Indies,1600-16=,Kick 'em Jenny,Netherlands,W Indies,12.3,-61.64,-185,Submarine volcano,Historical,D1
West Indies,1600-04=,Nevis Peak,Netherlands,W Indies,17.15,-62.58,985,Stratovolcano,Holocene,U
West Indies,1600-02=,"Quill, The",Netherlands,W Indies,17.478,-62.96,601,Stratovolcano,Radiocarbon,D6
West Indies,1600-01=,Saba,Netherlands,W Indies,17.63,-63.23,887,Stratovolcano,Historical,D5
West Indies,1600-07=,Unnamed,Netherlands,W Indies,16.13,-61.28,-7,Submarine volcano,Historical,D3
West Indies,1600-03=,Liamuiga,St. Kitts & Nevis,W Indies,17.37,-62.8,1156,Stratovolcano,Radiocarbon,D6
West Indies,1600-14=,Qualibou,St. Lucia,W Indies,13.83,-61.05,777,Caldera,Historical,D4
West Indies,1600-15=,Soufriere St. Vincent,St. Vincent & the Grenadines,W Indies,13.33,-61.18,1220,Stratovolcano,Historical,D1
 Africa and Red Sea,0203-04-,Karisimbi,"Congo, DRC",Africa-C,-1.506,29.45,4490,Stratovolcano,Holocene,U
 Africa and Red Sea,0203-01=,May-ya-moto,"Congo, DRC",Africa-C,-0.93,29.33,950,Fumarole field,Fumarolic,Unknown
 Africa and Red Sea,0203-02=,Nyamuragira,"Congo, DRC",Africa-C,-1.408,29.2,3058,Shield volcano,Historical,D1
 Africa and Red Sea,0203-03=,Nyiragongo,"Congo, DRC",Africa-C,-1.52,29.25,3470,Stratovolcano,Historical,D1
 Africa and Red Sea,0203-08-,Tshibinda,"Congo, DRC",Africa-C,-2.32,28.75,1460,Cinder cone,Holocene,U
 Africa and Red Sea,0203-05-,Visoke,Rwanda,Africa-C,-1.458,29.485,3696,Stratovolcano,Historical,D2
 Africa and Red Sea,0203-07-,Bufumbira,Uganda,Africa-C,-1.304,29.683,2100,Cinder cone,Holocene,Unknown
 Africa and Red Sea,0203-004,Bunyaruguru,Uganda,Africa-C,-0.2,30.08,1554,Explosion crater,Holocene,U
 Africa and Red Sea,0203-001,Fort Portal,Uganda,Africa-C,0.7,30.25,1615,Tuff cone,Holocene,U
 Africa and Red Sea,0203-005,Katunga,Uganda,Africa-C,-0.471,30.191,1707,Tuff cone,Holocene,U
 Africa and Red Sea,0203-003,Katwe-Kikorongo,Uganda,Africa-C,-0.08,29.92,1067,Tuff cone,Holocene,U
 Africa and Red Sea,0203-002,Kyatwa,Uganda,Africa-C,0.45,30.25,1430,Tuff cone,Holocene,Unknown
 Africa and Red Sea,0203-06-,Muhavura,Uganda,Africa-C,-1.383,29.678,4103,Stratovolcano,Holocene,U
 Africa and Red Sea,0202-03=,"Barrier, The",Kenya,Africa-E,2.32,36.57,1032,Shield volcano,Historical,D2
 Africa and Red Sea,0202-01=,Central Island,Kenya,Africa-E,3.496,36.04,518,Stratovolcano,Holocene,U
 Africa and Red Sea,0202-13=,Chyulu Hills,Kenya,Africa-E,-2.68,37.88,2188,Volcanic field,Anthropology,D3
 Africa and Red Sea,0202-08=,"Eburru, Ol Doinyo",Kenya,Africa-E,-0.65,36.22,2856,Complex volcano,Holocene,U
 Africa and Red Sea,0202-071,Elmenteita Badlands,Kenya,Africa-E,-0.52,36.27,2126,Pyroclastic cone,Holocene,U
 Africa and Red Sea,0202-051,Emuruangogolak,Kenya,Africa-E,1.5,36.33,1285,Shield volcano,Radiocarbon,D2
 Africa and Red Sea,0202-07=,Homa Mountain,Kenya,Africa-E,-0.38,34.5,1751,Complex volcano,Holocene,U
 Africa and Red Sea,0202-054,Korosi,Kenya,Africa-E,0.77,36.12,1446,Shield volcano,Holocene,U
 Africa and Red Sea,0202-10=,Longonot,Kenya,Africa-E,-0.914,36.446,2776,Stratovolcano,Anthropology,D3
 Africa and Red Sea,0202-021,Marsabit,Kenya,Africa-E,2.32,37.97,1707,Shield volcano,Holocene,Unknown
 Africa and Red Sea,0201-33-,Mega Volcanic Field,Kenya,Africa-E,3.971,38.213,1500,Pyroclastic cone,Holocene,U
 Africa and Red Sea,0202-06=,Menengai,Kenya,Africa-E,-0.2,36.07,2278,Shield volcano,Tephrochronology,D7
 Africa and Red Sea,0202-04-,Namarunu,Kenya,Africa-E,1.98,36.43,817,Shield volcano,Tephrochronology,D7
 Africa and Red Sea,0202-001,North Island,Kenya,Africa-E,4.059,36.049,490,Tuff cone,Holocene,U
 Africa and Red Sea,0202-056,Nyambeni Hills,Kenya,Africa-E,0.23,37.87,750,Shield volcano,Holocene,U
 Africa and Red Sea,0202-055,Ol Kokwe,Kenya,Africa-E,0.62,36.075,1130,Shield volcano,Holocene,U
 Africa and Red Sea,0202-09=,Olkaria,Kenya,Africa-E,-0.904,36.292,2434,Pumice cone,Radiocarbon,D4
 Africa and Red Sea,0202-053,Paka,Kenya,Africa-E,0.92,36.18,1697,Shield volcano,Ar/Ar,D7
 Africa and Red Sea,0202-05-,Segererua Plateau,Kenya,Africa-E,1.57,37.9,699,Pyroclastic cone,Holocene,U
 Africa and Red Sea,0202-052,Silali,Kenya,Africa-E,1.15,36.23,1528,Shield volcano,Ar/Ar,D7
 Africa and Red Sea,0202-02=,South Island,Kenya,Africa-E,2.63,36.6,800,Stratovolcano,Historical,D3
 Africa and Red Sea,0202-11=,Suswa,Kenya,Africa-E,-1.151,36.357,2356,Shield volcano,Holocene,U
 Africa and Red Sea,0202-161,Igwisi Hills,Tanzania,Africa-E,-4.889,31.933,1146,Tuff cone,Holocene,U
 Africa and Red Sea,0202-165,Izumbwe-Mpoli,Tanzania,Africa-E,-8.93,33.4,1568,Pyroclastic cone,Holocene,U
 Africa and Red Sea,0202-15=,Kilimanjaro,Tanzania,Africa-E,-3.07,37.35,5895,Stratovolcano,Holocene,U
 Africa and Red Sea,0202-17=,Kyejo,Tanzania,Africa-E,-9.229,33.792,2176,Stratovolcano,Historical,D3
 Africa and Red Sea,0202-12=,"Lengai, Ol Doinyo",Tanzania,Africa-E,-2.764,35.914,2962,Stratovolcano,Historical,D1
 Africa and Red Sea,0202-16=,Meru,Tanzania,Africa-E,-3.25,36.75,4565,Stratovolcano,Historical,D2
 Africa and Red Sea,0202-164,Ngozi,Tanzania,Africa-E,-8.989,33.554,2614,Caldera,Holocene,U
 Africa and Red Sea,0202-166,Rungwe,Tanzania,Africa-E,-9.135,33.668,2953,Stratovolcano,Holocene,U
 Africa and Red Sea,0202-163,SW Usangu Basin,Tanzania,Africa-E,-8.75,33.8,2179,Lava dome,Holocene,U
 Africa and Red Sea,0202-162,Unnamed,Tanzania,Africa-E,-8.63,33.57,0,Pyroclastic cone,Holocene,U
 Africa and Red Sea,0205-005,Atakor Volcanic Field,Algeria,Africa-N,23.33,5.83,2918,Scoria cones,Holocene,U
 Africa and Red Sea,0205-003,In Ezzane Volc Field,Algeria,Africa-N,23,10.833,,Volcanic field,Holocene?,?
 Africa and Red Sea,0205-006,Manzaz Volcanic Field,Algeria,Africa-N,23.92,5.83,1672,Scoria cones,Holocene,U
 Africa and Red Sea,0205-004,Tahalra Volcanic Field,Algeria,Africa-N,22.67,5,1467,Pyroclastic cones,Holocene,U
 Africa and Red Sea,0205-021,"Koussi, Emi",Chad,Africa-N,19.8,18.53,3415,Stratovolcano,Holocene,U
 Africa and Red Sea,0205-001,Todra Volcanic Field,Chad,Africa-N,17.68,8.5,1780,Volcanic field,Holocene,U
 Africa and Red Sea,0205-009,"Toh, Tarso",Chad,Africa-N,21.33,16.33,2000,Volcanic field,Holocene,U
 Africa and Red Sea,0205-01=,"Tousside, Tarso",Chad,Africa-N,21.03,16.45,3265,Stratovolcano,Holocene,U
 Africa and Red Sea,0205-02=,"Voon, Tarso",Chad,Africa-N,20.92,17.28,3100,Stratovolcano,Fumarolic,U
 Africa and Red Sea,0205-007,Haruj,Libya,Africa-N,27.25,17.5,1200,Scoria cone,Holocene,U
 Africa and Red Sea,0205-008,Wau-en-Namus,Libya,Africa-N,25.05,17.55,547,Caldera,Holocene?,?
 Africa and Red Sea,0205-002,Tin Zaouatene Volcanic Field,Mali,Africa-N,19.83,2.83,700,Volcanic field,Holocene,U
 Africa and Red Sea,0205-06-,Bayuda Volcanic Field,Sudan,Africa-N,18.33,32.75,670,Cinder cone,Radiocarbon,D6
 Africa and Red Sea,0205-04-,Kutum Volcanic Field,Sudan,Africa-N,14.57,25.85,1779,Scoria cone,Holocene,Unknown
 Africa and Red Sea,0205-03-,"Marra, Jebel",Sudan,Africa-N,12.95,24.27,3042,Volcanic field,Radiocarbon,D7
 Africa and Red Sea,0205-05-,Meidob Volcanic Field,Sudan,Africa-N,15.32,26.47,2000,Scoria cone,Holocene,D7
 Africa and Red Sea,0205-07-,"Umm Arafieb, Jebel",Sudan,Africa-N,18.17,33.83,0,Shield volcano,Holocene,Unknown
 Africa and Red Sea,0201-126,Ardoukoba,Djibouti,Africa-NE,11.58,42.47,298,Fissure vent,Historical,D1
 Africa and Red Sea,0201-123,Mousa Alli,Djibouti,Africa-NE,12.469,42.404,1993,Stratovolcano,Holocene,U
 Africa and Red Sea,0201-04=,Alid,Eritrea,Africa-NE,14.88,39.92,904,Stratovolcano,Holocene,U
 Africa and Red Sea,0201-125,Assab Volcanic Field,Eritrea,Africa-NE,12.95,42.43,987,Volcanic field,Holocene,U
 Africa and Red Sea,0201-10=,Dubbi,Eritrea,Africa-NE,13.579,41.809,1625,Stratovolcano,Historical,D3
 Africa and Red Sea,0201-124,Gufa,Eritrea,Africa-NE,12.55,42.53,600,Volcanic field,Holocene,U
 Africa and Red Sea,0201-03=,Jalua,Eritrea,Africa-NE,15.042,39.82,713,Stratovolcano,Holocene,U
 Africa and Red Sea,0201-101,Nabro,Eritrea,Africa-NE,13.37,41.7,2218,Stratovolcano,Holocene,Unknown
 Africa and Red Sea,0201-17=,Adwa,Ethiopia,Africa-NE,10.063,40.831,1670,Stratovolcano,Holocene,U
 Africa and Red Sea,0201-11=,Afdera,Ethiopia,Africa-NE,13.088,40.853,1250,Stratovolcano,Holocene,Unknown
 Africa and Red Sea,0201-112,Alayta,Ethiopia,Africa-NE,12.888,40.573,1496,Shield volcano,Historical,D2
 Africa and Red Sea,0201-09=,Ale Bagu,Ethiopia,Africa-NE,13.512,40.631,988,Stratovolcano,Holocene,U
 Africa and Red Sea,0201-06=,Alu-Dalafilla,Ethiopia,Africa-NE,13.793,40.553,578,Fissure vent,Holocene,U
 Africa and Red Sea,0201-27-,Alutu,Ethiopia,Africa-NE,7.77,38.78,2335,Stratovolcano,Holocene,U
 Africa and Red Sea,0201-104,Asavyo,Ethiopia,Africa-NE,13.098,41.599,1338,Shield volcano,Holocene,U
 Africa and Red Sea,0201-16=,Ayelu,Ethiopia,Africa-NE,10.082,40.702,2145,Stratovolcano,Holocene,U
 Africa and Red Sea,0201-191,Beru,Ethiopia,Africa-NE,8.95,39.75,1100,Volcanic field,Holocene,U
 Africa and Red Sea,0201-291,Bilate River Field,Ethiopia,Africa-NE,7.07,38.1,1700,Maar,Holocene,U
 Africa and Red Sea,0201-22-,Bishoftu Volcanic Field,Ethiopia,Africa-NE,8.78,38.98,1850,Fissure vent,Holocene,U
 Africa and Red Sea,0201-071,Bora Ale,Ethiopia,Africa-NE,13.725,40.6,668,Stratovolcano,Holocene,U
 Africa and Red Sea,0201-24-,Bora-Bericcio,Ethiopia,Africa-NE,8.221,39.05,2267,Pumice cone,Holocene,U
 Africa and Red Sea,0201-107,Borawli,Ethiopia,Africa-NE,13.304,40.987,784,Stratovolcano,Holocene,U
 Africa and Red Sea,0201-121,Borawli Complex,Ethiopia,Africa-NE,11.63,41.45,875,Lava dome,Holocene,U
 Africa and Red Sea,0201-21-,Boset-Bericha,Ethiopia,Africa-NE,8.558,39.475,2447,Stratovolcano,Holocene,U
 Africa and Red Sea,0201-26-,Butajiri-Silti Field,Ethiopia,Africa-NE,8.05,38.35,2281,Fissure vent,Holocene,U
 Africa and Red Sea,0201-30-,Chiracha,Ethiopia,Africa-NE,6.65,38.12,1636,Stratovolcano,Holocene,Unknown
 Africa and Red Sea,0201-29-,Corbetti Caldera,Ethiopia,Africa-NE,7.193,38.39,2320,Caldera,Holocene,U
 Africa and Red Sea,0201-113,Dabbahu,Ethiopia,Africa-NE,12.595,40.48,1401,Stratovolcano,Holocene,U
 Africa and Red Sea,0201-114,Dabbayra,Ethiopia,Africa-NE,12.38,40.07,1302,Shield volcano,Holocene,U
 Africa and Red Sea,0201-07=,Dalaffilla,Ethiopia,Africa-NE,13.792,40.55,613,Stratovolcano,Holocene,U
 Africa and Red Sea,0201-041,Dallol,Ethiopia,Africa-NE,14.242,40.3,-48,Explosion crater,Historical,D2
 Africa and Red Sea,0201-141,Dama Ali,Ethiopia,Africa-NE,11.28,41.63,1068,Shield volcano,Historical,D5
 Africa and Red Sea,0201-18=,Dofan,Ethiopia,Africa-NE,9.35,40.13,1151,Stratovolcano,Holocene,U
 Africa and Red Sea,0201-311,East Chamo Basin,Ethiopia,Africa-NE,5.708,37.713,1150,Cinder cone,Holocene,U
 Africa and Red Sea,0201-252,East Zway,Ethiopia,Africa-NE,7.874,38.902,1889,Fissure vent,Holocene,U
 Africa and Red Sea,0201-08=,Erta Ale,Ethiopia,Africa-NE,13.6,40.67,613,Shield volcano,Historical,D1
 Africa and Red Sea,0201-19=,Fentale,Ethiopia,Africa-NE,8.975,39.93,2007,Stratovolcano,Historical,D3
 Africa and Red Sea,0201-15=,Gabillema,Ethiopia,Africa-NE,11.08,41.27,1459,Stratovolcano,Holocene,U
 Africa and Red Sea,0201-05=,Gada Ale,Ethiopia,Africa-NE,13.975,40.408,287,Stratovolcano,Holocene,U
 Africa and Red Sea,0201-23-,Gedamsa,Ethiopia,Africa-NE,8.357,39.188,1873,Caldera,Holocene,U
 Africa and Red Sea,0201-116,Groppo,Ethiopia,Africa-NE,11.816,40.242,852,Stratovolcano,Holocene,U
 Africa and Red Sea,0201-091,Hayli Gubbi,Ethiopia,Africa-NE,13.51,40.722,493,Shield volcano,Holocene,U
 Africa and Red Sea,0201-171,Hertali,Ethiopia,Africa-NE,9.78,40.33,900,Fissure vent,Holocene,U
 Africa and Red Sea,0201-293,Hobicha Caldera,Ethiopia,Africa-NE,6.78,37.83,1800,Caldera,Holocene,Unknown
 Africa and Red Sea,0201-20-,Kone,Ethiopia,Africa-NE,8.788,39.701,1380,Caldera,Historical,D3
 Africa and Red Sea,0201-32-,Korath Range,Ethiopia,Africa-NE,5.1,35.88,912,Tuff cone,Holocene,Unknown
 Africa and Red Sea,0201-12=,Kurub,Ethiopia,Africa-NE,11.88,41.208,625,Shield volcano,Holocene,U
 Africa and Red Sea,0201-172,Liado Hayk,Ethiopia,Africa-NE,9.57,40.28,878,Maar,Holocene,Unknown
 Africa and Red Sea,0201-111,Ma Alalta,Ethiopia,Africa-NE,13.013,40.185,1745,Stratovolcano,Holocene,U
 Africa and Red Sea,0201-102,Mallahle,Ethiopia,Africa-NE,13.27,41.65,1875,Stratovolcano,Holocene,Unknown
 Africa and Red Sea,0201-115,Manda Hararo,Ethiopia,Africa-NE,12.17,40.82,600,Shield volcano,Holocene,U
 Africa and Red Sea,0201-122,Manda-Inakir,Ethiopia,Africa-NE,12.38,42.2,600,Fissure vent,Historical,D2
 Africa and Red Sea,0201-105,Mat Ala,Ethiopia,Africa-NE,13.106,41.161,493,Shield volcano,Holocene,U
 Africa and Red Sea,0201-28-,O'a Caldera,Ethiopia,Africa-NE,7.47,38.58,2075,Stratovolcano,Holocene,U
 Africa and Red Sea,0201-222,Sodore,Ethiopia,Africa-NE,8.43,39.35,1765,Pyroclastic cone,Holocene,U
 Africa and Red Sea,0201-103,Sork Ale,Ethiopia,Africa-NE,13.18,41.725,1611,Stratovolcano,Holocene,Unknown
 Africa and Red Sea,0201-106,Tat Ali,Ethiopia,Africa-NE,13.284,41.063,655,Shield volcano,Holocene,U
 Africa and Red Sea,0201-292,Tepi,Ethiopia,Africa-NE,7.42,35.43,2728,Shield volcano,Holocene,U
 Africa and Red Sea,0201-31-,Tosa Sucha,Ethiopia,Africa-NE,5.92,37.57,1650,Cinder cone,Holocene,U
 Africa and Red Sea,0201-25-,Tullu Moye,Ethiopia,Africa-NE,8.159,39.137,2343,Pumice cone,Anthropology,D2
 Africa and Red Sea,0201-221,Unnamed,Ethiopia,Africa-NE,8.62,38.95,1800,Fissure vent,Holocene,U
 Africa and Red Sea,0201-201,Unnamed,Ethiopia,Africa-NE,8.7,39.63,1300,Pyroclastic cone,Holocene,U
 Africa and Red Sea,0201-251,Unnamed,Ethiopia,Africa-NE,8.013,39.062,1886,Fissure vent,Holocene,U
 Africa and Red Sea,0201-151,Yangudi,Ethiopia,Africa-NE,10.58,41.042,1383,Complex volcano,Holocene,U
 Africa and Red Sea,0204-01=,Cameroon,Cameroon,Africa-W,4.203,9.17,4095,Stratovolcano,Historical,D1
 Africa and Red Sea,0204-02-,Manengouba,Cameroon,Africa-W,5.03,9.83,2411,Stratovolcano,Holocene,U
 Africa and Red Sea,0204-04-,Ngaoundere Plateau,Cameroon,Africa-W,7.25,13.67,0,Volcanic field,Holocene,Unknown
 Africa and Red Sea,0204-03-,Oku Volcanic Field,Cameroon,Africa-W,6.25,10.5,3011,Maar,Radiocarbon,D5
 Africa and Red Sea,0204-011,Tombel Graben,Cameroon,Africa-W,4.758,9.717,500,Cinder cones,Holocene,U
 Africa and Red Sea,0204-002,San Carlos,Equatorial Guinea,Africa-W,3.35,8.52,2260,Shield volcano,Holocene,U
 Africa and Red Sea,0204-003,San Joaquin,Equatorial Guinea,Africa-W,3.35,8.63,2009,Shield volcano,Holocene,U
 Africa and Red Sea,0204-004,Santa Isabel,Equatorial Guinea,Africa-W,3.588,8.762,2999,Shield volcano,Historical,D2
 Africa and Red Sea,0204-05-,Biu Plateau,Nigeria,Africa-W,10.75,12,0,Volcanic field,Holocene,Unknown
 Africa and Red Sea,0204-001,Sao Tome,Sao Tome & Principe,Africa-W,0.32,6.72,2024,Shield volcano,Holocene,Unknown
 Africa and Red Sea,0201-120,Manda Gargori,Ethiopia,Ethiopia,11.75,41.48,700,Fissure vents,Anthropology,U
 Africa and Red Sea,0201-022,Hanish,Yemen,Red Sea,13.72,42.73,422,Shield volcano,Holocene,U
 Africa and Red Sea,0201-01=,"Tair, Jebel at",Yemen,Red Sea,15.55,41.83,244,Stratovolcano,Historical,D3
 Africa and Red Sea,0201-02=,Zubair Group,Yemen,Red Sea,15.05,42.18,191,Shield volcano,Historical,D3
 Africa and Red Sea,0201-021,Zukur,Yemen,Red Sea,14.02,42.75,624,Shield volcano,Holocene,U
Alaska,1102-09-,Aniakchak,United States,Alaska Peninsula,56.88,-158.17,1341,Caldera,Historical,D2
Alaska,1102-08-,Black Peak,United States,Alaska Peninsula,56.552,-158.785,1032,Stratovolcano,Radiocarbon,D7
Alaska,1102-11-,Chiginagak,United States,Alaska Peninsula,57.135,-156.99,2221,Stratovolcano,Historical,D1
Alaska,1102-05-,Dana,United States,Alaska Peninsula,55.641,-161.214,1354,Stratovolcano,Radiocarbon,D7
Alaska,1102-21-,Denison,United States,Alaska Peninsula,58.418,-154.449,2287,Stratovolcano,Uncertain,Unknown
Alaska,1102-27-,Douglas,United States,Alaska Peninsula,58.855,-153.542,2140,Stratovolcano,Fumarolic,U
Alaska,1102-011,Dutton,United States,Alaska Peninsula,55.183,-162.276,1465,Stratovolcano,Holocene,U
Alaska,1102-02-,Emmons Lake,United States,Alaska Peninsula,55.341,-162.073,1436,Caldera,Holocene,U
Alaska,1102-26-,Fourpeaked,United States,Alaska Peninsula,58.77,-153.672,2105,Stratovolcano,Uncertain,Unknown
Alaska,1102-01-,Frosty,United States,Alaska Peninsula,55.067,-162.835,1728,Stratovolcano,Holocene,U
Alaska,1102-19-,Griggs,United States,Alaska Peninsula,58.354,-155.092,2317,Stratovolcano,Holocene,U
Alaska,1102-25-,Kaguyak,United States,Alaska Peninsula,58.608,-154.028,901,Stratovolcano,Holocene,D7
Alaska,1102-17-,Katmai,United States,Alaska Peninsula,58.28,-154.963,2047,Stratovolcano,Historical,D2
Alaska,1102-12-,Kialagvik,United States,Alaska Peninsula,57.203,-156.745,1677,Stratovolcano,Holocene,U
Alaska,1102-23-,Kukak,United States,Alaska Peninsula,58.453,-154.355,2043,Stratovolcano,Fumarolic,U
Alaska,1102-06-,Kupreanof,United States,Alaska Peninsula,56.011,-159.797,1895,Stratovolcano,Historical,D1
Alaska,1102-15-,Mageik,United States,Alaska Peninsula,58.195,-155.253,2165,Stratovolcano,Historical,D2
Alaska,1102-14-,Martin,United States,Alaska Peninsula,58.172,-155.361,1863,Stratovolcano,Historical,D2
Alaska,1102-18-,Novarupta,United States,Alaska Peninsula,58.27,-155.157,841,Caldera,Historical,D2
Alaska,1102-03-,Pavlof,United States,Alaska Peninsula,55.417,-161.894,2493,Stratovolcano,Historical,D1
Alaska,1102-04-,Pavlof Sister,United States,Alaska Peninsula,55.457,-161.854,2142,Stratovolcano,Historical,D4
Alaska,1102-20-,Snowy Mountain,United States,Alaska Peninsula,58.336,-154.682,2162,Stratovolcano,Fumarolic,U
Alaska,1102-22-,Steller,United States,Alaska Peninsula,58.43,-154.4,2272,Unknown,Uncertain,Unknown
Alaska,1102-051,Stepovak Bay 2,United States,Alaska Peninsula,55.913,-160.041,1323,Cinder cone,Holocene,U
Alaska,1102-052,Stepovak Bay 3,United States,Alaska Peninsula,55.929,-160.002,1555,Cinder cone,Holocene?,?
Alaska,1102-053,Stepovak Bay 4,United States,Alaska Peninsula,55.954,-159.954,1557,Stratovolcano,Pleistocene,P
Alaska,1102-16-,Trident,United States,Alaska Peninsula,58.236,-155.1,1864,Stratovolcano,Historical,D1
Alaska,1102-13-,Ugashik-Peulik,United States,Alaska Peninsula,57.751,-156.368,1474,Stratovolcano,Historical,D3
Alaska,1102-131,Ukinrek Maars,United States,Alaska Peninsula,57.832,-156.51,91,Maar,Historical,D1
Alaska,1102-132,Unnamed,United States,Alaska Peninsula,57.87,-155.411,402,Lava dome,Holocene,U
Alaska,1102-07-,Veniaminof,United States,Alaska Peninsula,56.17,-159.38,2507,Stratovolcano,Historical,D1
Alaska,1102-10-,Yantarni,United States,Alaska Peninsula,57.019,-157.185,1345,Stratovolcano,Tephrochronology,D7
Alaska,1105-001,Buzzard Creek,United States,Alaska-E,64.062,-148.433,830,Tuff rings,Radiocarbon,D7
Alaska,1105-03-,Churchill,United States,Alaska-E,61.38,-141.75,5005,Stratovolcano,Radiocarbon,D6
Alaska,1105-021,Gordon,United States,Alaska-E,62.13,-143.08,2755,Cinder cone,Holocene,U
Alaska,1105-01-,Sanford,United States,Alaska-E,62.22,-144.13,4949,Shield volcano,Holocene,Unknown
Alaska,1105-02-,Wrangell,United States,Alaska-E,62.006,-144.017,4278,Shield volcano,Historical,D2
Alaska,1105-07-,Behm Canal-Rudyerd Bay,United States,Alaska-SE,55.32,-131.05,500,Cinder cone,Holocene,Unknown
Alaska,1105-05-,Duncan Canal,United States,Alaska-SE,56.5,-133.1,15,Unknown,Holocene,U
Alaska,1105-04-,Edgecumbe,United States,Alaska-SE,57.05,-135.75,970,Stratovolcano,Radiocarbon,D7
Alaska,1105-06-,Tlevak Strait-Suemez Is.,United States,Alaska-SE,55.25,-133.3,50,Volcanic field,Holocene,U
Alaska,1103-01-,Augustine,United States,Alaska-SW,59.363,-153.43,1252,Lava dome,Historical,D1
Alaska,1103-05-,Hayes,United States,Alaska-SW,61.64,-152.411,3034,Stratovolcano,Radiocarbon,D6
Alaska,1103-02-,Iliamna,United States,Alaska-SW,60.032,-153.09,3053,Stratovolcano,Historical,D2
Alaska,1103-03-,Redoubt,United States,Alaska-SW,60.485,-152.742,3108,Stratovolcano,Historical,D1
Alaska,1103-04-,Spurr,United States,Alaska-SW,61.299,-152.251,3374,Stratovolcano,Historical,D1
Alaska,1104-01-,Espenberg,United States,Alaska-W,66.35,-164.33,243,Volcanic field,Tephrochronology,D7
Alaska,1104-06-,Imuruk Lake,United States,Alaska-W,65.517,-163.45,610,Shield volcano,Holocene,U
Alaska,1104-02-,Imuruk Lake,United States,Alaska-W,65.6,-163.92,610,Shield volcano,Radiocarbon,D6
Alaska,1104-05-,Ingakslugwat Hills,United States,Alaska-W,61.43,-164.47,190,Cinder cone,Holocene,U
Alaska,1104-03-,Kookooligit Mountains,United States,Alaska-W,63.6,-170.43,673,Shield volcano,Holocene,U
Alaska,1104-04-,St. Michael,United States,Alaska-W,63.45,-162.12,715,Shield volcano,Anthropology,U
Alaska,1101-32-,Akutan,United States,Aleutian Is,54.134,-165.986,1303,Stratovolcano,Historical,D1
Alaska,1101-39-,Amak,United States,Aleutian Is,55.424,-163.149,488,Stratovolcano,Historical,D4
Alaska,1101-19-,Amukta,United States,Aleutian Is,52.5,-171.252,1066,Stratovolcano,Historical,D1
Alaska,1101-16-,Atka,United States,Aleutian Is,52.331,-174.139,1448,Stratovolcano,Historical,D1
Alaska,1101-10-,Bobrof,United States,Aleutian Is,51.91,-177.438,738,Stratovolcano,Holocene,Unknown
Alaska,1101-30-,Bogoslof,United States,Aleutian Is,53.93,-168.03,150,Submarine volcano,Historical,D1
Alaska,1101-01-,Buldir,United States,Aleutian Is,52.35,175.911,656,Stratovolcano,Holocene,U
Alaska,1101-23-,Carlisle,United States,Aleutian Is,52.894,-170.054,1620,Stratovolcano,Historical,D3
Alaska,1101-20-,Chagulak,United States,Aleutian Is,52.577,-171.13,1142,Stratovolcano,Holocene,U
Alaska,1101-24-,Cleveland,United States,Aleutian Is,52.825,-169.944,1730,Stratovolcano,Historical,D1
Alaska,1101-04-,Davidof,United States,Aleutian Is,51.97,178.33,328,Stratovolcano,Holocene,Unknown
Alaska,1101-35-,Fisher,United States,Aleutian Is,54.65,-164.43,1112,Stratovolcano,Historical,D3
Alaska,1101-07-,Gareloi,United States,Aleutian Is,51.79,-178.794,1573,Stratovolcano,Historical,D1
Alaska,1101-12-,Great Sitkin,United States,Aleutian Is,52.076,-176.13,1740,Stratovolcano,Historical,D1
Alaska,1101-22-,Herbert,United States,Aleutian Is,52.742,-170.111,1280,Stratovolcano,Holocene,U
Alaska,1101-37-,Isanotski,United States,Aleutian Is,54.765,-163.723,2446,Stratovolcano,Historical,D3
Alaska,1101-26-,Kagamil,United States,Aleutian Is,52.974,-169.72,893,Stratovolcano,Historical,D2
Alaska,1101-11-,Kanaga,United States,Aleutian Is,51.923,-177.168,1307,Stratovolcano,Historical,D1
Alaska,1101-13-,Kasatochi,United States,Aleutian Is,52.177,-175.508,314,Stratovolcano,Historical,D1
Alaska,1101-02-,Kiska,United States,Aleutian Is,52.103,177.602,1220,Stratovolcano,Historical,D1
Alaska,1101-14-,Koniuji,United States,Aleutian Is,52.22,-175.13,273,Stratovolcano,Uncertain,Unknown
Alaska,1101-05-,Little Sitkin,United States,Aleutian Is,51.95,178.543,1174,Stratovolcano,Historical,D3
Alaska,1101-31-,Makushin,United States,Aleutian Is,53.891,-166.923,1800,Stratovolcano,Historical,D1
Alaska,1101-111,Moffett,United States,Aleutian Is,51.944,-176.747,1196,Stratovolcano,Holocene,U
Alaska,1101-29-,Okmok,United States,Aleutian Is,53.43,-168.13,1073,Shield volcano,Historical,D1
Alaska,1101-28-,Recheschnoi,United States,Aleutian Is,53.157,-168.539,1984,Stratovolcano,Holocene,U
Alaska,1101-38-,Roundtop,United States,Aleutian Is,54.8,-163.589,1871,Stratovolcano,Holocene,U
Alaska,1101-18-,Seguam,United States,Aleutian Is,52.315,-172.51,1054,Stratovolcano,Historical,D1
Alaska,1101-03-,Segula,United States,Aleutian Is,52.015,178.136,1160,Stratovolcano,Holocene,U
Alaska,1101-06-,Semisopochnoi,United States,Aleutian Is,51.93,179.58,1221,Stratovolcano,Historical,D1
Alaska,1101-15-,Sergief,United States,Aleutian Is,52.03,-174.93,560,Stratovolcano,Uncertain,Unknown
Alaska,1101-36-,Shishaldin,United States,Aleutian Is,54.756,-163.97,2857,Stratovolcano,Historical,D1
Alaska,1101-09-,Takawangha,United States,Aleutian Is,51.873,-178.006,1449,Stratovolcano,Holocene,U
Alaska,1101-241,Tana,United States,Aleutian Is,52.83,-169.77,1170,Stratovolcanoes,Holocene,U
Alaska,1101-08-,Tanaga,United States,Aleutian Is,51.885,-178.146,1806,Stratovolcano,Historical,D2
Alaska,1101-25-,Uliaga,United States,Aleutian Is,53.065,-169.77,888,Stratovolcano,Holocene,Unknown
Alaska,1101-17-,Unnamed,United States,Aleutian Is,52,-173.5,0,Submarine volcano,Hydrophonic,D1
Alaska,1101-27-,Vsevidof,United States,Aleutian Is,53.13,-168.693,2149,Stratovolcano,Historical,D3
Alaska,1101-34-,Westdahl,United States,Aleutian Is,54.516,-164.65,1563,Stratovolcano,Historical,D1
Alaska,1101-21-,Yunaska,United States,Aleutian Is,52.643,-170.629,550,Shield volcano,Historical,D2
Antarctica,1900-023,Andrus,Antarctica,Antarctica,-75.8,-132.33,2978,Shield volcano,Holocene,Unknown
Antarctica,1900-022,Berlin,Antarctica,Antarctica,-76.05,-136,3478,Shield volcano,Fumarolic,U
Antarctica,1900-04=,Bridgeman Island,Antarctica,Antarctica,-62.061,-56.717,240,Stratovolcano,Uncertain,Unknown
Antarctica,1900-08=,Bristol Island,Antarctica,Antarctica,-59.017,-26.533,1100,Stratovolcano,Historical,D2
Antarctica,1900-01=,Buckle Island,Antarctica,Antarctica,-66.78,163.25,1239,Stratovolcano,Historical,D3
Antarctica,1900-10=,Candlemas Island,Antarctica,Antarctica,-57.08,-26.67,550,Stratovolcano,Historical,D2
Antarctica,1900-03=,Deception Island,Antarctica,Antarctica,-63.001,-60.652,602,Caldera,Historical,D1
Antarctica,1900-02=,Erebus,Antarctica,Antarctica,-77.53,167.17,3794,Stratovolcano,Historical,D1
Antarctica,1900-11=,Hodson,Antarctica,Antarctica,-56.712,-27.176,835,Stratovolcano,Holocene,U
Antarctica,1900-028,Hudson Mountains,Antarctica,Antarctica,-74.33,-99.42,749,Stratovolcano,Uncertain,Unknown
Antarctica,1900-12=,Leskov Island,Antarctica,Antarctica,-56.656,-28.14,190,Stratovolcano,Fumarolic,U
Antarctica,1900-06=,Lindenberg Island,Antarctica,Antarctica,-65.03,-60.05,368,Pyroclastic cone,Uncertain,Unknown
Antarctica,1900-015,Melbourne,Antarctica,Antarctica,-74.35,164.7,2732,Stratovolcano,Tephrochronology,D4
Antarctica,1900-081,Montagu Island,Antarctica,Antarctica,-58.445,-26.374,1370,Shield volcano,Historical,D1
Antarctica,1900-020,Morning,Antarctica,Antarctica,-78.5,163.53,2723,Shield volcano,Holocene,U
Antarctica,1900-041,Paulet,Antarctica,Antarctica,-63.579,-55.78,353,Cinder cone,Holocene,U
Antarctica,1900-031,Penguin Island,Antarctica,Antarctica,-62.1,-57.93,180,Stratovolcano,Lichenometry,D2
Antarctica,1900-029,Peter I Island,Antarctica,Antarctica,-68.85,-90.58,1640,Shield volcano,Holocene,U
Antarctica,1900-013,"Pleiades, The",Antarctica,Antarctica,-72.67,165.5,3040,Stratovolcano,K-Ar,D7
Antarctica,1900-14-,Protector Seamounts,Antarctica,Antarctica,-55.912,-28.167,-55,Submarine volcano,Historical,D2
Antarctica,1900-021,Royal Society Range,Antarctica,Antarctica,-78.25,163.33,3000,Cinder cone,Holocene,Unknown
Antarctica,1900-09=,Saunders,Antarctica,Antarctica,-57.8,-26.483,843,Stratovolcano,Historical,D3
Antarctica,1900-05=,Seal Nunataks Group,Antarctica,Antarctica,-65.03,-60.05,368,Pyroclastic cone,Historical,D3
Antarctica,1900-025,Siple,Antarctica,Antarctica,-73.43,-126.67,3110,Shield volcano,Holocene,Unknown
Antarctica,1900-07=,Southern Thule,Antarctica,Antarctica,-59.442,-27.225,1075,Stratovolcano,Historical,D1
Antarctica,1900-012,Sturge Island,Antarctica,Antarctica,-67.4,164.83,1167,Stratovolcano,Uncertain,Unknown
Antarctica,1900-027,Takahe,Antarctica,Antarctica,-76.28,-112.08,3460,Shield volcano,Ice Core,D7
Antarctica,1900-026,Toney Mountain,Antarctica,Antarctica,-75.8,-115.83,3595,Shield volcano,Holocene,Unknown
Antarctica,1900-014,Unnamed,Antarctica,Antarctica,-73.45,164.58,2987,Scoria cone,Holocene,Unknown
Antarctica,1900-016,Unnamed,Antarctica,Antarctica,-76.83,163,-500,Submarine volcano,Holocene,Unknown
Antarctica,1900-024,Waesche,Antarctica,Antarctica,-77.17,-126.88,3292,Shield volcano,Holocene,Unknown
Antarctica,1900-011,Young Island,Antarctica,Antarctica,-66.42,162.47,1340,Stratovolcano,Fumarolic,U
Antarctica,1900-13=,Zavodovski,Antarctica,Antarctica,-56.3,-27.57,551,Stratovolcano,Historical,D3
 Atlantic Ocean,1805-03=,Romanche Fracture Zone,Atlantic Ocean,Atlantic-C,-0.433,-19.596,-1528,Submarine volcano,Historical,D3
 Atlantic Ocean,1805-01=,Unnamed,Atlantic Ocean,Atlantic-C,7,-21.83,-1415,Submarine volcano,Uncertain,Unknown
 Atlantic Ocean,1805-04=,Unnamed,Atlantic Ocean,Atlantic-C,-3.5,-24.5,-5300,Submarine volcano,Uncertain,Unknown
 Atlantic Ocean,1805-02=,Unnamed,Atlantic Ocean,Atlantic-C,4.2,-21.45,-2900,Submarine volcano,Uncertain,Unknown
 Atlantic Ocean,1801-04=,Pico Fracture Zone,Atlantic Ocean,Atlantic-N,38.75,-38.08,-4200,Submarine volcano,Historical,D3
 Atlantic Ocean,1801-03=,Unnamed,Atlantic Ocean,Atlantic-N,39.95,-25.83,-2835,Submarine volcano,Uncertain,Unknown
 Atlantic Ocean,1801-01=,Unnamed,Atlantic Ocean,Atlantic-N,66,-27.75,-108,Submarine volcano,Uncertain,D4
 Atlantic Ocean,1801-02=,Unnamed,Atlantic Ocean,Atlantic-N,49,-34.5,-1650,Submarine volcano,Historical,D3
 Atlantic Ocean,1805-05-,Ascension,Atlantic Ocean,Atlantic-S,-7.95,-14.37,858,Stratovolcano,Holocene,U
 Atlantic Ocean,1806-03-,Thompson Island,Atlantic Ocean,Atlantic-S,-53.93,5.5,0,Submarine volcano,Uncertain,Unknown
 Atlantic Ocean,1805-051,Trindade,Atlantic Ocean,Atlantic-S,-20.514,-29.331,600,Stratovolcano,Holocene,U
 Atlantic Ocean,1806-01=,Tristan da Cunha,Atlantic Ocean,Atlantic-S,-37.092,-12.28,2060,Stratovolcano,Historical,D2
 Atlantic Ocean,1806-02-,Bouvet,Bouvet I.,Atlantic-S,-54.408,3.351,741,Shield volcano,Magnetism,D7
 Atlantic Ocean,1806-011,Nightingale Island,United Kingdom,Atlantic-S,-37.42,-12.48,365,Stratovolcano,Historical,D1
 Atlantic Ocean,1802-09=,Agua de Pau,Portugal,Azores,37.77,-25.47,947,Stratovolcano,Historical,D5
 Atlantic Ocean,1802-002,Corvo,Portugal,Azores,39.699,-31.111,718,Stratovolcano,Holocene,U
 Atlantic Ocean,1802-07=,Don Joao de Castro Bank,Portugal,Azores,38.23,-26.63,-13,Submarine volcano,Historical,D4
 Atlantic Ocean,1802-01=,Fayal,Portugal,Azores,38.6,-28.73,1043,Stratovolcano,Historical,D2
 Atlantic Ocean,1802-001,Flores,Portugal,Azores,39.462,-31.216,914,Stratovolcano,Radiocarbon,D7
 Atlantic Ocean,1802-10=,Furnas,Portugal,Azores,37.77,-25.32,805,Stratovolcano,Historical,D5
 Atlantic Ocean,1802-04=,Graciosa,Portugal,Azores,39.02,-27.97,402,Stratovolcano,Holocene,U
 Atlantic Ocean,1802-12-,Madeira,Portugal,Azores,32.73,-16.97,1862,Shield volcano,Radiocarbon,D7
 Atlantic Ocean,1802-11=,Monaco Bank,Portugal,Azores,37.6,-25.88,-197,Submarine volcano,Historical,D2
 Atlantic Ocean,1802-02=,Pico,Portugal,Azores,38.47,-28.4,2351,Stratovolcano,Historical,D4
 Atlantic Ocean,1802-081,Picos Volcanic System,Portugal,Azores,37.78,-25.67,350,Pyroclastic cone,Historical,D5
 Atlantic Ocean,1802-03=,San Jorge,Portugal,Azores,38.65,-28.08,1053,Fissure vent,Historical,D2
 Atlantic Ocean,1802-08=,Sete Cidades,Portugal,Azores,37.87,-25.78,856,Stratovolcano,Historical,D3
 Atlantic Ocean,1802-05=,Terceira,Portugal,Azores,38.73,-27.32,1023,Stratovolcano,Historical,D1
 Atlantic Ocean,1803-05-,Fuerteventura,Spain,Canary Is,28.358,-14.02,529,Fissure vent,Holocene,U
 Atlantic Ocean,1803-04-,Gran Canaria,Spain,Canary Is,28,-15.58,1950,Fissure vent,Radiocarbon,D7
 Atlantic Ocean,1803-02-,Hierro,Spain,Canary Is,27.73,-18.03,1500,Shield volcano,Historical,D4
 Atlantic Ocean,1803-01-,La Palma,Spain,Canary Is,28.57,-17.83,2426,Stratovolcano,Historical,D1
 Atlantic Ocean,1803-06-,Lanzarote,Spain,Canary Is,29.03,-13.63,670,Fissure vent,Historical,D3
 Atlantic Ocean,1803-03-,Tenerife,Spain,Canary Is,28.271,-16.641,3715,Stratovolcano,Historical,D2
 Atlantic Ocean,1804-02-,Brava,Cape Verde,Cape Verde Is,14.85,-24.72,900,Stratovolcano,Holocene,U
 Atlantic Ocean,1804-01=,Fogo,Cape Verde,Cape Verde Is,14.95,-24.35,2829,Stratovolcano,Historical,D1
 Atlantic Ocean,1804-03-,Santo Antao,Cape Verde,Cape Verde Is,17.07,-25.17,1979,Stratovolcano,Holocene,U
 Canada and Western USA,1200-02-,Alligator Lake,Canada,Canada,60.42,-135.42,2217,Volcanic field,Holocene,U
 Canada and Western USA,1200-03-,Atlin Volcanic Field,Canada,Canada,59.68,-133.32,1880,Cinder cone,Historical,D3
 Canada and Western USA,1200-17-,Bridge River Cones,Canada,Canada,50.8,-123.4,2500,Volcanic field,Holocene,U
 Canada and Western USA,1200-11-,Crow Lagoon,Canada,Canada,54.7,-130.23,335,Pyroclastic cone,Holocene,U
 Canada and Western USA,1200-06-,Edziza,Canada,Canada,57.72,-130.63,2786,Stratovolcano,Radiocarbon,D6
 Canada and Western USA,1200-01-,Fort Selkirk,Canada,Canada,62.93,-137.38,1239,Volcanic field,Holocene,U
 Canada and Western USA,1200-20-,Garibaldi,Canada,Canada,49.85,-123,2678,Stratovolcano,Radiocarbon,D7
 Canada and Western USA,1200-19-,Garibaldi Lake,Canada,Canada,49.933,-123,2316,Volcanic field,Holocene,U
 Canada and Western USA,1200-04-,Heart Peaks,Canada,Canada,58.6,-131.97,2012,Shield volcano,Holocene,U
 Canada and Western USA,1200-08-,Hoodoo Mountain,Canada,Canada,56.78,-131.28,1850,Subglacial volcano,Holocene,U
 Canada and Western USA,1200-09-,Iskut-Unuk River Cones,Canada,Canada,56.58,-130.55,1880,Cinder cone,Radiocarbon,D3
 Canada and Western USA,1200-05-,Level Mountain,Canada,Canada,58.42,-131.35,2190,Shield volcano,Holocene,U
 Canada and Western USA,1200-18-,Meager,Canada,Canada,50.63,-123.5,2680,Complex volcano,Radiocarbon,D7
 Canada and Western USA,1200-12-,Milbanke Sound Group,Canada,Canada,52.5,-128.73,335,Cinder cone,Holocene,U
 Canada and Western USA,1200-14-,Nazko,Canada,Canada,52.928,-123.732,1238,Cinder cone,Radiocarbon,D7
 Canada and Western USA,1200-13-,Satah Mountain,Canada,Canada,52.47,-124.7,1921,Volcanic field,Holocene,U
 Canada and Western USA,1200-16-,Silverthrone,Canada,Canada,51.43,-126.3,3160,Caldera,Holocene,U
 Canada and Western USA,1200-07-,Spectrum Range,Canada,Canada,57.43,-130.68,2430,Shield volcano,Holocene,U
 Canada and Western USA,1200-10-,Tseax River Cone,Canada,Canada,55.12,-128.9,609,Pyroclastic cone,Radiocarbon,D4
 Canada and Western USA,1200-031,Tuya Volcanic Field,Canada,Canada,59.37,-130.58,2123,Volcanic field,Holocene,U
 Canada and Western USA,1200-15-,Wells Gray-Clearwater,Canada,Canada,52.33,-120.57,2576,Cinder cone,Dendrochronology,D5
 Canada and Western USA,1209-02-,San Francisco Volcanic Field,United States,US-Arizona,35.347,-111.678,3850,Cinder cone,Dendrochronology,D6
 Canada and Western USA,1209-01-,Uinkaret Field,United States,US-Arizona,36.38,-113.13,1555,Volcanic field,Holocene,U
 Canada and Western USA,1203-04-,Big Cave,United States,US-California,40.955,-121.365,1259,Shield volcano,Holocene,Unknown
 Canada and Western USA,1203-03-,Brushy Butte,United States,US-California,41.178,-121.443,1174,Shield volcano,Holocene,Unknown
 Canada and Western USA,1203-10-,Clear Lake,United States,US-California,38.97,-122.77,1439,Volcanic field,Holocene,U
 Canada and Western USA,1203-18-,Coso Volc Field,United States,US-California,36.03,-117.82,2400,Lava dome,Holocene,Unknown
 Canada and Western USA,1203-09-,Eagle Lake Field,United States,US-California,40.63,-120.83,1652,Fissure vent,Holocene,Unknown
 Canada and Western USA,1203-17-,Golden Trout Creek,United States,US-California,36.358,-118.32,2886,Volcanic field,Tephrochronology,D7
 Canada and Western USA,1203-13-,Inyo Craters,United States,US-California,37.692,-119.02,2629,Lava dome,Radiocarbon,D6
 Canada and Western USA,1203-08-,Lassen Volcanic Center,United States,US-California,40.492,-121.508,3187,Stratovolcano,Historical,D2
 Canada and Western USA,1203-19-,Lavic Lake,United States,US-California,34.75,-116.625,1495,Volcanic field,Holocene,U
 Canada and Western USA,1203-15-,Mammoth Mountain,United States,US-California,37.631,-119.032,3369,Cinder cone,Holocene,U
 Canada and Western USA,1203-02-,Medicine Lake,United States,US-California,41.611,-121.554,2412,Shield volcano,Radiocarbon,D6
 Canada and Western USA,1203-11-,Mono Lake Volcanic Field,United States,US-California,38,-119.03,2121,Cinder cone,Tephrochronology,D4
 Canada and Western USA,1203-12-,Mono-Inyo Craters,United States,US-California,37.804,-119.029,2796,Lava dome,Radiocarbon,D6
 Canada and Western USA,1203-20-,Salton Buttes,United States,US-California,33.197,-115.616,-40,Cinder cone,Holocene,U
 Canada and Western USA,1203-01-,Shasta,United States,US-California,41.409,-122.193,4317,Stratovolcano,Historical,D4
 Canada and Western USA,1203-06-,Tumble Buttes,United States,US-California,40.68,-121.55,2191,Cinder cone,Holocene,Unknown
 Canada and Western USA,1203-05-,Twin Buttes,United States,US-California,40.78,-121.6,1631,Cinder cone,Holocene,Unknown
 Canada and Western USA,1203-16-,Ubehebe Craters,United States,US-California,37.02,-117.45,752,Maar,Holocene,U
 Canada and Western USA,1208-01-,Dotsero,United States,US-Colorado,39.661,-107.035,2230,Maar,Radiocarbon,D7
 Canada and Western USA,1204-01-,Black Butte Crater Lava Field,United States,US-Idaho,43.183,-114.352,1478,Cinder cone,Holocene,Unknown
 Canada and Western USA,1204-02-,Craters of the Moon,United States,US-Idaho,43.42,-113.5,2005,Cinder cone,Radiocarbon,D7
 Canada and Western USA,1204-04-,Hell's Half Acre,United States,US-Idaho,43.5,-112.45,1631,Shield volcano,Radiocarbon,D7
 Canada and Western USA,1204-03-,Wapi Lava Field,United States,US-Idaho,42.88,-113.22,1604,Shield volcano,Radiocarbon,D7
 Canada and Western USA,1206-01-,Soda Lakes,United States,US-Nevada,39.53,-118.87,1251,Lava dome,Pleistocene-Fumarol,Q
 Canada and Western USA,1210-01-,Carrizozo,United States,US-New Mexico,33.78,-105.93,1731,Cinder cone,Holocene,U
 Canada and Western USA,1210-02-,Zuni-Bandera,United States,US-New Mexico,34.8,-108,2550,Volcanic field,Anthropology,D7
 Canada and Western USA,1202-09-,Bachelor,United States,US-Oregon,43.979,-121.688,2763,Stratovolcano,Tephrochronology,D7
 Canada and Western USA,1202-06-,Belknap,United States,US-Oregon,44.285,-121.841,2095,Shield volcano,Radiocarbon,D6
 Canada and Western USA,1202-03-,Blue Lake Crater,United States,US-Oregon,44.411,-121.774,1230,Maar,Radiocarbon,D7
 Canada and Western USA,1202-15-,Cinnamon Butte,United States,US-Oregon,43.241,-122.108,1956,Cinder cone,Holocene,Unknown
 Canada and Western USA,1202-16-,Crater Lake,United States,US-Oregon,42.93,-122.12,2487,Caldera,Radiocarbon,D7
 Canada and Western USA,1202-10-,Davis Lake,United States,US-Oregon,43.57,-121.82,2163,Volcanic field,Radiocarbon,D7
 Canada and Western USA,1202-12-,Devils Garden,United States,US-Oregon,43.512,-120.861,1698,Volcanic field,Holocene,Unknown
 Canada and Western USA,1202-17-,Diamond Craters,United States,US-Oregon,43.1,-118.75,1435,Volcanic field,Holocene,Unknown
 Canada and Western USA,1202-14-,Four Craters Lava Field,United States,US-Oregon,43.361,-120.669,1501,Volcanic field,Holocene,Unknown
 Canada and Western USA,1202-01-,Hood,United States,US-Oregon,45.374,-121.695,3426,Stratovolcano,Historical,D3
 Canada and Western USA,1202-02-,Jefferson,United States,US-Oregon,44.674,-121.8,3199,Stratovolcano,Varve Count,D6
 Canada and Western USA,1202-19-,Jordan Craters,United States,US-Oregon,43.147,-117.46,1473,Volcanic field,Holocene,U
 Canada and Western USA,1202-11-,Newberry,United States,US-Oregon,43.722,-121.229,2434,Shield volcano,Radiocarbon,D6
 Canada and Western USA,1202-04-,Sand Mountain Field,United States,US-Oregon,44.38,-121.93,1664,Cinder cone,Radiocarbon,D7
 Canada and Western USA,1202-08-,South Sister,United States,US-Oregon,44.1,-121.77,3157,Complex volcano,Radiocarbon,D7
 Canada and Western USA,1202-13-,Squaw Ridge Field,United States,US-Oregon,43.472,-120.754,1711,Volcanic field,Holocene,Unknown
 Canada and Western USA,1202-07-,Three Sisters,United States,US-Oregon,44.133,-121.767,3159,Complex volcano,Radiocarbon,D6
 Canada and Western USA,1207-03-,Bald Knoll,United States,US-Utah,37.328,-112.408,2135,Cinder cone,Holocene,Unknown
 Canada and Western USA,1207-05-,Black Rock Desert,United States,US-Utah,38.97,-112.5,1800,Volcanic field,Radiocarbon,D6
 Canada and Western USA,1207-04-,Markagunt Plateau,United States,US-Utah,37.58,-112.67,2840,Volcanic field,Dendrochronology,D6
 Canada and Western USA,1207-01-,Santa Clara,United States,US-Utah,37.257,-113.625,1465,Volcanic field,Holocene,U
 Canada and Western USA,1201-04-,Adams,United States,US-Washington,46.206,-121.49,3742,Stratovolcano,Tephrochronology,D6
 Canada and Western USA,1201-01=,Baker,United States,US-Washington,48.777,-121.813,3285,Stratovolcano,Historical,D3
 Canada and Western USA,1201-02-,Glacier Peak,United States,US-Washington,48.112,-121.113,3213,Stratovolcano,Tephrochronology,D4
 Canada and Western USA,1201-07-,Indian Heaven,United States,US-Washington,45.93,-121.82,1806,Shield volcano,Radiocarbon,D7
 Canada and Western USA,1201-03-,Rainier,United States,US-Washington,46.853,-121.76,4392,Stratovolcano,Dendrochronology,D3
 Canada and Western USA,1201-05-,St. Helens,United States,US-Washington,46.2,-122.18,2549,Stratovolcano,Historical,D1
 Canada and Western USA,1201-06-,West Crater,United States,US-Washington,45.88,-122.08,1329,Volcanic field,Radiocarbon,D7
 Canada and Western USA,1205-01-,Yellowstone,United States,US-Wyoming,44.43,-110.67,2805,Caldera,Tephrochronology,D7
 Hawaii and Pacific Ocean,1303-08-,Macdonald,Antarctica,Austral Is-C Pacific,-28.98,-140.25,-39,Submarine volcano,Historical,D1
 Hawaii and Pacific Ocean,1302-06-,Haleakala,United States,Hawaiian Is,20.708,-156.25,3055,Shield volcano,Historical,D4
 Hawaii and Pacific Ocean,1302-04-,Hualalai,United States,Hawaiian Is,19.692,-155.87,2523,Shield volcano,Historical,D3
 Hawaii and Pacific Ocean,1302-01-,Kilauea,United States,Hawaiian Is,19.421,-155.287,1222,Shield volcano,Historical,D1
 Hawaii and Pacific Ocean,1302-00-,Loihi,United States,Hawaiian Is,18.92,-155.27,-975,Submarine volcano,Historical,D1
 Hawaii and Pacific Ocean,1302-03-,Mauna Kea,United States,Hawaiian Is,19.82,-155.47,4205,Shield volcano,Radiocarbon,D7
 Hawaii and Pacific Ocean,1302-02=,Mauna Loa,United States,Hawaiian Is,19.475,-155.608,4170,Shield volcano,Historical,D1
 Hawaii and Pacific Ocean,1302-09-,Unnamed,United States,Hawaiian Is,23.58,-163.83,-4000,Submarine volcano,Historical,D2
 Hawaii and Pacific Ocean,1302-08-,Unnamed,United States,Hawaiian Is,21.75,-158.75,-3000,Submarine volcano,Uncertain,Unknown
 Hawaii and Pacific Ocean,1303-02-,Galapagos Rift,Pacific Ocean,Pacific-E,0.792,-86.15,-2430,Submarine volcano,Historical,D1
 Hawaii and Pacific Ocean,1304-07-,Galapagos Rift,Pacific Ocean,Pacific-E,0.792,-86.15,-2430,Submarine volcano,Historical,D2
 Hawaii and Pacific Ocean,1304-04-,Northern EPR at 10.7°N,Pacific Ocean,Pacific-E,10.73,-103.58,-2900,Submarine volcano,Historical,D1
 Hawaii and Pacific Ocean,1304-021,Northern EPR at 16°N,Pacific Ocean,Pacific-E,15.83,-105.43,-2300,Submarine volcano,Magnetism,D7
 Hawaii and Pacific Ocean,1304-05-,Northern EPR at 9.8°N,Pacific Ocean,Pacific-E,9.83,-104.3,-2500,Submarine volcano,Historical,D1
 Hawaii and Pacific Ocean,1304-10-,Southern EPR at 8°S,Pacific Ocean,Pacific-E,-8.27,-107.95,-2800,Submarine volcano,Historical,D2
 Hawaii and Pacific Ocean,1304-14-,Southern EPR-Segment I,Pacific Ocean,Pacific-E,-18.53,-113.42,-2600,Submarine volcano,Magnetism,D2
 Hawaii and Pacific Ocean,1304-13-,Southern EPR-Segment J,Pacific Ocean,Pacific-E,-18.175,-113.35,-2650,Submarine volcano,Magnetism,D3
 Hawaii and Pacific Ocean,1304-12-,Southern EPR-Segment K,Pacific Ocean,Pacific-E,-17.436,-113.206,-2566,Submarine volcano,Historical,D2
 Hawaii and Pacific Ocean,1303-01-,Unnamed,Pacific Ocean,Pacific-E,9.82,-104.3,-2500,Submarine volcano,Historical,D1
 Hawaii and Pacific Ocean,1301-021,Axial Seamount,Pacific Ocean,Pacific-NE,45.95,-130,-1410,Submarine volcano,Historical,D1
 Hawaii and Pacific Ocean,1301-02-,Cleft Segment,Pacific Ocean,Pacific-NE,44.83,-130.3,-2140,Submarine volcano,Historical,D1
 Hawaii and Pacific Ocean,1301-011,Cobb Segment,Pacific Ocean,Pacific-NE,46.88,-129.33,-2100,Submarine volcano,Historical,D1
 Hawaii and Pacific Ocean,1301-01-,Endeavour Segment,Pacific Ocean,Pacific-NE,47.95,-129.1,-2050,Submarine volcano,Historical,D1
 Hawaii and Pacific Ocean,1301-04-,Escanaba Segment,Pacific Ocean,Pacific-NE,40.98,-127.5,-1700,Submarine volcano,Uranium-series,D7
 Hawaii and Pacific Ocean,1301-031,North Gorda Ridge Segment,Pacific Ocean,Pacific-NE,42.67,-126.78,-3000,Submarine volcano,Historical,D2
 Hawaii and Pacific Ocean,1301-03-,Unnamed,Pacific Ocean,Pacific-NE,31.75,-124.25,-2533,Submarine volcano,Uncertain,Unknown
 Hawaii and Pacific Ocean,1301-05-,Unnamed,Pacific Ocean,Pacific-NE,31.75,-124.25,-2533,Submarine volcano?,Uncertain,?
 Hawaii and Pacific Ocean,1305-01-,Antipodes Island,New Zealand,Pacific-S,-49.683,178.767,402,Pyroclastic cones,Holocene?,?
 Hawaii and Pacific Ocean,1305-02-,Hollister Ridge,Pacific Ocean,Pacific-S,-53.998,-139.845,-1000,Submarine volcano,Uncertain,?
 Hawaii and Pacific Ocean,1305-03-,Udintsev Transform,Pacific Ocean,Pacific-S,-56.153,-143.373,-5700,Submarine volcano,Uncertain,?
 Hawaii and Pacific Ocean,1304-02-,Unnamed,Pacific Ocean,Pacific-S,-53.9,-140.3,-1000,Submarine volcano,Uncertain,Unknown
 Hawaii and Pacific Ocean,1303-06-,Mehetia,France,Society Is-C Pacific,-17.874,-148.068,389,Stratovolcano,Anthropology,U
 Hawaii and Pacific Ocean,1303-05-,Moua Pihaa,France,Society Is-C Pacific,-18.325,-148.525,-312,Submarine volcano,Seismicity,U
 Hawaii and Pacific Ocean,1303-04-,Rocard,France,Society Is-C Pacific,-17.662,-148.586,-2515,Submarine volcano,Seismicity,U
 Hawaii and Pacific Ocean,1303-03-,Teahitia,France,Society Is-C Pacific,-17.564,-148.821,-1743,Submarine volcano,Seismicity,U
Iceland and Arctic Ocean,1707-02-,East Gakkel Ridge at 85°E,Arctic Ocean,Arctic Ocean,85.608,85.25,-3800,Submarine volcano,Holocene,U
Iceland and Arctic Ocean,1707-01-,Unnamed,Arctic Ocean,Arctic Ocean,88.27,-65.6,-1500,Submarine volcano,Historical,D2
Iceland and Arctic Ocean,1706-01=,Jan Mayen,Jan Mayen,Atlantic-N-Jan Mayen,71.082,-8.155,2197,Stratovolcano,Historical,D1
Iceland and Arctic Ocean,1703-09=,Theistareykir,Iceland,Iceland,65.833,-17.166,540,Shield volcano,Tephrochronology,D7
Iceland and Arctic Ocean,1703-15-,Manareyjar,Iceland,Iceland-N,66.3,-17.1,0,Submarine volcano,Historical,D3
Iceland and Arctic Ocean,1705-01=,Kolbeinsey Ridge,Iceland,Iceland-N of,66.67,-18.5,5,Submarine volcano,Historical,D4
Iceland and Arctic Ocean,1703-10=,Tjornes Fracture Zone,Iceland,Iceland-N of,66.309,-17.118,-75,Submarine volcano,Historical,D3
Iceland and Arctic Ocean,1703-06=,Askja,Iceland,Iceland-NE,65.033,-16.783,1080,Stratovolcano,Historical,D2
Iceland and Arctic Ocean,1703-03=,Bardarbunga,Iceland,Iceland-NE,64.633,-17.516,2000,Stratovolcano,Historical,D2
Iceland and Arctic Ocean,1703-07=,Fremrinamar,Iceland,Iceland-NE,65.416,-16.666,970,Stratovolcano,Tephrochronology,D7
Iceland and Arctic Ocean,1703-01=,Grimsvotn,Iceland,Iceland-NE,64.416,-17.316,1719,Caldera,Historical,D1
Iceland and Arctic Ocean,1703-08=,Krafla,Iceland,Iceland-NE,65.715,-16.728,800,Caldera,Historical,D1
Iceland and Arctic Ocean,1703-05=,Kverkfjoll,Iceland,Iceland-NE,64.653,-16.647,1930,Stratovolcano,Historical,D1
Iceland and Arctic Ocean,1702-15-,Lakagigar,Iceland,Iceland-NE,64.42,-17.33,1725,Caldera,Historical,D1
Iceland and Arctic Ocean,1702-18-,Trollagigar,Iceland,Iceland-NE,64.43,-18.13,1000,Crater rows,Historical,D3
Iceland and Arctic Ocean,1703-04=,Tungnafellsjokull,Iceland,Iceland-NE,64.75,-17.916,1523,Stratovolcano,Holocene,U
Iceland and Arctic Ocean,1702-02=,Eyjafjallajokull,Iceland,Iceland-S,63.633,-19.633,1651,Stratovolcano,Historical,D1
Iceland and Arctic Ocean,1702-07=,Hekla,Iceland,Iceland-S,63.983,-19.666,1490,Stratovolcano,Historical,D1
Iceland and Arctic Ocean,1701-051,Hromundartindur,Iceland,Iceland-S,64.083,-21.333,550,Stratovolcano,Holocene?,?
Iceland and Arctic Ocean,1702-03=,Katla,Iceland,Iceland-S,63.633,-19.083,1490,Subglacial volcano,Historical,D2
Iceland and Arctic Ocean,1702-09-,Krakagiger,Iceland,Iceland-S,63.98,-19.7,1491,Stratovolcano,Historical,D1
Iceland and Arctic Ocean,1702-10-,Lambafit,Iceland,Iceland-S,64.08,-19.4,550,Crater rows,Historical,D1
Iceland and Arctic Ocean,1702-08-,Mundafell,Iceland,Iceland-S,63.98,-19.7,1491,Stratovolcano,Historical,D1
Iceland and Arctic Ocean,1702-19-,Thordarhyrna,Iceland,Iceland-S,62.27,-17.6,1659,Stratovolcano,Historical,D2
Iceland and Arctic Ocean,1702-04=,Tindfjallajokull,Iceland,Iceland-S,63.783,-19.716,1464,Stratovolcano,Holocene,U
Iceland and Arctic Ocean,1702-05=,Torfajokull,Iceland,Iceland-S,63.892,-19.122,1280,Stratovolcano,Historical,D6
Iceland and Arctic Ocean,1702-01=,Vestmannaeyjar,Iceland,Iceland-S,63.416,-20.266,283,Submarine volcano,Historical,D1
Iceland and Arctic Ocean,1704-02=,Esjufjoll,Iceland,Iceland-SE,64.25,-16.583,1620,Stratovolcano,Historical,D2
Iceland and Arctic Ocean,1704-01=,Oraefajokull,Iceland,Iceland-SE,64.05,-16.633,2010,Stratovolcano,Historical,D4
Iceland and Arctic Ocean,1701-04=,Brennisteinsfjoll,Iceland,Iceland-SW,63.933,-21.783,610,Crater rows,Historical,D6
Iceland and Arctic Ocean,1701-06=,Grimsnes,Iceland,Iceland-SW,64.05,-20.883,200,Crater rows,Tephrochronology,D7
Iceland and Arctic Ocean,1701-05=,Hengill,Iceland,Iceland-SW,64.083,-21.416,803,Crater rows,Radiocarbon,D6
Iceland and Arctic Ocean,1701-09=,Hofsjokull,Iceland,Iceland-SW,64.833,-18.766,1765,Subglacial volcano,Holocene,U
Iceland and Arctic Ocean,1701-17-,Kristnitokugigar,Iceland,Iceland-SW,63.98,-21.42,301,Crater rows,Historical,Unknown
Iceland and Arctic Ocean,1701-03=,Krysuvik,Iceland,Iceland-SW,63.883,-22.083,360,Crater rows,Historical,D6
Iceland and Arctic Ocean,1701-08=,Langjokull,Iceland,Iceland-SW,64.85,-19.7,1100,Stratovolcano,Radiocarbon,D6
Iceland and Arctic Ocean,1701-07=,Prestahnukur,Iceland,Iceland-SW,64.583,-20.666,1385,Subglacial volcano,Radiocarbon,D7
Iceland and Arctic Ocean,1701-02=,Reykjanes,Iceland,Iceland-SW,63.85,-22.566,140,Crater rows,Historical,D6
Iceland and Arctic Ocean,1701-01=,Reykjaneshryggur,Iceland,Iceland-SW,63.67,-23.33,80,Submarine volcanoes,Historical,D1
Iceland and Arctic Ocean,1700-02=,Helgrindur,Iceland,Iceland-W,64.866,-23.283,986,Pyroclastic cone,Holocene,U
Iceland and Arctic Ocean,1700-03=,Ljosufjoll,Iceland,Iceland-W,64.9,-22.483,1063,Fissure vent,Anthropology,D6
Iceland and Arctic Ocean,1700-01=,Snaefellsjokull,Iceland,Iceland-W,64.8,-23.783,1446,Stratovolcano,Radiocarbon,D6
Indonesia,0600-01=,Barren Island,India,Andaman Is-Indian O,12.278,93.858,354,Stratovolcano,Historical,D1
Indonesia,0600-001,Narcondum,India,Andaman Is-Indian O,13.43,94.28,710,Stratovolcano,Holocene,U
Indonesia,0605-04=,Wurlali,Indonesia,Banda Sea,-7.125,128.675,868,Stratovolcano,Historical,D3
Indonesia,0605-09=,Banda Api,Pacific Ocean,Banda Sea,-4.523,129.881,596,Caldera,Historical,D1
Indonesia,0605-01=,Emperor of China,Pacific Ocean,Banda Sea,-6.62,124.22,-2850,Submarine volcano,Uncertain,Unknown
Indonesia,0605-03=,Gunungapi Wetar,Pacific Ocean,Banda Sea,-6.642,126.65,282,Stratovolcano,Historical,D5
Indonesia,0605-08=,Manuk,Pacific Ocean,Banda Sea,-5.543,130.303,257,Stratovolcano,Fumarolic,U
Indonesia,0605-02=,Nieuwerkerk,Pacific Ocean,Banda Sea,-6.6,124.675,-2285,Submarine volcano,Uncertain,Unknown
Indonesia,0605-06=,Nila,Pacific Ocean,Banda Sea,-6.73,129.5,781,Stratovolcano,Historical,D1
Indonesia,0605-07=,Serua,Pacific Ocean,Banda Sea,-6.312,130.017,608,Stratovolcano,Historical,D2
Indonesia,0605-05=,Teon,Pacific Ocean,Banda Sea,-6.976,129.144,728,Stratovolcano,Historical,D2
Indonesia,0610-01-,Bombalai,Malaysia,Borneo,4.4,117.88,531,Pyroclastic cone,Holocene,Unknown
Indonesia,0608-072,Amasing,Indonesia,Halmahera-Indonesia,-0.53,127.48,1030,Stratovolcano,Holocene,U
Indonesia,0608-073,Bibinoi,Indonesia,Halmahera-Indonesia,-0.761,127.725,932,Stratovolcano,Holocene,U
Indonesia,0608-01=,Dukono,Indonesia,Halmahera-Indonesia,1.693,127.894,1229,Complex volcano,Historical,D1
Indonesia,0608-06=,Gamalama,Indonesia,Halmahera-Indonesia,0.8,127.33,1715,Stratovolcano,Historical,D1
Indonesia,0608-04=,Gamkonora,Indonesia,Halmahera-Indonesia,1.38,127.53,1635,Stratovolcano,Historical,D1
Indonesia,0608-052,Hiri,Indonesia,Halmahera-Indonesia,0.9,127.32,630,Stratovolcano,Holocene,U
Indonesia,0608-03=,Ibu,Indonesia,Halmahera-Indonesia,1.488,127.63,1325,Stratovolcano,Historical,D1
Indonesia,0608-051,Jailolo,Indonesia,Halmahera-Indonesia,1.08,127.439,993,Stratovolcano,Holocene,U
Indonesia,0608-07=,Makian,Indonesia,Halmahera-Indonesia,0.32,127.4,1357,Stratovolcano,Historical,D1
Indonesia,0608-062,Mare,Indonesia,Halmahera-Indonesia,0.57,127.4,308,Unknown,Holocene,U
Indonesia,0608-063,Moti,Indonesia,Halmahera-Indonesia,0.454,127.411,927,Stratovolcano,Holocene,U
Indonesia,0608-001,Tarakan,Indonesia,Halmahera-Indonesia,1.83,127.83,318,Pyroclastic cone,Holocene,U
Indonesia,0608-061,Tidore,Indonesia,Halmahera-Indonesia,0.658,127.4,1730,Stratovolcano,Holocene,U
Indonesia,0608-071,Tigalalu,Indonesia,Halmahera-Indonesia,0.07,127.42,422,Unknown,Holocene,U
Indonesia,0608-02-,Tobaru,Indonesia,Halmahera-Indonesia,1.63,127.67,1035,Unknown,Holocene,U
Indonesia,0608-05=,Todoko-Ranu,Indonesia,Halmahera-Indonesia,1.25,127.47,979,Caldera,Holocene,U
Indonesia,0602-00=,Krakatau,Indonesia,Indonesia,-6.102,105.423,155,Caldera,Historical,D1
Indonesia,0603-29=,Arjuno-Welirang,Indonesia,Java,-7.733,112.575,3339,Stratovolcano,Historical,D2
Indonesia,0603-351,Baluran,Indonesia,Java,-7.85,114.37,1247,Stratovolcano,Holocene,Unknown
Indonesia,0603-17=,Cereme,Indonesia,Java,-6.895,108.408,3039,Stratovolcano,Historical,D2
Indonesia,0603-20=,Dieng Volcanic Complex,Indonesia,Java,-7.2,109.879,2565,Complex volcano,Historical,D1
Indonesia,0603-14=,Galunggung,Indonesia,Java,-7.25,108.058,2168,Stratovolcano,Historical,D1
Indonesia,0603-06=,Gede-Pangrango,Indonesia,Java,-6.77,106.965,3008,Stratovolcano,Historical,D2
Indonesia,0603-13=,Guntur,Indonesia,Java,-7.143,107.84,2249,Complex volcano,Historical,D3
Indonesia,0603-35=,Ijen,Indonesia,Java,-8.058,114.242,2769,Stratovolcano,Historical,D1
Indonesia,0603-33=,Iyang-Argapura,Indonesia,Java,-7.97,113.57,3088,Complex volcano,Holocene,U
Indonesia,0603-16=,"Karaha, Kawah",Indonesia,Java,-7.12,108.08,1155,Fumarole field,Fumarolic,U
Indonesia,0603-02=,Karang,Indonesia,Java,-6.268,106.05,1768,Stratovolcano,Holocene,Unknown
Indonesia,0603-281,Kawi-Butak,Indonesia,Java,-7.92,112.45,2651,Stratovolcano,Holocene,U
Indonesia,0603-28=,Kelut,Indonesia,Java,-7.93,112.308,1731,Stratovolcano,Historical,D1
Indonesia,0603-11=,Kendang,Indonesia,Java,-7.245,107.709,2594,Stratovolcano,Holocene,U
Indonesia,0603-03=,Kiaraberes-Gagak,Indonesia,Java,-6.73,106.65,1511,Stratovolcano,Historical,D2
Indonesia,0603-32=,Lamongan,Indonesia,Java,-7.981,113.341,1641,Stratovolcano,Historical,D3
Indonesia,0603-26=,Lawu,Indonesia,Java,-7.625,111.192,3265,Stratovolcano,Holocene,U
Indonesia,0603-321,Lurus,Indonesia,Java,-7.7,113.58,539,Complex volcano,Holocene,Unknown
Indonesia,0603-081,Malabar,Indonesia,Java,-7.13,107.65,2343,Stratovolcano,Holocene,Unknown
Indonesia,0603-292,Malang Plain,Indonesia,Java,-8.02,112.68,680,Maar,Holocene,U
Indonesia,0603-25=,Merapi,Indonesia,Java,-7.54,110.446,2910,Stratovolcano,Historical,D1
Indonesia,0603-24=,Merbabu,Indonesia,Java,-7.454,110.44,3118,Stratovolcano,Historical,D4
Indonesia,0603-251,Muria,Indonesia,Java,-6.62,110.88,1625,Stratovolcano,Holocene,D7
Indonesia,0603-10=,Papandayan,Indonesia,Java,-7.32,107.73,2665,Stratovolcano,Historical,D2
Indonesia,0603-07=,Patuha,Indonesia,Java,-7.162,107.4,2422,Stratovolcano,Holocene,U
Indonesia,0603-291,Penanggungan,Indonesia,Java,-7.616,112.62,1631,Stratovolcano,Holocene,U
Indonesia,0603-04=,Perbakti-Gagak,Indonesia,Java,-6.75,106.7,1699,Stratovolcano,Fumarolic,U
Indonesia,0603-01=,Pulosari,Indonesia,Java,-6.343,105.978,1324,Caldera,Holocene,U
Indonesia,0603-34=,Raung,Indonesia,Java,-8.119,114.056,3260,Stratovolcano,Historical,D1
Indonesia,0603-05=,Salak,Indonesia,Java,-6.72,106.73,2211,Stratovolcano,Historical,D2
Indonesia,0603-30=,Semeru,Indonesia,Java,-8.108,112.922,3657,Stratovolcano,Historical,D1
Indonesia,0603-18=,Slamet,Indonesia,Java,-7.242,109.208,3428,Stratovolcano,Historical,D1
Indonesia,0603-22=,Sumbing,Indonesia,Java,-7.384,110.07,3371,Stratovolcano,Historical,D4
Indonesia,0603-21=,Sundoro,Indonesia,Java,-7.3,109.992,3136,Stratovolcano,Historical,D1
Indonesia,0603-15=,Talagabodas,Indonesia,Java,-7.208,108.07,2201,Stratovolcano,Fumarolic,U
Indonesia,0603-131,Tampomas,Indonesia,Java,-6.77,107.95,1684,Stratovolcano,Holocene,U
Indonesia,0603-09=,Tangkuban Parahu,Indonesia,Java,-6.77,107.6,2084,Stratovolcano,Historical,D1
Indonesia,0603-231,Telomoyo,Indonesia,Java,-7.362,110.4,1864,Stratovolcano,Holocene,U
Indonesia,0603-31=,Tengger Caldera,Indonesia,Java,-7.942,112.95,2329,Stratovolcano,Historical,D1
Indonesia,0603-23=,Ungaran,Indonesia,Java,-7.18,110.33,2050,Stratovolcano,Holocene,U
Indonesia,0603-08=,Wayang-Windu,Indonesia,Java,-7.208,107.63,2182,Lava dome,Fumarolic,U
Indonesia,0603-27=,Wilis,Indonesia,Java,-7.808,111.758,2563,Stratovolcano,Holocene,U
Indonesia,0604-02=,Agung,Indonesia,Lesser Sunda Is,-8.343,115.508,2997,Stratovolcano,Historical,D1
Indonesia,0604-01=,Batur,Indonesia,Lesser Sunda Is,-8.242,115.375,1717,Caldera,Historical,D1
Indonesia,0604-001,Buyan-Bratan,Indonesia,Lesser Sunda Is,-8.283,115.133,2244,Caldera,Holocene,U
Indonesia,0604-10=,Ebulobo,Indonesia,Lesser Sunda Is,-8.817,121.191,2096,Stratovolcano,Historical,D1
Indonesia,0604-16=,Egon,Indonesia,Lesser Sunda Is,-8.676,122.455,1661,Stratovolcano,Historical,D2
Indonesia,0604-22=,Iliboleng,Indonesia,Lesser Sunda Is,-8.342,123.258,1659,Stratovolcano,Historical,D1
Indonesia,0604-24=,Ililabalekan,Indonesia,Lesser Sunda Is,-8.55,123.38,1018,Stratovolcano,Fumarolic,U
Indonesia,0604-17=,Ilimuda,Indonesia,Lesser Sunda Is,-8.479,122.761,881,Stratovolcano,Fumarolic,U
Indonesia,0604-25=,Iliwerung,Indonesia,Lesser Sunda Is,-8.53,123.57,1018,Complex volcano,Historical,D1
Indonesia,0604-09=,Inielika,Indonesia,Lesser Sunda Is,-8.73,120.98,1559,Complex volcano,Historical,D2
Indonesia,0604-08=,Inierie,Indonesia,Lesser Sunda Is,-8.875,120.95,2245,Stratovolcano,Fumarolic,U
Indonesia,0604-11=,Iya,Indonesia,Lesser Sunda Is,-8.891,121.641,618,Stratovolcano,Historical,D1
Indonesia,0604-14=,Kelimutu,Indonesia,Lesser Sunda Is,-8.77,121.82,1639,Complex volcano,Historical,D1
Indonesia,0604-20=,Leroboleng,Indonesia,Lesser Sunda Is,-8.365,122.833,1095,Complex volcano,Historical,D3
Indonesia,0604-18=,Lewotobi,Indonesia,Lesser Sunda Is,-8.542,122.775,1703,Stratovolcano,Historical,D1
Indonesia,0604-19=,Lewotobi Perempuan,Indonesia,Lesser Sunda Is,-8.575,122.78,1703,Stratovolcano,Historical,D1
Indonesia,0604-23=,Lewotolo,Indonesia,Lesser Sunda Is,-8.274,123.508,1431,Stratovolcano,Historical,D2
Indonesia,0604-13=,Ndete Napu,Indonesia,Lesser Sunda Is,-8.72,121.78,750,Fumarole field,Fumarolic,Unknown
Indonesia,0604-15=,Paluweh,Indonesia,Lesser Sunda Is,-8.32,121.708,875,Stratovolcano,Historical,D1
Indonesia,0604-07=,Poco Leok,Indonesia,Lesser Sunda Is,-8.68,120.48,1675,Unknown,Fumarolic,U
Indonesia,0604-071,Ranakah,Indonesia,Lesser Sunda Is,-8.62,120.52,2350,Lava dome,Historical,D1
Indonesia,0604-03=,Rinjani,Indonesia,Lesser Sunda Is,-8.42,116.47,3726,Stratovolcano,Historical,D1
Indonesia,0604-05=,Sangeang Api,Indonesia,Lesser Sunda Is,-8.2,119.07,1912,Complex volcano,Historical,D1
Indonesia,0604-06=,"Sano, Wai",Indonesia,Lesser Sunda Is,-8.724,119.986,1319,Caldera,Holocene,U
Indonesia,0604-27=,Sirung,Indonesia,Lesser Sunda Is,-8.508,124.13,862,Complex volcano,Historical,D1
Indonesia,0604-12=,Sukaria Caldera,Indonesia,Lesser Sunda Is,-8.792,121.77,1500,Caldera,Fumarolic,U
Indonesia,0604-04=,Tambora,Indonesia,Lesser Sunda Is,-8.25,118,2850,Stratovolcano,Historical,D1
Indonesia,0604-26=,"Tara, Batu",Indonesia,Lesser Sunda Is,-7.791,123.585,633,Stratovolcano,Historical,D3
Indonesia,0604-28=,Yersey,Indonesia,Lesser Sunda Is,-7.53,123.95,-3800,Submarine volcano,Uncertain,Unknown
Indonesia,0607-04=,Awu,Indonesia,Sangihe Is-Indonesia,3.689,125.447,1318,Stratovolcano,Historical,D1
Indonesia,0607-03=,Banua Wuhu,Indonesia,Sangihe Is-Indonesia,3.138,125.491,-5,Submarine volcano,Historical,D2
Indonesia,0607-02=,Karangetang,Indonesia,Sangihe Is-Indonesia,2.781,125.407,1797,Stratovolcano,Historical,D1
Indonesia,0607-01=,Ruang,Indonesia,Sangihe Is-Indonesia,2.3,125.37,725,Stratovolcano,Historical,D2
Indonesia,0607-05=,Unnamed,Indonesia,Sangihe Is-Indonesia,3.97,124.17,-5000,Submarine volcano,Uncertain,Unknown
Indonesia,0606-02=,Ambang,Indonesia,Sulawesi-Indonesia,0.75,124.42,1795,Complex volcano,Historical,D3
Indonesia,0606-01=,Colo,Indonesia,Sulawesi-Indonesia,-0.162,121.601,404,Stratovolcano,Historical,D1
Indonesia,0606-12=,Klabat,Indonesia,Sulawesi-Indonesia,1.454,125.031,1968,Stratovolcano,Fumarolic,U
Indonesia,0606-10=,Lokon-Empung,Indonesia,Sulawesi-Indonesia,1.358,124.792,1580,Stratovolcano,Historical,D1
Indonesia,0606-11=,Mahawu,Indonesia,Sulawesi-Indonesia,1.352,124.865,1299,Stratovolcano,Historical,D1
Indonesia,0606-04=,Riendengan-Sempu,Indonesia,Sulawesi-Indonesia,1.13,124.758,1549,Caldera,Fumarolic,U
Indonesia,0606-03=,Soputan,Indonesia,Sulawesi-Indonesia,1.112,124.737,1785,Stratovolcano,Historical,D1
Indonesia,0606-13=,Tangkoko-Duasudara,Indonesia,Sulawesi-Indonesia,1.518,125.185,1334,Stratovolcano,Historical,D3
Indonesia,0606-07-,Tondano Caldera,Indonesia,Sulawesi-Indonesia,1.23,124.83,1202,Caldera,Fumarolic,U
Indonesia,0601-25=,Besar,Indonesia,Sumatra,-4.43,103.67,1899,Stratovolcano,Historical,D2
Indonesia,0601-21=,"Daun, Bukit",Indonesia,Sumatra,-3.38,102.37,2467,Stratovolcano,Fumarolic,U
Indonesia,0601-23=,Dempo,Indonesia,Sumatra,-4.016,103.121,3142,Stratovolcano,Historical,D1
Indonesia,0601-28=,Hulubelu,Indonesia,Sumatra,-5.334,104.59,849,Caldera,Fumarolic,U
Indonesia,0601-20=,Hululais,Indonesia,Sumatra,-3.247,102.239,2122,Compound volcano,Fumarolic,U
Indonesia,0601-171,Hutapanjang,Indonesia,Sumatra,-2.33,101.6,2021,Stratovolcano,Holocene,U
Indonesia,0601-172,Hutapanjang,Indonesia,Sumatra,-2.333,101.6,2021,Stratovolcano,Holocene,U
Indonesia,0601-101,Imun,Indonesia,Sumatra,2.15,98.93,1505,Unknown,Holocene,Unknown
Indonesia,0601-22=,Kaba,Indonesia,Sumatra,-3.522,102.615,1940,Stratovolcano,Historical,D2
Indonesia,0601-17=,Kerinci,Indonesia,Sumatra,-1.697,101.264,3800,Stratovolcano,Historical,D1
Indonesia,0601-111,Lubukraya,Indonesia,Sumatra,1.478,99.209,1862,Stratovolcano,Holocene,Unknown
Indonesia,0601-24=,"Lumut Balai, Bukit",Indonesia,Sumatra,-4.22,103.62,2055,Stratovolcano,Fumarolic,U
Indonesia,0601-121,Malintang,Indonesia,Sumatra,0.47,99.67,1983,Stratovolcano,Holocene,U
Indonesia,0601-14=,Marapi,Indonesia,Sumatra,-0.38,100.474,2885,Complex volcano,Historical,D1
Indonesia,0601-231,Patah,Indonesia,Sumatra,-4.257,103.306,2836,Unknown,Uncertain,Unknown
Indonesia,0601-191,Pendan,Indonesia,Sumatra,-2.82,102.02,0,Unknown,Holocene,U
Indonesia,0601-03=,Peuet Sague,Indonesia,Sumatra,4.903,96.289,2785,Complex volcano,Historical,D1
Indonesia,0601-29=,Rajabasa,Indonesia,Sumatra,-5.78,105.625,1281,Stratovolcano,Fumarolic,U
Indonesia,0601-251,Ranau,Indonesia,Sumatra,-4.871,103.925,1854,Caldera,Holocene,Unknown
Indonesia,0601-131,Sarik-Gajah,Indonesia,Sumatra,0.074,100.189,737,Pyroclastic cone,Holocene,Unknown
Indonesia,0601-26=,Sekincau Belirang,Indonesia,Sumatra,-5.107,104.317,1717,Caldera,Fumarolic,U
Indonesia,0601-02=,Seulawah Agam,Indonesia,Sumatra,5.448,95.658,1810,Stratovolcano,Historical,D3
Indonesia,0601-11=,Sibualbuali,Indonesia,Sumatra,1.556,99.255,1819,Stratovolcano,Holocene,Unknown
Indonesia,0601-08=,Sinabung,Indonesia,Sumatra,3.17,98.392,2460,Stratovolcano,Holocene,U
Indonesia,0601-07=,Singkut,Indonesia,Sumatra,3.248,98.501,2181,Stratovolcano,Historical,D3
Indonesia,0601-12=,Sorikmarapi,Indonesia,Sumatra,0.686,99.539,2145,Stratovolcano,Historical,D1
Indonesia,0601-18=,Sumbing,Indonesia,Sumatra,-2.414,101.728,2507,Stratovolcano,Historical,D2
Indonesia,0601-27=,Suoh,Indonesia,Sumatra,-5.25,104.27,1000,Maar,Historical,D2
Indonesia,0601-13=,Talakmau,Indonesia,Sumatra,0.079,99.98,2919,Complex volcano,Holocene,U
Indonesia,0601-16=,Talang,Indonesia,Sumatra,-0.979,100.681,2575,Stratovolcano,Historical,D1
Indonesia,0601-15=,Tandikat-Singgalang,Indonesia,Sumatra,-0.39,100.331,2854,Stratovolcano,Historical,D2
Indonesia,0601-05=,"Telong, Bur ni",Indonesia,Sumatra,4.769,96.821,2617,Stratovolcano,Historical,D2
Indonesia,0601-09=,Toba,Indonesia,Sumatra,2.58,98.83,2157,Caldera,Holocene,U
" Japan, Taiwan, Marianas",0805-07=,Akan,Japan,Hokkaido-Japan,43.384,144.013,1499,Caldera,Historical,D1
" Japan, Taiwan, Marianas",0805-011,Esan,Japan,Hokkaido-Japan,41.805,141.166,618,Stratovolcano,Historical,D3
" Japan, Taiwan, Marianas",0805-02=,Hokkaido-Komagatake,Japan,Hokkaido-Japan,42.063,140.677,1131,Stratovolcano,Historical,D1
" Japan, Taiwan, Marianas",0805-08=,Kussharo,Japan,Hokkaido-Japan,43.615,144.427,574,Caldera,Tephrochronology,D6
" Japan, Taiwan, Marianas",0805-034,Kuttara,Japan,Hokkaido-Japan,42.491,141.16,549,Stratovolcano,Tephrochronology,D3
" Japan, Taiwan, Marianas",0805-081,Mashu,Japan,Hokkaido-Japan,43.572,144.561,857,Caldera,Radiocarbon,D6
" Japan, Taiwan, Marianas",0805-031,Niseko,Japan,Hokkaido-Japan,42.875,140.659,1308,Stratovolcano,Holocene,U
" Japan, Taiwan, Marianas",0805-01=,Oshima-Oshima,Japan,Hokkaido-Japan,41.51,139.367,732,Stratovolcano,Historical,D4
" Japan, Taiwan, Marianas",0805-082,Rausudake,Japan,Hokkaido-Japan,44.076,145.122,1660,Stratovolcano,Tephrochronology,D3
" Japan, Taiwan, Marianas",0805-041,Rishirizan,Japan,Hokkaido-Japan,45.179,141.242,1721,Stratovolcano,Radiocarbon,D7
" Japan, Taiwan, Marianas",0805-062,Shikaribetsu Group,Japan,Hokkaido-Japan,43.28,143.08,1430,Lava dome,Holocene,U
" Japan, Taiwan, Marianas",0805-04=,Shikotsu,Japan,Hokkaido-Japan,42.688,141.38,1320,Caldera,Historical,D1
" Japan, Taiwan, Marianas",0805-09=,Shiretoko-Iozan,Japan,Hokkaido-Japan,44.133,145.161,1562,Stratovolcano,Historical,D2
" Japan, Taiwan, Marianas",0805-06=,Taisetsuzan,Japan,Hokkaido-Japan,43.664,142.854,2291,Stratovolcano,Tephrochronology,D6
" Japan, Taiwan, Marianas",0805-05=,Tokachidake,Japan,Hokkaido-Japan,43.418,142.686,2077,Stratovolcano,Historical,D1
" Japan, Taiwan, Marianas",0805-03=,Toya,Japan,Hokkaido-Japan,42.544,140.839,733,Stratovolcano,Historical,D1
" Japan, Taiwan, Marianas",0805-032,Yoteizan,Japan,Hokkaido-Japan,42.827,140.812,1888,Stratovolcano,Radiocarbon,D7
" Japan, Taiwan, Marianas",0803-001,Abu,Japan,Honshu-Japan,34.5,131.6,641,Shield volcano,Holocene,Unknown
" Japan, Taiwan, Marianas",0803-17=,Adatarayama,Japan,Honshu-Japan,37.647,140.281,1728,Stratovolcano,Historical,D1
" Japan, Taiwan, Marianas",0803-13=,Akagisan,Japan,Honshu-Japan,36.56,139.193,1828,Stratovolcano,Historical,D6
" Japan, Taiwan, Marianas",0803-23=,Akita-Komagatake,Japan,Honshu-Japan,39.761,140.799,1637,Stratovolcano,Historical,D1
" Japan, Taiwan, Marianas",0803-26=,Akita-Yakeyama,Japan,Honshu-Japan,39.964,140.757,1366,Complex volcano,Historical,D1
" Japan, Taiwan, Marianas",0803-11=,Asamayama,Japan,Honshu-Japan,36.406,138.523,2568,Complex volcano,Historical,D1
" Japan, Taiwan, Marianas",0803-18=,Azumayama,Japan,Honshu-Japan,37.735,140.244,1949,Stratovolcano,Historical,D1
" Japan, Taiwan, Marianas",0803-16=,Bandaisan,Japan,Honshu-Japan,37.601,140.072,1816,Stratovolcano,Historical,D3
" Japan, Taiwan, Marianas",0803-22=,Chokaisan,Japan,Honshu-Japan,39.099,140.049,2236,Stratovolcano,Historical,D1
" Japan, Taiwan, Marianas",0803-03=,Fujisan,Japan,Honshu-Japan,35.361,138.728,3776,Stratovolcano,Historical,D4
" Japan, Taiwan, Marianas",0803-25=,Hachimantai,Japan,Honshu-Japan,39.958,140.854,1613,Stratovolcano,Holocene,Unknown
" Japan, Taiwan, Marianas",0803-28=,Hakkodasan,Japan,Honshu-Japan,40.659,140.877,1585,Stratovolcano,Holocene,U
" Japan, Taiwan, Marianas",0803-02=,Hakoneyama,Japan,Honshu-Japan,35.233,139.021,1438,Complex volcano,Radiocarbon,D7
" Japan, Taiwan, Marianas",0803-05=,Hakusan,Japan,Honshu-Japan,36.155,136.771,2702,Stratovolcano,Historical,D5
" Japan, Taiwan, Marianas",0803-122,Harunasan,Japan,Honshu-Japan,36.477,138.851,1449,Stratovolcano,Anthropology,D6
" Japan, Taiwan, Marianas",0803-191,Hijiori,Japan,Honshu-Japan,38.599,140.162,552,Caldera,Radiocarbon,D7
" Japan, Taiwan, Marianas",0803-131,Hiuchigatake,Japan,Honshu-Japan,36.955,139.285,2356,Stratovolcano,Historical,D5
" Japan, Taiwan, Marianas",0803-27=,Iwakisan,Japan,Honshu-Japan,40.656,140.303,1625,Stratovolcano,Historical,D3
" Japan, Taiwan, Marianas",0803-24=,Iwatesan,Japan,Honshu-Japan,39.853,141.001,2038,Complex volcano,Historical,D2
" Japan, Taiwan, Marianas",0803-01=,Izu-Tobu,Japan,Honshu-Japan,34.9,139.098,1406,Pyroclastic cone,Historical,D1
" Japan, Taiwan, Marianas",0803-21=,Kurikomayama,Japan,Honshu-Japan,38.961,140.788,1627,Stratovolcano,Historical,D2
" Japan, Taiwan, Marianas",0803-12=,Kusatsu-Shiranesan,Japan,Honshu-Japan,36.618,138.528,2165,Stratovolcano,Historical,D1
" Japan, Taiwan, Marianas",0803-262,Megata,Japan,Honshu-Japan,39.95,139.73,291,Maar,Tephrochronology,D7
" Japan, Taiwan, Marianas",0803-08=,Midagahara,Japan,Honshu-Japan,36.571,137.59,2621,Stratovolcano,Historical,D3
" Japan, Taiwan, Marianas",0803-10=,Myokosan,Japan,Honshu-Japan,36.891,138.114,2454,Stratovolcano,Radiocarbon,D7
" Japan, Taiwan, Marianas",0803-141,Nantaisan,Japan,Honshu-Japan,36.765,139.491,2486,Stratovolcano,Holocene,U
" Japan, Taiwan, Marianas",0803-20=,Naruko,Japan,Honshu-Japan,38.729,140.734,470,Caldera,Historical,D6
" Japan, Taiwan, Marianas",0803-15=,Nasudake,Japan,Honshu-Japan,37.125,139.963,1915,Stratovolcano,Historical,D2
" Japan, Taiwan, Marianas",0803-09=,Niigata-Yakeyama,Japan,Honshu-Japan,36.921,138.036,2400,Lava dome,Historical,D1
" Japan, Taiwan, Marianas",0803-14=,Nikko-Shiranesan,Japan,Honshu-Japan,36.799,139.376,2578,Shield volcano,Historical,D3
" Japan, Taiwan, Marianas",0803-06=,Norikuradake,Japan,Honshu-Japan,36.106,137.554,3026,Stratovolcano,Radiocarbon,D7
" Japan, Taiwan, Marianas",0803-151,Numazawa,Japan,Honshu-Japan,37.444,139.566,835,Shield volcano,Radiocarbon,D7
" Japan, Taiwan, Marianas",0803-003,Oki-Dogo,Japan,Honshu-Japan,36.176,133.334,151,Shield volcano,Anthropology,U
" Japan, Taiwan, Marianas",0803-142,Omanago Group,Japan,Honshu-Japan,36.795,139.507,2341,Lava dome,Holocene,U
" Japan, Taiwan, Marianas",0803-04=,Ontakesan,Japan,Honshu-Japan,35.893,137.48,3067,Complex volcano,Historical,D1
" Japan, Taiwan, Marianas",0803-29=,Osorezan,Japan,Honshu-Japan,41.279,141.12,878,Stratovolcano,Historical,D4
" Japan, Taiwan, Marianas",0803-002,Sanbesan,Japan,Honshu-Japan,35.141,132.622,1126,Caldera,Radiocarbon,D7
" Japan, Taiwan, Marianas",0803-121,Shiga,Japan,Honshu-Japan,36.688,138.519,2041,Shield volcano,Holocene,U
" Japan, Taiwan, Marianas",0803-143,Takaharayama,Japan,Honshu-Japan,36.9,139.777,1795,Stratovolcano,Holocene,U7
" Japan, Taiwan, Marianas",0803-271,Towada,Japan,Honshu-Japan,40.51,140.88,1011,Caldera,Historical,D6
" Japan, Taiwan, Marianas",0803-071,Washiba-Kumonotaira,Japan,Honshu-Japan,36.408,137.594,2924,Shield volcano,Tephrochronology,D7
" Japan, Taiwan, Marianas",0803-07=,Yakedake,Japan,Honshu-Japan,36.227,137.587,2455,Stratovolcano,Historical,D1
" Japan, Taiwan, Marianas",0803-031,Yokodake,Japan,Honshu-Japan,36.087,138.32,2480,Stratovolcano,Holocene,U
" Japan, Taiwan, Marianas",0803-19=,Zaozan [Zaosan],Japan,Honshu-Japan,38.144,140.44,1841,Complex volcano,Historical,D2
" Japan, Taiwan, Marianas",0804-06=,Aogashima,Japan,Izu Is-Japan,32.458,139.759,423,Stratovolcano,Historical,D4
" Japan, Taiwan, Marianas",0804-095,Doyo Seamount,Japan,Izu Is-Japan,27.68,140.8,-590,Submarine volcano,Fumarolic,U
" Japan, Taiwan, Marianas",0804-05=,Hachijojima,Japan,Izu Is-Japan,33.137,139.766,854,Stratovolcano,Historical,D5
" Japan, Taiwan, Marianas",0804-01=,Izu-Oshima,Japan,Izu Is-Japan,34.724,139.394,758,Stratovolcano,Historical,D1
" Japan, Taiwan, Marianas",0804-09=,Izu-Torishima,Japan,Izu Is-Japan,30.484,140.303,394,Stratovolcano,Historical,D1
" Japan, Taiwan, Marianas",0804-061,Kita-Bayonnaise,Japan,Izu Is-Japan,32.1,139.85,-360,Submarine volcano,Holocene,Unknown
" Japan, Taiwan, Marianas",0804-03=,Kozushima,Japan,Izu Is-Japan,34.219,139.153,572,Lava dome,Historical,D6
" Japan, Taiwan, Marianas",0804-042,Kurose Hole,Japan,Izu Is-Japan,33.4,139.68,-107,Submarine volcano,Holocene?,?
" Japan, Taiwan, Marianas",0804-041,Mikurajima,Japan,Izu Is-Japan,33.874,139.602,851,Submarine volcano,Holocene,Unknown
" Japan, Taiwan, Marianas",0804-04=,Miyakejima,Japan,Izu Is-Japan,34.094,139.526,775,Stratovolcano,Historical,D1
" Japan, Taiwan, Marianas",0804-094,Mokuyo Seamount,Japan,Izu Is-Japan,28.327,140.572,-933,Submarine volcano,Fumarolic,U
" Japan, Taiwan, Marianas",0804-07=,Myojinsho,Japan,Izu Is-Japan,31.888,139.918,11,Submarine volcano,Historical,D1
" Japan, Taiwan, Marianas",0804-02=,Niijima,Japan,Izu Is-Japan,34.397,139.27,432,Lava dome,Historical,D6
" Japan, Taiwan, Marianas",0804-091,Sofugan,Japan,Izu Is-Japan,29.794,140.342,99,Submarine volcano,Uncertain,Unknown
" Japan, Taiwan, Marianas",0804-08=,Sumisujima,Japan,Izu Is-Japan,31.44,140.051,136,Submarine volcano,Historical,D2
" Japan, Taiwan, Marianas",0804-011,Toshima,Japan,Izu Is-Japan,34.52,139.279,508,Stratovolcano,Holocene,Unknown
" Japan, Taiwan, Marianas",0805-061,Maruyama,Japan,Japan,43.418,143.031,2013,Lava dome,Historical,D3
" Japan, Taiwan, Marianas",0802-08=,Aira,Japan,Kyushu-Japan,31.593,130.657,1117,Stratovolcano,Historical,D1
" Japan, Taiwan, Marianas",0802-11=,Asosan,Japan,Kyushu-Japan,32.884,131.104,1592,Caldera,Historical,D1
" Japan, Taiwan, Marianas",0802-07=,Ata,Japan,Kyushu-Japan,31.22,130.57,924,Caldera,Historical,D6
" Japan, Taiwan, Marianas",0802-091,Fukue,Japan,Kyushu-Japan,32.657,128.849,315,Shield volcanoes,Tephrochronology,D7
" Japan, Taiwan, Marianas",0802-09=,Kirishimayama,Japan,Kyushu-Japan,31.934,130.862,1700,Shield volcano,Historical,D1
" Japan, Taiwan, Marianas",0802-12=,Kujusan,Japan,Kyushu-Japan,33.086,131.249,1791,Stratovolcano,Historical,D1
" Japan, Taiwan, Marianas",0802-10=,Unzendake,Japan,Kyushu-Japan,32.761,130.299,1483,Complex volcano,Historical,D1
" Japan, Taiwan, Marianas",0802-081,Yonemaru-Sumiyoshiike,Japan,Kyushu-Japan,31.771,130.592,40,Maar,Radiocarbon,D7
" Japan, Taiwan, Marianas",0802-13=,Yufu-Tsurumi,Japan,Kyushu-Japan,33.282,131.39,1584,Lava dome,Historical,D6
" Japan, Taiwan, Marianas",0804-16=,Agrigan,United States,Mariana Is-C Pacific,18.77,145.67,965,Stratovolcano,Historical,D2
" Japan, Taiwan, Marianas",0804-141,Ahyi,United States,Mariana Is-C Pacific,20.42,145.03,-75,Submarine volcano,Uncertain,U
" Japan, Taiwan, Marianas",0804-18=,Alamagan,United States,Mariana Is-C Pacific,17.6,145.83,744,Stratovolcano,Radiocarbon,D6
" Japan, Taiwan, Marianas",0804-20=,Anatahan,United States,Mariana Is-C Pacific,16.35,145.67,790,Stratovolcano,Holocene,U
" Japan, Taiwan, Marianas",0804-15=,Asuncion,United States,Mariana Is-C Pacific,19.671,145.406,857,Stratovolcano,Historical,D2
" Japan, Taiwan, Marianas",0804-201,East Diamante,United States,Mariana Is-C Pacific,15.93,145.67,-127,Submarine volcano,Historical,D1
" Japan, Taiwan, Marianas",0804-21=,Esmeralda Bank,United States,Mariana Is-C Pacific,15,145.25,-43,Submarine volcano,Fumarolic,U
" Japan, Taiwan, Marianas",0804-14=,Farallon de Pajaros,United States,Mariana Is-C Pacific,20.546,144.893,337,Stratovolcano,Historical,D1
" Japan, Taiwan, Marianas",0804-22-,Forecast Seamount,United States,Mariana Is-C Pacific,13.4,143.92,-1456,Submarine volcano,Fumarolic,U
" Japan, Taiwan, Marianas",0804-19=,Guguan,United States,Mariana Is-C Pacific,17.307,145.845,287,Stratovolcano,Historical,D3
" Japan, Taiwan, Marianas",0804-135,Kasuga 2,United States,Mariana Is-C Pacific,21.6,143.637,-274,Submarine volcano,Uncertain,Unknown
" Japan, Taiwan, Marianas",0804-143,Maug Islands,United States,Mariana Is-C Pacific,20.02,145.22,227,Stratovolcano,Fumarolic,U
" Japan, Taiwan, Marianas",0804-136,NW Eifuku,United States,Mariana Is-C Pacific,21.485,144.043,-1535,Submarine volcano,Uncertain,Unknown
" Japan, Taiwan, Marianas",0804-211,NW Rota-1,United States,Mariana Is-C Pacific,14.601,144.775,-517,Submarine volcano,Historical,D1
" Japan, Taiwan, Marianas",0804-17=,Pagan,United States,Mariana Is-C Pacific,18.13,145.8,570,Stratovolcano,Historical,D1
" Japan, Taiwan, Marianas",0804-202,Ruby,United States,Mariana Is-C Pacific,15.62,145.57,-230,Submarine volcano,Historical,D2
" Japan, Taiwan, Marianas",0804-192,Sarigan,United States,Mariana Is-C Pacific,16.708,145.78,538,Stratovolcano,Holocene,U
" Japan, Taiwan, Marianas",0804-23-,Seamount X,United States,Mariana Is-C Pacific,13.25,144.02,-1230,Submarine volcano,Fumarolic,U
" Japan, Taiwan, Marianas",0804-142,Supply Reef,United States,Mariana Is-C Pacific,20.13,145.1,-8,Submarine volcano,Hydrophonic,D1
" Japan, Taiwan, Marianas",0804-138,Unnamed,United States,Mariana Is-C Pacific,21,142.9,,Submarine volcano?,Uncertain,?
" Japan, Taiwan, Marianas",0804-139,Unnamed,United States,Mariana Is-C Pacific,20.3,143.2,,Submarine volcano?,Uncertain,?
" Japan, Taiwan, Marianas",0804-191,Zealandia Bank,United States,Mariana Is-C Pacific,16.88,145.85,0,Stratovolcano,Holocene,U
" Japan, Taiwan, Marianas",0802-022,Akusekijima,Japan,Ryukyu Is,29.465,129.594,555,Stratovolcanoes,Holocene?,?
" Japan, Taiwan, Marianas",0802-02=,Io-Torishima,Japan,Ryukyu Is,27.881,128.223,212,Complex volcano,Historical,D1
" Japan, Taiwan, Marianas",0802-06=,Kikai,Japan,Ryukyu Is,30.793,130.305,704,Caldera,Historical,D1
" Japan, Taiwan, Marianas",0802-041,Kuchino-shima,Japan,Ryukyu Is,29.97,129.93,627,Stratovolcano,Holocene,D7
" Japan, Taiwan, Marianas",0802-05=,Kuchinoerabujima,Japan,Ryukyu Is,30.443,130.217,657,Stratovolcano,Historical,D1
" Japan, Taiwan, Marianas",0802-043,Kuchinoshima,Japan,Ryukyu Is,29.968,129.926,628,Stratovolcanoes,Radiocarbon,D6
" Japan, Taiwan, Marianas",0802-04=,Nakanoshima,Japan,Ryukyu Is,29.859,129.857,979,Stratovolcano,Historical,D2
" Japan, Taiwan, Marianas",0802-01=,Submarine Volcano NNE of Iriomotejima,Japan,Ryukyu Is,24.57,123.93,-200,Submarine volcano,Historical,D2
" Japan, Taiwan, Marianas",0802-03=,Suwanosejima,Japan,Ryukyu Is,29.638,129.714,796,Stratovolcano,Historical,D1
" Japan, Taiwan, Marianas",0802-021,Yokoatejima,Japan,Ryukyu Is,28.797,128.997,495,Stratovolcano,Holocene,U
" Japan, Taiwan, Marianas",0801-032,Tatun Volcanic Group,China,Taiwan,25.178,121.553,1120,Stratovolcano,Pleistocene-Fumarol,Q
" Japan, Taiwan, Marianas",0801-031,Kueishantao,Taiwan,Taiwan,24.841,121.953,361,Stratovolcano,Pleistocene-Fumarol,Q
" Japan, Taiwan, Marianas",0801-03=,Unnamed,Taiwan,Taiwan-E of,24,121.83,0,Submarine volcano,Historical,D3
" Japan, Taiwan, Marianas",0801-011,Unnamed,Taiwan,Taiwan-E of,19.17,132.25,-10,Submarine volcano,Uncertain,Unknown
" Japan, Taiwan, Marianas",0801-02=,Unnamed,Taiwan,Taiwan-E of,21.83,121.18,-115,Submarine volcano,Historical,D3
" Japan, Taiwan, Marianas",0801-01=,Unnamed,Taiwan,Taiwan-E of,20.93,134.75,-6000,Submarine volcano,Uncertain,Unknown
" Japan, Taiwan, Marianas",0801-04=,Unnamed,Taiwan,Taiwan-N of,25.42,122.33,-100,Submarine volcano,Historical,D3
" Japan, Taiwan, Marianas",0801-05=,Zengyu,Taiwan,Taiwan-N of,26.18,122.458,-418,Submarine volcano,Historical,D2
" Japan, Taiwan, Marianas",0804-137,Daikoku,Japan,Volcano Is-Japan,21.324,144.194,-323,Submarine volcano,Fumarolic,U
" Japan, Taiwan, Marianas",0804-133,Fukujin,Japan,Volcano Is-Japan,21.93,143.47,-217,Submarine volcano,Historical,D1
" Japan, Taiwan, Marianas",0804-13=,Fukutoku-Oka-no-Ba,Japan,Volcano Is-Japan,24.285,141.481,-29,Submarine volcano,Historical,D1
" Japan, Taiwan, Marianas",0804-12=,Ioto,Japan,Volcano Is-Japan,24.751,141.289,169,Caldera,Historical,D1
" Japan, Taiwan, Marianas",0804-097,Kaikata Seamount,Japan,Volcano Is-Japan,26.667,140.929,-165,Submarine volcano,Fumarolic,U
" Japan, Taiwan, Marianas",0804-10=,Kaitoku Seamount,Japan,Volcano Is-Japan,26.127,141.102,-95,Submarine volcano,Historical,D1
" Japan, Taiwan, Marianas",0804-134,Kasuga 1,Japan,Volcano Is-Japan,21.765,143.71,-598,Submarine volcano,Uncertain,Unknown
" Japan, Taiwan, Marianas",0804-121,Kita-Fukutokutai,Japan,Volcano Is-Japan,24.417,141.417,-73,Submarine volcano,Holocene,U1
" Japan, Taiwan, Marianas",0804-11=,Kita-Ioto,Japan,Volcano Is-Japan,25.424,141.284,792,Stratovolcano,Historical,D2
" Japan, Taiwan, Marianas",0804-131,Minami-Hiyoshi,Japan,Volcano Is-Japan,23.5,141.935,-107,Submarine volcano,Historical,D1
" Japan, Taiwan, Marianas",0804-132,Nikko,Japan,Volcano Is-Japan,23.078,142.326,-392,Submarine volcano,Uncertain,Unknown
" Japan, Taiwan, Marianas",0804-096,Nishinoshima,Japan,Volcano Is-Japan,27.247,140.874,25,Caldera,Historical,D2
" Japan, Taiwan, Marianas",0804-093,Suiyo Seamount,Japan,Volcano Is-Japan,28.575,140.633,-991,Submarine volcano,Uncertain,Unknown
" Japan, Taiwan, Marianas",0804-101,Unnamed,Japan,Volcano Is-Japan,26.133,144.483,-3200,Submarine volcano?,Uncertain,?
Kamchatka and Mainland Asia,1005-011,Arxan-Chaihe,China,China-E,47.45,120.8,1677,Cinder cones,Radiocarbon,D
Kamchatka and Mainland Asia,1005-01-,Honggeertu,China,China-E,41.59,113.111,1605,Cinder cone,Holocene,Unknown
Kamchatka and Mainland Asia,1005-04-,Jingbo,China,China-E,44.08,128.83,1000,Volcanic field,Radiocarbon,D7
Kamchatka and Mainland Asia,1005-02-,Keluo Group,China,China-E,49.37,125.92,670,Pyroclastic cone,Holocene,U
Kamchatka and Mainland Asia,1005-05-,Longgang Group,China,China-E,42.33,126.5,1000,Cinder cone,Radiocarbon,D4
Kamchatka and Mainland Asia,1005-03-,Wudalianchi,China,China-E,48.722,126.15,597,Volcanic field,Historical,D4
Kamchatka and Mainland Asia,1005-06-,Changbaishan,North Korea,China-E,41.98,128.08,2744,Stratovolcano,Historical,D4
Kamchatka and Mainland Asia,1004-03-,Kunlun Volcanic Group,China,China-W,35.52,80.2,5808,Pyroclastic cone,Historical,D2
Kamchatka and Mainland Asia,1004-02-,Tianshan Volc Group,China,China-W,42.5,82.5,0,Volcanic field,Historical,D6
Kamchatka and Mainland Asia,1004-01-,Turfan,China,China-W,42.9,89.25,0,Cone,Historical,D6
Kamchatka and Mainland Asia,1004-04-,Unnamed,China,China-W,35.85,91.7,5400,Volcanic field,Holocene,U
Kamchatka and Mainland Asia,1000-125,Akademia Nauk,Russia,Kamchatka,53.98,159.45,1180,Stratovolcanoes,Historical,D2
Kamchatka and Mainland Asia,1000-32-,Akhtang,Russia,Kamchatka,55.43,158.65,1956,Shield volcano,Holocene,U
Kamchatka and Mainland Asia,1000-45-,Alney-Chashakondzha,Russia,Kamchatka,56.656,159.647,2570,Stratovolcano,Holocene,U
Kamchatka and Mainland Asia,1000-60-,Alngey,Russia,Kamchatka,57.702,160.418,1822,Stratovolcano,Holocene,U
Kamchatka and Mainland Asia,1000-39-,Anaun,Russia,Kamchatka,56.32,158.83,1828,Stratovolcano,Holocene,U
Kamchatka and Mainland Asia,1000-058,Asacha,Russia,Kamchatka,52.355,157.827,1910,Pyroclastic cone,Holocene,U
Kamchatka and Mainland Asia,1000-10=,Avachinsky,Russia,Kamchatka,53.256,158.836,2717,Stratovolcano,Historical,D1
Kamchatka and Mainland Asia,1000-123,Bakening,Russia,Kamchatka,53.905,158.07,2278,Stratovolcano,Historical,D1
Kamchatka and Mainland Asia,1000-084,Barkhatnaya Sopka,Russia,Kamchatka,52.802,158.24,874,Lava dome,Tephrochronology,D7
Kamchatka and Mainland Asia,1000-042,Belenkaya,Russia,Kamchatka,51.75,157.27,892,Stratovolcano,Holocene,U
Kamchatka and Mainland Asia,1000-64-,Bely,Russia,Kamchatka,57.88,160.53,2080,Shield volcano,Holocene,U
Kamchatka and Mainland Asia,1000-25=,Bezymianny,Russia,Kamchatka,55.972,160.595,2882,Stratovolcano,Historical,D1
Kamchatka and Mainland Asia,1000-49-,Bliznets,Russia,Kamchatka,56.97,159.78,1244,Stratovolcano,Holocene,U
Kamchatka and Mainland Asia,1000-552,Bliznetsy,Russia,Kamchatka,57.35,161.37,265,Lava cone,Radiocarbon,D7
Kamchatka and Mainland Asia,1000-087,Bolshe-Bannaya,Russia,Kamchatka,52.9,157.78,1200,Lava dome,Holocene,U
Kamchatka and Mainland Asia,1000-30-,Bolshoi Payalpan,Russia,Kamchatka,55.88,157.78,1906,Shield volcano,Holocene,U
Kamchatka and Mainland Asia,1000-15=,Bolshoi Semiachik,Russia,Kamchatka,54.32,160.02,1720,Stratovolcano,Radiocarbon,D7
Kamchatka and Mainland Asia,1000-36-,Bolshoi-Kekuknaysky,Russia,Kamchatka,56.483,157.917,1401,Shield volcano,Holocene,U
Kamchatka and Mainland Asia,1000-46-,Cherny,Russia,Kamchatka,56.82,159.67,1778,Stratovolcano,Holocene,U
Kamchatka and Mainland Asia,1000-273,Cherpuk Group,Russia,Kamchatka,55.55,157.47,1868,Pyroclastic cones,Radiocarbon,D7
Kamchatka and Mainland Asia,1000-022,Diky Greben,Russia,Kamchatka,51.452,156.978,1040,Lava dome,Radiocarbon,D6
Kamchatka and Mainland Asia,1000-11=,Dzenzursky,Russia,Kamchatka,53.637,158.922,2285,Compound volcano,Holocene,U
Kamchatka and Mainland Asia,1000-42-,Eggella,Russia,Kamchatka,56.57,158.52,1046,Shield volcano,Holocene,U
Kamchatka and Mainland Asia,1000-59-,Elovsky,Russia,Kamchatka,57.55,160.53,1381,Shield volcano,Holocene,U
Kamchatka and Mainland Asia,1000-51-,Fedotych,Russia,Kamchatka,57.13,160.4,965,Shield volcano,Holocene,U
Kamchatka and Mainland Asia,1000-21=,Gamchen,Russia,Kamchatka,54.974,160.703,2539,Complex volcano,Holocene,U
Kamchatka and Mainland Asia,1000-38-,Geodesistoy,Russia,Kamchatka,56.33,158.67,1170,Shield volcano,Holocene,U
Kamchatka and Mainland Asia,1000-057,Golaya,Russia,Kamchatka,52.263,157.787,858,Shield volcano,Holocene,U
Kamchatka and Mainland Asia,1000-07=,Gorely,Russia,Kamchatka,52.559,158.03,1799,Caldera,Historical,D1
Kamchatka and Mainland Asia,1000-53-,Gorny Institute,Russia,Kamchatka,57.33,160.2,2125,Stratovolcano,Holocene,U
Kamchatka and Mainland Asia,1000-28=,Ichinsky,Russia,Kamchatka,55.678,157.718,3596,Stratovolcano,Holocene,U
Kamchatka and Mainland Asia,1000-71-,Iettunup,Russia,Kamchatka,58.4,161.08,1340,Shield volcano,Holocene,U
Kamchatka and Mainland Asia,1000-67-,Iktunup,Russia,Kamchatka,58.08,160.77,2300,Shield volcano,Holocene,U
Kamchatka and Mainland Asia,1000-03=,Iliinsky,Russia,Kamchatka,51.498,157.203,1555,Stratovolcano,Historical,D2
Kamchatka and Mainland Asia,1000-62-,Kaileney,Russia,Kamchatka,57.8,160.67,1582,Shield volcano,Holocene,U
Kamchatka and Mainland Asia,1000-01=,Kambalny,Russia,Kamchatka,51.306,156.875,2116,Stratovolcano,Holocene,U
Kamchatka and Mainland Asia,1000-251,Kamen,Russia,Kamchatka,56.02,160.593,4585,Stratovolcano,Holocene,U
Kamchatka and Mainland Asia,1000-13=,Karymsky,Russia,Kamchatka,54.049,159.443,1513,Stratovolcano,Historical,D1
Kamchatka and Mainland Asia,1000-50-,Kebeney,Russia,Kamchatka,57.1,159.93,1527,Shield volcano,Holocene,U
Kamchatka and Mainland Asia,1000-41-,Kekurny,Russia,Kamchatka,56.4,158.85,1377,Shield volcano,Holocene,U
Kamchatka and Mainland Asia,1000-041,Kell,Russia,Kamchatka,51.65,157.35,900,Stratovolcano,Holocene,U
Kamchatka and Mainland Asia,1000-272,Khangar,Russia,Kamchatka,54.761,157.407,1967,Stratovolcano,Radiocarbon,D7
Kamchatka and Mainland Asia,1000-053,Khodutka,Russia,Kamchatka,52.062,157.711,2039,Stratovolcano,Radiocarbon,D7
Kamchatka and Mainland Asia,1000-18=,Kikhpinych,Russia,Kamchatka,54.489,160.251,1515,Stratovolcano,Radiocarbon,D5
Kamchatka and Mainland Asia,1000-551,Kinenin,Russia,Kamchatka,57.35,160.97,583,Maar,Radiocarbon,D6
Kamchatka and Mainland Asia,1000-23=,Kizimen,Russia,Kamchatka,55.131,160.32,2334,Stratovolcano,Historical,D2
Kamchatka and Mainland Asia,1000-26=,Klyuchevskoy,Russia,Kamchatka,56.056,160.642,4754,Stratovolcano,Historical,D1
Kamchatka and Mainland Asia,1000-22=,Komarov,Russia,Kamchatka,55.033,160.725,2065,Stratovolcano,Holocene,U
Kamchatka and Mainland Asia,1000-09=,Koryaksky,Russia,Kamchatka,53.321,158.712,3430,Stratovolcano,Historical,D2
Kamchatka and Mainland Asia,1000-02=,Koshelev,Russia,Kamchatka,51.356,156.753,1822,Stratovolcano,Historical,D5
Kamchatka and Mainland Asia,1000-122,Kostakan,Russia,Kamchatka,53.83,158.05,1150,Stratovolcano,Tephrochronology,D7
Kamchatka and Mainland Asia,1000-33-,Kozyrevsky,Russia,Kamchatka,55.58,158.38,2016,Shield volcano,Holocene,U
Kamchatka and Mainland Asia,1000-40-,Krainy,Russia,Kamchatka,56.37,159.03,1554,Shield volcano,Holocene,U
Kamchatka and Mainland Asia,1000-19=,Krasheninnikov,Russia,Kamchatka,54.596,160.27,1816,Caldera,Radiocarbon,D5
Kamchatka and Mainland Asia,1000-20=,Kronotsky,Russia,Kamchatka,54.753,160.533,3482,Stratovolcano,Historical,D2
Kamchatka and Mainland Asia,1000-05=,Ksudach,Russia,Kamchatka,51.844,157.572,1079,Stratovolcano,Historical,D2
Kamchatka and Mainland Asia,1000-37-,Kulkev,Russia,Kamchatka,56.37,158.37,915,Shield volcano,Holocene,U
Kamchatka and Mainland Asia,1000-023,Kurile Lake,Russia,Kamchatka,51.45,157.12,81,Caldera,Radiocarbon,D7
Kamchatka and Mainland Asia,1000-54-,Leutongey,Russia,Kamchatka,57.306,159.827,1318,Shield volcano,Holocene,U
Kamchatka and Mainland Asia,1000-29-,Maly Payalpan,Russia,Kamchatka,55.82,157.98,1802,Shield volcano,Holocene,U
Kamchatka and Mainland Asia,1000-14=,Maly Semyachik,Russia,Kamchatka,54.135,159.674,1527,Caldera,Historical,D2
Kamchatka and Mainland Asia,1000-001,Mashkovtsev,Russia,Kamchatka,51.1,156.72,503,Stratovolcano,Holocene,U
Kamchatka and Mainland Asia,1000-57-,Mezhdusopochny,Russia,Kamchatka,57.47,160.25,1641,Shield volcano,Holocene,U
Kamchatka and Mainland Asia,1000-06=,Mutnovsky,Russia,Kamchatka,52.449,158.196,2288,Complex volcano,Historical,D2
Kamchatka and Mainland Asia,1000-65-,Nylgimelkin,Russia,Kamchatka,57.97,160.65,1764,Shield volcano,Holocene,U
Kamchatka and Mainland Asia,1000-052,Olkoviy Volcanic Group,Russia,Kamchatka,52.02,157.53,681,Volcanic field,Holocene,U
Kamchatka and Mainland Asia,1000-08=,Opala,Russia,Kamchatka,52.543,157.339,2439,Caldera,Radiocarbon,D6
Kamchatka and Mainland Asia,1000-055,Ostanets,Russia,Kamchatka,52.146,157.322,719,Shield volcano,Holocene,U
Kamchatka and Mainland Asia,1000-68-,Ostry,Russia,Kamchatka,58.18,160.82,2552,Stratovolcano,Holocene,U
Kamchatka and Mainland Asia,1000-056,Otdelniy,Russia,Kamchatka,52.221,157.435,814,Shield volcano,Holocene,U
Kamchatka and Mainland Asia,1000-051,Ozernoy,Russia,Kamchatka,51.88,157.38,562,Shield volcano,Holocene,U
Kamchatka and Mainland Asia,1000-054,Piratkovsky,Russia,Kamchatka,52.113,157.849,1322,Stratovolcano,Holocene,U
Kamchatka and Mainland Asia,1000-63-,Plosky,Russia,Kamchatka,57.83,160.25,1255,Shield volcano,Holocene,U
Kamchatka and Mainland Asia,1000-31-,Plosky,Russia,Kamchatka,55.2,158.47,1236,Shield volcano,Holocene,U
Kamchatka and Mainland Asia,1000-47-,Pogranychny,Russia,Kamchatka,56.85,159.8,1427,Shield volcano,Holocene,U
Kamchatka and Mainland Asia,1000-34-,Romanovka,Russia,Kamchatka,55.65,158.8,1442,Stratovolcano,Holocene,U
Kamchatka and Mainland Asia,1000-201,Schmidt,Russia,Kamchatka,54.92,160.63,2020,Shield volcano,Holocene,U
Kamchatka and Mainland Asia,1000-52-,Sedanka Lava Field,Russia,Kamchatka,57.317,160.067,1399,Shield volcano,Holocene,U
Kamchatka and Mainland Asia,1000-70-,Severny,Russia,Kamchatka,58.28,160.87,1936,Shield volcano,Holocene,U
Kamchatka and Mainland Asia,1000-27=,Sheveluch,Russia,Kamchatka,56.653,161.36,3283,Stratovolcano,Historical,D1
Kamchatka and Mainland Asia,1000-511,Shisheika,Russia,Kamchatka,57.153,161.09,355,Lava dome,Radiocarbon,D7
Kamchatka and Mainland Asia,1000-58-,Shishel,Russia,Kamchatka,57.45,160.37,2525,Shield volcano,Holocene,U
Kamchatka and Mainland Asia,1000-69-,Snegovoy,Russia,Kamchatka,58.2,160.97,2169,Shield volcano,Holocene,U
Kamchatka and Mainland Asia,1000-66-,Snezhniy,Russia,Kamchatka,58.02,160.8,2169,Shield volcano,Holocene,U
Kamchatka and Mainland Asia,1000-671,Spokoiny,Russia,Kamchatka,58.13,160.82,2171,Stratovolcano,Radiocarbon,D7
Kamchatka and Mainland Asia,1000-16-,Taunshits,Russia,Kamchatka,54.528,159.804,2301,Stratovolcano,Radiocarbon,D7
Kamchatka and Mainland Asia,1000-512,Terpuk,Russia,Kamchatka,57.2,159.83,765,Shield volcano,Radiocarbon,D7
Kamchatka and Mainland Asia,1000-56-,Titila,Russia,Kamchatka,57.406,160.108,1523,Shield volcano,Holocene,U
Kamchatka and Mainland Asia,1000-24=,Tolbachik,Russia,Kamchatka,55.832,160.326,3611,Shield volcano,Historical,D1
Kamchatka and Mainland Asia,1000-082,Tolmachev Dol,Russia,Kamchatka,52.63,157.58,1021,Cinder cone,Holocene,U
Kamchatka and Mainland Asia,1000-55-,Tuzovsky,Russia,Kamchatka,57.32,159.967,1516,Shield volcano,Holocene,U
Kamchatka and Mainland Asia,1000-241,Udina,Russia,Kamchatka,55.758,160.527,2886,Stratovolcano,Holocene,U
Kamchatka and Mainland Asia,1000-61-,Uka,Russia,Kamchatka,57.706,160.59,1607,Shield volcano,Holocene,U
Kamchatka and Mainland Asia,1000-35-,Uksichan,Russia,Kamchatka,56.08,158.38,1692,Shield volcano,Holocene,U
Kamchatka and Mainland Asia,1000-232,Unnamed,Russia,Kamchatka,55.92,161.75,0,Cinder cone,Holocene,Unknown
Kamchatka and Mainland Asia,1000-086,Unnamed,Russia,Kamchatka,52.88,158.3,700,Shield volcano,Holocene,U
Kamchatka and Mainland Asia,1000-085,Unnamed,Russia,Kamchatka,52.92,158.52,450,Shield volcano,Holocene,U
Kamchatka and Mainland Asia,1000-081,Unnamed,Russia,Kamchatka,52.57,157.02,610,Cinder cone,Holocene,U
Kamchatka and Mainland Asia,1000-43-,Unnamed,Russia,Kamchatka,56.82,158.95,1185,Shield volcano,Holocene,U
Kamchatka and Mainland Asia,1000-261,Ushkovsky,Russia,Kamchatka,56.113,160.509,3943,Compound volcano,Historical,D3
Kamchatka and Mainland Asia,1000-17=,Uzon,Russia,Kamchatka,54.5,159.97,1617,Caldera,Radiocarbon,D7
Kamchatka and Mainland Asia,1000-121,Veer,Russia,Kamchatka,53.75,158.45,520,Stratovolcano,Radiocarbon,D7
Kamchatka and Mainland Asia,1000-44-,Verkhovoy,Russia,Kamchatka,56.52,159.53,1400,Shield volcano,Holocene,U
Kamchatka and Mainland Asia,1000-083,Vilyuchik,Russia,Kamchatka,52.7,158.28,2173,Stratovolcano,Tephrochronology,D7
Kamchatka and Mainland Asia,1000-059,Visokiy,Russia,Kamchatka,52.43,157.93,1234,Shield volcano,Holocene,U
Kamchatka and Mainland Asia,1000-72-,Voyampolsky,Russia,Kamchatka,58.374,160.631,1103,Shield volcano,Holocene,U
Kamchatka and Mainland Asia,1000-221,Vysoky,Russia,Kamchatka,55.064,160.765,2129,Stratovolcano,Holocene,U
Kamchatka and Mainland Asia,1000-021,Yavinsky,Russia,Kamchatka,51.533,156.629,646,Cinder cone,Holocene,U
Kamchatka and Mainland Asia,1000-48-,Zaozerny,Russia,Kamchatka,56.88,159.95,1349,Shield volcano,Holocene,U
Kamchatka and Mainland Asia,1000-124,Zavaritsky,Russia,Kamchatka,53.905,158.385,1567,Cinder cones,Radiocarbon,D7
Kamchatka and Mainland Asia,1000-04=,Zheltovsky,Russia,Kamchatka,51.577,157.328,1926,Stratovolcano,Historical,D1
Kamchatka and Mainland Asia,1000-12=,Zhupanovsky,Russia,Kamchatka,53.589,159.15,2899,Compound volcano,Historical,D2
Kamchatka and Mainland Asia,1000-242,Zimina,Russia,Kamchatka,55.862,160.603,3057,Stratovolcano,Holocene,U
Kamchatka and Mainland Asia,1000-271,Piip,Russia,Kamchatka-E of,55.42,167.33,-300,Submarine volcano,Tephrochronology,D7
Kamchatka and Mainland Asia,1006-02-,Ch'uga-ryong,North Korea,Korea,38.33,127.33,452,Shield volcano,Holocene,Unknown
Kamchatka and Mainland Asia,1006-01-,Xianjindao,North Korea,Korea,41.33,128,0,Unknown,Historical,D5
Kamchatka and Mainland Asia,1006-04-,Halla,South Korea,Korea,33.361,126.53,1919,Shield volcano,Historical,D6
Kamchatka and Mainland Asia,1006-03-,Ulreung,South Korea,Korea,37.5,130.87,984,Stratovolcano,Radiocarbon,D7
Kamchatka and Mainland Asia,1003-03-,Bus-Obo,Mongolia,Mongolia,47.12,109.08,1162,Cinder cone,Holocene,Unknown
Kamchatka and Mainland Asia,1003-04-,Dariganga Volcanic Field,Mongolia,Mongolia,45.754,114.279,1778,Cinder cone,Holocene,U
Kamchatka and Mainland Asia,1003-02-,Khanuy Gol,Mongolia,Mongolia,48.67,102.75,1886,Volcanic field,Holocene,U
Kamchatka and Mainland Asia,1003-05-,Middle Gobi,Mongolia,Mongolia,45.28,106.7,1120,Cinder cone,Holocene,Unknown
Kamchatka and Mainland Asia,1003-01-,Taryatu-Chulutu,Mongolia,Mongolia,48.133,99.95,2326,Volcanic field,Holocene,U
Kamchatka and Mainland Asia,1002-07-,Azas Plateau,Russia,Russia-SE,52.433,98.303,2765,Cinder cone,Holocene,U
Kamchatka and Mainland Asia,1002-06-,Jom-Bolok,Russia,Russia-SE,52.713,99.021,2047,Cinder cone,Holocene,U
Kamchatka and Mainland Asia,1002-01-,Southern Sikhote-Alin,Russia,Russia-SE,44.5,135.5,0,Volcanic field,Holocene,U
Kamchatka and Mainland Asia,1002-05-,Tunkin Depression,Russia,Russia-SE,51.5,102.5,1200,Volcanic field,Holocene,U
Kamchatka and Mainland Asia,1002-03-,Udokan Plateau,Russia,Russia-SE,56.28,117.77,2180,Shield volcano,Radiocarbon,D7
Kamchatka and Mainland Asia,1002-04-,Vitim Volcanic Field,Russia,Russia-SE,53.75,113.25,1250,Cinder cone,Holocene,U
 South America,1505-18-,Antofagasta Volcanic Field,Argentina,Argentina,-26.12,-67.4,3495,Scoria cones,Holocene,U
 South America,1508-024,Apagado,Argentina,Argentina,-41.88,-72.58,1210,Cinder cone,Holocene,U
 South America,1505-16-,Aracar,Argentina,Argentina,-24.29,-67.783,6095,Stratovolcano,Uncertain,?
 South America,1507-023,"Atuel, Caldera del",Argentina,Argentina,-34.65,-70.05,5189,Caldera,Holocene,U
 South America,1505-21-,"Blanco, Cerro",Argentina,Argentina,-26.789,-67.765,4670,Caldera,Holocene,U
 South America,1505-19-,"Condor, El",Argentina,Argentina,-26.632,-68.361,6373,Stratovolcano,Holocene,U
 South America,1507-067,Domuyo,Argentina,Argentina,-36.638,-70.432,4702,Stratovolcano,Holocene,Unknown
 South America,1505-124,Falso Azufre,Argentina,Argentina,-26.8,-68.37,5906,Scoria cone,Holocene,U
 South America,1507-123,Huanquihue Group,Argentina,Argentina,-39.887,-71.58,2189,Pyroclastic cone,Holocene,U
 South America,1505-123,"Nevada, Sierra",Argentina,Argentina,-26.48,-68.58,6173,Stratovolcano,Holocene,U
 South America,1507-066,Payun Matru,Argentina,Argentina,-36.422,-69.241,3715,Shield volcano,Holocene,U
 South America,1505-20-,Peinado,Argentina,Argentina,-26.623,-68.116,5741,Stratovolcano,Holocene,U
 South America,1507-073,Puesto Cortaderas,Argentina,Argentina,-37.567,-69.617,970,Pyroclastic cone,Holocene,U
 South America,1505-107,Pular,Argentina,Argentina,-24.188,-68.054,6233,Stratovolcano,Historical,D1
 South America,1507-024,Risco Plateado,Argentina,Argentina,-34.917,-69.981,4999,Stratovolcano,Holocene?,?
 South America,1505-131,"Solo, El",Argentina,Argentina,-27.105,-68.713,6205,Complex volcano,Holocene,U
 South America,1505-22-,Tipas,Argentina,Argentina,-27.196,-68.561,6658,Complex volcano,Holocene,U
 South America,1507-081,Trolon,Argentina,Argentina,-37.738,-70.906,2360,Lava domes,Holocene?,?
 South America,1507-072,Tromen,Argentina,Argentina,-37.144,-70.033,4114,Pyroclastic cone,Holocene,U
 South America,1507-071,Tromen,Argentina,Argentina,-37.142,-70.03,3978,Stratovolcano,Holocene,U
 South America,1505-15-,Tuzgle,Argentina,Argentina,-24.05,-66.48,5486,Stratovolcano,Holocene?,?
 South America,1505-161,Unnamed,Argentina,Argentina,-25.078,-68.266,4652,Pyroclastic cone,Holocene?,?
 South America,1508-061,"Viedma, Volcan",Argentina,Argentina,-49.358,-73.28,1300,Subglacial volcano,Historical,D1
 South America,1505-036,Jatun Mundo Quri Warani,Bolivia,Bolivia,-19.78,-66.48,5438,Lava domes,Holocene?,?
 South America,1505-035,"Jayu Khota, Laguna",Bolivia,Bolivia,-19.463,-67.432,3650,Maars,Holocene,U
 South America,1505-042,Pampa Luxsar,Bolivia,Bolivia,-20.85,-68.2,5543,Volcanic field,Holocene,U
 South America,1505-012,Parinacota,Bolivia,Bolivia,-18.166,-69.142,6336,Stratovolcano,Holocene,Unknown
 South America,1505-021,Tambo Quemado,Bolivia,Bolivia,-18.62,-68.75,4215,Maar,Holocene,Unknown
 South America,1505-061,"Yumia, Cerro",Bolivia,Bolivia,-21.5,-67.5,4050,Cone,Holocene,Unknown
 South America,1505-125,"Incahuasi, Nevado de",Argentina,Chile,-27.033,-68.296,6638,Complex volcano,Holocene,U
 South America,1507-122,Lanin,Argentina,Chile-C,-39.637,-71.502,3776,Stratovolcano,Holocene,U
 South America,1507-021,Maipo,Argentina,Chile-C,-34.164,-69.832,5323,Caldera,Historical,D2
 South America,1507-02=,San Jose,Argentina,Chile-C,-33.789,-69.895,6070,Stratovolcano,Historical,D2
 South America,1507-153,Antillanca Volcanic Complex,Chile,Chile-C,-40.783,-72.15,1979,Stratovolcano,Holocene,U
 South America,1507-08=,Antuco,Chile,Chile-C,-37.406,-71.349,2979,Stratovolcano,Historical,D3
 South America,1507-06=,"Azul, Cerro",Chile,Chile-C,-35.653,-70.761,3788,Stratovolcano,Historical,D1
 South America,1507-064,"Blancas, Lomas",Chile,Chile-C,-36.286,-71.009,2268,Stratovolcano,Holocene,U
 South America,1507-112,Caburgua-Huelemolle,Chile,Chile-C,-39.25,-71.75,1652,Cinder cone,Tephrochronology,D7
 South America,1507-042,Calabozos,Chile,Chile-C,-35.558,-70.496,3508,Caldera,Holocene,U
 South America,1507-091,Callaqui,Chile,Chile-C,-37.92,-71.45,3164,Stratovolcano,Historical,D1
 South America,1507-14=,Carran-Los Venados,Chile,Chile-C,-40.35,-72.07,1114,Pyroclastic cone,Historical,D1
 South America,1507-07=,"Chillan, Nevados de",Chile,Chile-C,-36.868,-71.378,3180,Stratovolcano,Historical,D1
 South America,1507-09=,Copahue,Chile,Chile-C,-37.856,-71.183,2953,Stratovolcano,Historical,D1
 South America,1507-05=,Descabezado Grande,Chile,Chile-C,-35.58,-70.75,3953,Stratovolcano,Historical,D2
 South America,1507-041,Infiernillo,Chile,Chile-C,-35.123,-69.9,3007,Lava dome,Holocene,U
 South America,1507-11=,Llaima,Chile,Chile-C,-38.692,-71.729,3125,Stratovolcano,Historical,D1
 South America,1507-063,"Longavi, Nevado de",Chile,Chile-C,-36.193,-71.161,3242,Stratovolcano,Holocene,U
 South America,1507-10=,Lonquimay,Chile,Chile-C,-38.379,-71.586,2832,Stratovolcano,Historical,D1
 South America,1507-092,"Mariñaqui, Laguna",Chile,Chile-C,-38.255,-71.167,2108,Stratovolcano,Holocene,U
 South America,1507-061,"Maule, Laguna del",Chile,Chile-C,-36.058,-70.492,2162,Stratovolcano,Holocene,U
 South America,1507-13=,Mocho-Choshuenco,Chile,Chile-C,-39.927,-72.027,2422,Stratovolcano,Historical,D2
 South America,1507-022,Palomo,Chile,Chile-C,-34.608,-70.295,4860,Stratovolcano,Holocene,U
 South America,1507-152,"Pantojo, Cerro",Chile,Chile-C,-40.77,-71.95,1897,Stratovolcano,Holocene,U
 South America,1507-04=,Planchon-Peteroa,Chile,Chile-C,-35.223,-70.568,3977,Caldera,Historical,D1
 South America,1507-16-,Puntiagudo-Cordon Cenizos,Chile,Chile-C,-40.969,-72.264,2493,Stratovolcano,Historical,D3
 South America,1507-15=,Puyehue-Cordon Caulle,Chile,Chile-C,-40.59,-72.117,2236,Stratovolcano,Holocene,U
 South America,1507-121,Quetrupillan,Chile,Chile-C,-39.496,-71.722,2360,Caldera,Historical,D3
 South America,1507-065,"Resago, Volcan",Chile,Chile-C,-36.45,-70.92,1890,Cinder cone,Holocene,U
 South America,1507-062,San Pedro-Pellado,Chile,Chile-C,-35.989,-70.849,3621,Stratovolcano,Holocene,U
 South America,1507-111,Sollipulli,Chile,Chile-C,-38.97,-71.52,2282,Caldera,Radiocarbon,D6
 South America,1507-03=,Tinguiririca,Chile,Chile-C,-34.814,-70.352,4280,Stratovolcano,Historical,D2
 South America,1507-093,Tolhuaca,Chile,Chile-C,-38.31,-71.645,2739,Stratovolcano,Holocene,U
 South America,1507-101,Tralihue,Chile,Chile-C,-38.509,-70.898,2448,Cinder cone,Holocene,U
 South America,1507-01=,Tupungatito,Chile,Chile-C,-33.425,-69.797,5660,Stratovolcano,Historical,D1
 South America,1507-12=,Villarrica,Chile,Chile-C,-39.42,-71.93,2847,Stratovolcano,Historical,D1
 South America,1506-011,Easter Island,Chile,Chile-Is,-27.15,-109.38,511,Shield volcanoes,Holocene,U
 South America,1506-02=,Robinson Crusoe,Chile,Chile-Is,-33.658,-78.85,922,Shield volcano,Historical,D3
 South America,1506-01=,San Felix,Chile,Chile-Is,-26.27,-80.12,183,Shield volcano,Holocene,U
 South America,1506-04=,Unnamed,Chile,Chile-Is,-33.62,-76.83,-642,Submarine volcano,Uncertain,Unknown
 South America,1506-03=,Unnamed,Chile,Chile-Is,-33.622,-78.78,0,Submarine volcano,Historical,D3
 South America,1505-122,"Bayo Gorbea, Cerro",Argentina,Chile-N,-25.414,-68.588,5413,Complex volcano,Holocene,U
 South America,1505-121,Cordon del Azufre,Argentina,Chile-N,-25.336,-68.521,5481,Complex volcano,Holocene,U
 South America,1505-112,Corrida de Cori Volcanic Field,Argentina,Chile-N,-25.083,-68.367,5451,Stratovolcano,Holocene,U
 South America,1505-11=,Llullaillaco,Argentina,Chile-N,-24.72,-68.53,6739,Stratovolcano,Historical,D3
 South America,1505-13=,"Ojos del Salado, Nevados",Argentina,Chile-N,-27.109,-68.541,6879,Stratovolcano,Holocene,U
 South America,1505-108,Socompa,Argentina,Chile-N,-24.396,-68.246,6031,Stratovolcano,Radiocarbon,D7
 South America,1505-06=,"Azufre, Cerro del",Bolivia,Chile-N,-21.787,-68.237,5846,Stratovolcano,Holocene,U
 South America,1505-093,Guayaques,Bolivia,Chile-N,-22.895,-67.566,5598,Lava dome,Holocene,U
 South America,1505-04=,Irruputuncu,Bolivia,Chile-N,-20.73,-68.55,5163,Stratovolcano,Historical,D1
 South America,1505-05=,Olca-Paruma,Bolivia,Chile-N,-20.939,-68.413,5705,Stratovolcano,Historical,D3
 South America,1505-091,Sairecabur,Bolivia,Chile-N,-22.72,-67.892,5971,Stratovolcano,Holocene,U
 South America,1505-096,Acamarachi,Chile,Chile-N,-23.292,-67.618,6023,Stratovolcano,Holocene,Unknown
 South America,1505-104,Caichinque,Chile,Chile-N,-23.949,-67.74,4458,Maar,Holocene,U
 South America,1505-098,Chiliques,Chile,Chile-N,-23.58,-67.7,5778,Stratovolcano,Holocene?,?
 South America,1505-095,Colachi,Chile,Chile-N,-23.236,-67.645,5631,Stratovolcano,Holocene,U
 South America,1505-14-,Copiapo,Chile,Chile-N,-27.3,-69.13,6052,Stratovolcano,Uncertain,Unknown
 South America,1505-101,Cordon de Puntas Negras,Chile,Chile-N,-23.743,-67.534,5852,Stratovolcano,Holocene,U
 South America,1505-02=,Guallatiri,Chile,Chile-N,-18.42,-69.092,6071,Stratovolcano,Historical,D2
 South America,1505-03=,Isluga,Chile,Chile-N,-19.15,-68.83,5550,Stratovolcano,Historical,D2
 South America,1505-10=,Lascar,Chile,Chile-N,-23.37,-67.73,5592,Stratovolcano,Historical,D1
 South America,1505-12=,Lastarria,Chile,Chile-N,-25.168,-68.507,5706,Stratovolcano,Holocene,U
 South America,1505-092,Licancabur,Chile,Chile-N,-22.83,-67.88,5916,Stratovolcano,Holocene,U
 South America,1505-102,Miniques,Chile,Chile-N,-23.82,-67.77,5910,Stratovolcano,Holocene,U
 South America,1505-106,"Negrillar, El",Chile,Chile-N,-24.18,-68.25,3500,Pyroclastic cone,Holocene,Unknown
 South America,1505-109,"Negrillar, La",Chile,Chile-N,-24.319,-68.59,4220,Pyroclastic cone,Holocene,Unknown
 South America,1505-097,"Overo, Cerro",Chile,Chile-N,-23.52,-67.67,4555,Maar,Holocene,U
 South America,1505-094,Purico Complex,Chile,Chile-N,-23,-67.75,5703,Pyroclastic shield,Holocene,U
 South America,1505-09=,Putana,Chile,Chile-N,-22.557,-67.853,5884,Stratovolcano,Historical,D1
 South America,1505-07=,San Pedro-San Pablo,Chile,Chile-N,-21.888,-68.391,6142,Stratovolcano,Historical,D2
 South America,1505-011,Taapaca,Chile,Chile-N,-18.1,-69.5,5860,Lava dome,Holocene,U
 South America,1505-01=,Tacora,Chile,Chile-N,-17.72,-69.77,5980,Stratovolcano,Fumarolic,U
 South America,1505-032,Tata Sabaya,Chile,Chile-N,-19.13,-68.53,5430,Unknown,Holocene,Unknown
 South America,1505-105,Tilocalar,Chile,Chile-N,-23.97,-68.13,3109,Stratovolcano,Holocene,U
 South America,1505-103,"Tujle, Cerro",Chile,Chile-N,-23.83,-67.95,3550,Stratovolcano,Holocene,U
 South America,1508-062,Aguilera,Chile,Chile-S,-50.33,-73.75,2546,Stratovolcano,Radiocarbon,D7
 South America,1508-059,Arenales,Chile,Chile-S,-47.2,-73.483,3437,Stratovolcano,Historical,D2
 South America,1508-07=,"Burney, Monte",Chile,Chile-S,-52.33,-73.4,1758,Stratovolcano,Historical,D2
 South America,1508-02=,Calbuco,Chile,Chile-S,-41.33,-72.618,1974,Stratovolcano,Historical,D2
 South America,1508-055,Cay,Chile,Chile-S,-45.059,-72.984,2090,Stratovolcano,Holocene,Unknown
 South America,1508-021,Cayute-La Vigueria,Chile,Chile-S,-41.25,-72.27,506,Pyroclastic cone,Holocene,U
 South America,1508-012,Cayutue-La Vigueria,Chile,Chile-S,-41.25,-72.27,506,Pyroclastic cones,Tephrochronology,D7
 South America,1508-041,Chaiten,Chile,Chile-S,-42.833,-72.646,1122,Caldera,Holocene,D1
 South America,1508-050,Corcovado,Chile,Chile-S,-43.189,-72.794,1826,Stratovolcanoes,Radiocarbon,D7
 South America,1508-09-,Fueguino,Chile,Chile-S,-54.97,-70.262,157,Lava dome,Holocene,U
 South America,1508-023,Hornopiren,Chile,Chile-S,-41.874,-72.431,1572,Stratovolcano,Holocene,Unknown
 South America,1508-057,"Hudson, Cerro",Chile,Chile-S,-45.9,-72.97,1905,Stratovolcano,Historical,D1
 South America,1508-03=,Huequi,Chile,Chile-S,-42.377,-72.578,1318,Stratovolcano,Historical,D2
 South America,1508-06=,Lautaro,Chile,Chile-S,-49.019,-73.504,3542,Stratovolcano,Historical,D2
 South America,1508-056,Maca,Chile,Chile-S,-45.1,-73.17,2960,Stratovolcano,Holocene,U
 South America,1508-052,Melimoyu,Chile,Chile-S,-44.08,-72.88,2400,Cinder cone,Holocene,U
 South America,1508-054,Mentolat,Chile,Chile-S,-44.7,-73.08,1660,Cinder cone,Holocene,U
 South America,1508-04=,Michinmahuida,Chile,Chile-S,-42.799,-72.445,2452,Stratovolcano,Historical,D3
 South America,1508-01=,Osorno,Chile,Chile-S,-41.105,-72.496,2659,Stratovolcano,Historical,D3
 South America,1508-051,Palena Volcanic Group,Chile,Chile-S,-43.42,-72.83,2991,Stratovolcano,Historical,D3
 South America,1508-08-,Pali-Aike Volcanic Field,Chile,Chile-S,-52.082,-69.698,282,Cinder cone,Anthropology,D7
 South America,1508-053,Puyuhuapi,Chile,Chile-S,-44.3,-72.53,524,Stratovolcano,Holocene,U
 South America,1508-063,Reclus,Chile,Chile-S,-50.964,-73.585,1000,Stratovolcano,Radiocarbon,D7
 South America,1508-058,Río Murta,Chile,Chile-S,-46.167,-72.667,,Pyroclastic cones,Holocene?,?
 South America,1508-011,Tronador,Chile,Chile-S,-41.157,-71.885,3478,Stratovolcano,Holocene?,?
 South America,1508-05=,Yanteles,Chile,Chile-S,-43.497,-72.81,2049,Stratovolcano,Historical,D3
 South America,1508-022,Yate,Chile,Chile-S,-41.755,-72.396,2187,Stratovolcano,Holocene,U
 South America,1508-025,Crater Basalt Volcanic Field,Argentina,Chile-S/Argentina,-42.018,-70.194,1344,Cinder cones,Holocene,U
 South America,1501-09=,Azufral,Colombia,Colombia,1.08,-77.68,4070,Stratovolcano,Radiocarbon,D7
 South America,1501-012,"Bravo, Cerro",Colombia,Colombia,5.091,-75.293,3985,Stratovolcano,Radiocarbon,D4
 South America,1501-10=,Cumbal,Colombia,Colombia,0.95,-77.87,4764,Stratovolcano,Historical,D2
 South America,1501-07=,Dona Juana,Colombia,Colombia,1.5,-76.936,4137,Stratovolcano,Historical,D2
 South America,1501-08=,Galeras,Colombia,Colombia,1.22,-77.37,4276,Complex volcano,Historical,D1
 South America,1501-05=,"Huila, Nevado del",Colombia,Colombia,2.93,-76.03,5364,Stratovolcano,Historical,D5
 South America,1501-04=,Machin,Colombia,Colombia,4.487,-75.389,2749,Stratovolcano,Radiocarbon,D6
 South America,1501-062,Petacas,Colombia,Colombia,1.57,-76.78,3280,Lava dome,Holocene,Unknown
 South America,1501-06=,Purace,Colombia,Colombia,2.32,-76.4,4650,Stratovolcano,Historical,D1
 South America,1501-011,Romeral,Colombia,Colombia,5.203,-75.363,3769,Stratovolcano,Radiocarbon,D4
 South America,1501-02=,"Ruiz, Nevado del",Colombia,Colombia,4.892,-75.324,5279,Stratovolcano,Historical,D1
 South America,1501-021,Santa Isabel,Colombia,Colombia,4.818,-75.365,4944,Shield volcano,Radiocarbon,D7
 South America,1501-061,Sotara,Colombia,Colombia,2.108,-76.592,4400,Stratovolcano,Holocene,U
 South America,1501-03=,"Tolima, Nevado del",Colombia,Colombia,4.658,-75.33,5215,Stratovolcano,Historical,D2
 South America,1501-11=,Chiles-Cerro Negro,Ecuador,Colombia,0.817,-77.938,4698,Stratovolcano,Holocene,D2
 South America,1502-03=,Antisana,Ecuador,Ecuador,-0.481,-78.141,5753,Stratovolcano,Historical,D3
 South America,1502-021,Atacazo,Ecuador,Ecuador,-0.353,-78.617,4463,Stratovolcano,Radiocarbon,D7
 South America,1502-006,Cayambe,Ecuador,Ecuador,0.029,-77.986,5790,Compound volcano,Historical,D4
 South America,1502-022,Chacana,Ecuador,Ecuador,-0.375,-78.25,4643,Caldera,Historical,D4
 South America,1502-002,Chachimbiro,Ecuador,Ecuador,0.468,-78.287,4106,Caldera,Radiocarbon,D7
 South America,1502-071,Chimborazo,Ecuador,Ecuador,-1.464,-78.815,6310,Stratovolcano,Radiocarbon,D6
 South America,1502-05=,Cotopaxi,Ecuador,Ecuador,-0.677,-78.436,5911,Stratovolcano,Historical,D2
 South America,1502-003,Cuicocha,Ecuador,Ecuador,0.308,-78.364,3246,Stratovolcano,Holocene,Unknown
 South America,1502-02=,Guagua Pichincha,Ecuador,Ecuador,-0.171,-78.598,4784,Stratovolcano,Historical,D1
 South America,1502-041,Illiniza,Ecuador,Ecuador,-0.659,-78.714,5248,Stratovolcano,Holocene,U
 South America,1502-004,Imbabura,Ecuador,Ecuador,0.258,-78.183,4609,Compound volcano,Historical,D4
 South America,1502-081,Licto,Ecuador,Ecuador,-1.78,-78.613,3336,Scoria cone,Holocene,U
 South America,1502-005,Mojanda,Ecuador,Ecuador,0.13,-78.27,4263,Stratovolcanoes,Holocene?,?
 South America,1502-011,Pululahua,Ecuador,Ecuador,0.038,-78.463,3356,Caldera,Radiocarbon,D7
 South America,1502-06=,Quilotoa,Ecuador,Ecuador,-0.85,-78.9,3914,Caldera,Radiocarbon,D6
 South America,1502-01=,Reventador,Ecuador,Ecuador,-0.077,-77.656,3562,Stratovolcano,Historical,D1
 South America,1502-09=,Sangay,Ecuador,Ecuador,-2.005,-78.341,5286,Stratovolcano,Historical,D1
 South America,1502-001,Soche,Ecuador,Ecuador,0.552,-77.58,3955,Stratovolcano,Radiocarbon,D7
 South America,1502-04=,Sumaco,Ecuador,Ecuador,-0.538,-77.626,3990,Stratovolcano,Historical,D3
 South America,1502-08=,Tungurahua,Ecuador,Ecuador,-1.467,-78.442,5023,Stratovolcano,Historical,D1
 South America,1503-04=,Alcedo,Ecuador,Galapagos,-0.43,-91.12,1130,Shield volcano,Historical,D1
 South America,1503-06=,"Azul, Cerro",Ecuador,Galapagos,-0.92,-91.408,1640,Shield volcano,Historical,D1
 South America,1503-03=,Darwin,Ecuador,Galapagos,-0.18,-91.28,1330,Shield volcano,Holocene,D3
 South America,1503-011,Ecuador,Ecuador,Galapagos,-0.02,-91.546,790,Shield volcano,Holocene,U
 South America,1503-01=,Fernandina,Ecuador,Galapagos,-0.37,-91.55,1476,Shield volcano,Historical,D1
 South America,1503-081,Genovesa,Ecuador,Galapagos,0.32,-89.958,64,Shield volcano,Holocene,U
 South America,1503-08=,Marchena,Ecuador,Galapagos,0.33,-90.47,343,Shield volcano,Historical,D1
 South America,1503-05=,"Negra, Sierra",Ecuador,Galapagos,-0.83,-91.17,1124,Shield volcano,Historical,D1
 South America,1503-07=,Pinta,Ecuador,Galapagos,0.58,-90.75,780,Shield volcano,Historical,D2
 South America,1503-12-,San Cristobal,Ecuador,Galapagos,-0.88,-89.5,759,Shield volcano,Holocene,U
 South America,1503-091,Santa Cruz,Ecuador,Galapagos,-0.62,-90.33,864,Shield volcano,Holocene,U
 South America,1503-09=,Santiago,Ecuador,Galapagos,-0.22,-90.77,920,Shield volcano,Historical,D2
 South America,1503-02=,Wolf,Ecuador,Galapagos,0.02,-91.35,1710,Shield volcano,Historical,D1
 South America,1504-004,Andahua-Orcopampa,Peru,Peru,-15.42,-72.33,4713,Lava dome,Holocene,U
 South America,1504-001,"Auquihuato, Cerro",Peru,Peru,-15.07,-73.18,4980,Stratovolcano,Holocene,U
 South America,1504-06-,"Casiri, Nevados",Peru,Peru,-17.47,-69.813,5650,Stratovolcano,Holocene,U
 South America,1504-007,"Chachani, Nevado",Peru,Peru,-16.191,-71.53,6057,Stratovolcano,Holocene?,?
 South America,1504-003,Coropuna,Peru,Peru,-15.52,-72.65,6377,Stratovolcano,Historical,D1
 South America,1504-005,Huambo,Peru,Peru,-15.83,-72.13,4550,Stratovolcano,Holocene,U
 South America,1504-03=,Huaynaputina,Peru,Peru,-16.608,-70.85,4850,Stratovolcano,Historical,D5
 South America,1504-01=,"Misti, El",Peru,Peru,-16.294,-71.409,5822,Stratovolcano,Historical,D4
 South America,1504-008,"Nicholson, Cerro",Peru,Peru,-16.261,-71.754,2525,Cinder cone,Holocene,U
 South America,1504-00-,Quimsachata,Peru,Peru,-14.176,-71.351,3693,Stratovolcano,Holocene,U
 South America,1504-006,Sabancaya,Peru,Peru,-15.787,-71.857,5960,Stratovolcanoes,Historical,D1
 South America,1504-002,Sara Sara,Peru,Peru,-15.33,-73.45,5522,Cinder cone,Holocene,U
 South America,1504-031,Ticsani,Peru,Peru,-16.755,-70.595,5408,Stratovolcano,Holocene,U
 South America,1504-04=,Tutupaca,Peru,Peru,-17.026,-70.372,5801,Stratovolcano,Historical,D2
 South America,1504-02=,Ubinas,Peru,Peru,-16.355,-70.903,5672,Stratovolcano,Historical,D1
 South America,1504-05-,Yucamane,Peru,Peru,-17.184,-70.196,5495,Stratovolcano,Historical,D4
Philippines and SE Asia,0705-11-,Tengchong,China,China-S,25.23,98.5,2865,Pyroclastic cone,Historical,D5
Philippines and SE Asia,0704-03=,Babuyan Claro,Philippines,Luzon-N of,19.523,121.94,1080,Stratovolcano,Historical,D2
Philippines and SE Asia,0704-01=,Camiguin de Babuyanes,Philippines,Luzon-N of,18.83,121.86,712,Stratovolcano,Historical,D3
Philippines and SE Asia,0704-02=,Didicas,Philippines,Luzon-N of,19.077,122.202,228,Compound volcano,Historical,D1
Philippines and SE Asia,0704-06-,Iraya,Philippines,Luzon-N of,20.469,122.01,1009,Stratovolcano,Historical,D6
Philippines and SE Asia,0704-04=,Smith Volcano,Philippines,Luzon-N of,19.523,121.94,2090,Stratovolcano,Historical,D2
Philippines and SE Asia,0704-05=,Unnamed,Philippines,Luzon-N of,20.33,121.75,-24,Submarine volcano,Historical,D3
Philippines and SE Asia,0703-088,Ambalatungan Group,Philippines,Luzon-Philippines,17.32,121.1,2329,Compound volcano,Fumarolic,U
Philippines and SE Asia,0703-085,Amorong,Philippines,Luzon-Philippines,15.828,120.805,376,Unknown,Fumarolic,U
Philippines and SE Asia,0703-084,Arayat,Philippines,Luzon-Philippines,15.2,120.742,1026,Stratovolcano,Holocene,U
Philippines and SE Asia,0703-05=,Banahaw,Philippines,Luzon-Philippines,14.07,121.48,2158,Complex volcano,Holocene,U
Philippines and SE Asia,0703-01=,Bulusan,Philippines,Luzon-Philippines,12.769,124.056,1535,Stratovolcano,Historical,D1
Philippines and SE Asia,0703-09=,Cagua,Philippines,Luzon-Philippines,18.222,122.123,1133,Stratovolcano,Holocene,U
Philippines and SE Asia,0703-041,Iriga,Philippines,Luzon-Philippines,13.458,123.451,1138,Stratovolcano,Historical,D5
Philippines and SE Asia,0703-042,Isarog,Philippines,Luzon-Philippines,13.658,123.38,1966,Stratovolcano,Holocene,U
Philippines and SE Asia,0703-08=,Laguna Caldera,Philippines,Luzon-Philippines,14.42,121.27,743,Fumarole field,Fumarolic,Unknown
Philippines and SE Asia,0703-04=,Malinao,Philippines,Luzon-Philippines,13.422,123.597,1548,Stratovolcano,Fumarolic,U1
Philippines and SE Asia,0703-044,Malindig,Philippines,Luzon-Philippines,13.24,122.018,1157,Stratovolcano,Hot Springs,U
Philippines and SE Asia,0703-081,Mariveles,Philippines,Luzon-Philippines,14.527,120.482,1388,Stratovolcano,Radiocarbon,D7
Philippines and SE Asia,0703-031,Masaraga,Philippines,Luzon-Philippines,13.32,123.6,1328,Stratovolcano,Holocene,U
Philippines and SE Asia,0703-03=,Mayon,Philippines,Luzon-Philippines,13.257,123.685,2462,Stratovolcano,Historical,D1
Philippines and SE Asia,0703-082,Natib,Philippines,Luzon-Philippines,14.72,120.4,1253,Stratovolcano,Holocene,Unknown
Philippines and SE Asia,0703-087,Patoc,Philippines,Luzon-Philippines,17.147,120.98,1865,Stratovolcano,Fumarolic,U
Philippines and SE Asia,0703-083,Pinatubo,Philippines,Luzon-Philippines,15.13,120.35,1486,Stratovolcano,Historical,D1
Philippines and SE Asia,0703-02=,Pocdol Mountains,Philippines,Luzon-Philippines,13.05,123.958,1102,Compound volcano,Holocene,U
Philippines and SE Asia,0703-06=,San Pablo Volcanic Field,Philippines,Luzon-Philippines,14.12,121.3,1090,Stratovolcano,Holocene,U
Philippines and SE Asia,0703-086,Santo Tomas,Philippines,Luzon-Philippines,16.33,120.55,2260,Stratovolcano,Uncertain,Unknown
Philippines and SE Asia,0703-07=,Taal,Philippines,Luzon-Philippines,14.002,120.993,311,Stratovolcano,Historical,D1
Philippines and SE Asia,0701-03=,Apo,Philippines,Mindanao-Philippines,6.989,125.269,2938,Stratovolcano,Fumarolic,U
Philippines and SE Asia,0701-072,Balatocan,Philippines,Mindanao-Philippines,8.8,124.92,2450,Compound volcano,Fumarolic,U
Philippines and SE Asia,0701-01=,Balut,Philippines,Mindanao-Philippines,5.4,125.375,862,Stratovolcano,Holocene,U
Philippines and SE Asia,0701-08=,Camiguin,Philippines,Mindanao-Philippines,9.203,124.673,1552,Stratovolcano,Historical,D2
Philippines and SE Asia,0701-061,Kalatungan,Philippines,Mindanao-Philippines,7.95,124.8,2824,Stratovolcano,Holocene,U
Philippines and SE Asia,0701-05=,Latukan,Philippines,Mindanao-Philippines,7.65,124.47,2338,Stratovolcano,Holocene,U
Philippines and SE Asia,0701-031,Leonard Range,Philippines,Mindanao-Philippines,7.382,126.047,1080,Stratovolcano,Holocene,U
Philippines and SE Asia,0701-04=,Makaturing,Philippines,Mindanao-Philippines,7.644,124.317,1818,Stratovolcano,Holocene,U
Philippines and SE Asia,0701-071,Malindang,Philippines,Mindanao-Philippines,8.22,123.63,2404,Stratovolcano,Holocene,U
Philippines and SE Asia,0701-02=,Matutum,Philippines,Mindanao-Philippines,6.37,125.07,2286,Stratovolcano,Holocene,U
Philippines and SE Asia,0701-07=,Musuan,Philippines,Mindanao-Philippines,7.877,125.068,646,Tuff cone,Historical,D3
Philippines and SE Asia,0701-09-,Paco,Philippines,Mindanao-Philippines,9.593,125.52,524,Stratovolcano,Anthropology,U
Philippines and SE Asia,0701-011,Parker,Philippines,Mindanao-Philippines,6.113,124.892,1824,Stratovolcano,Historical,D5
Philippines and SE Asia,0701-06=,Ragang,Philippines,Mindanao-Philippines,7.691,124.507,2790,Stratovolcano,Historical,D2
Philippines and SE Asia,0702-08=,Biliran,Philippines,Philippines-C,11.523,124.535,1301,Compound volcano,Historical,D2
Philippines and SE Asia,0702-05=,Cabalían,Philippines,Philippines-C,10.285,125.218,912,Stratovolcano,Holocene,U
Philippines and SE Asia,0702-01=,Cuernos de Negros,Philippines,Philippines-C,9.25,123.17,1862,Stratovolcano,Holocene,U
Philippines and SE Asia,0702-02=,Kanlaon,Philippines,Philippines-C,10.412,123.132,2435,Stratovolcano,Historical,D1
Philippines and SE Asia,0702-07=,Mahagnao,Philippines,Philippines-C,10.882,124.888,860,Stratovolcano,Fumarolic,U
Philippines and SE Asia,0702-03=,Mandalagan,Philippines,Philippines-C,10.65,123.25,1885,Stratovolcano,Holocene,U
Philippines and SE Asia,0702-04=,Silay,Philippines,Philippines-C,10.77,123.23,1510,Stratovolcano,Holocene,U
Philippines and SE Asia,0705-001,Hainan Volcanic Field,China,SE Asia,19.905,110.229,196,Pyroclastic cones,Historical,D2
Philippines and SE Asia,0705-01-,Leizhou Bandao,China,SE Asia,20.83,109.78,259,Volcanic field,Holocene,U
Philippines and SE Asia,0705-09-,Lower Chindwin,Myanmar,SE Asia,22.28,95.1,385,Volcanic field,Holocene,Unknown
Philippines and SE Asia,0705-08-,Popa,Myanmar,SE Asia,20.92,95.25,1518,Stratovolcano,Anthropology,D7
Philippines and SE Asia,0705-10-,Singu Plateau,Myanmar,SE Asia,22.7,95.98,507,Fissure vent,Holocene,U
Philippines and SE Asia,0705-05-,Bas Dong Nai,Vietnam,SE Asia,10.8,107.2,392,Volcanic field,Holocene,Unknown
Philippines and SE Asia,0705-06-,"Cendres, Ile des",Vietnam,SE Asia,10.158,109.014,-20,Submarine volcanoes,Historical,D2
Philippines and SE Asia,0705-04-,Haut Dong Nai,Vietnam,SE Asia,11.6,108.2,1000,Volcanic field,Holocene,Unknown
Philippines and SE Asia,0705-02-,Ly Son Group,Vietnam,SE Asia,15.38,109.12,157,Volcanic field,Holocene,U
Philippines and SE Asia,0705-03-,Toroeng Prong,Vietnam,SE Asia,14.93,108,800,Cinder cone,Holocene,Unknown
Philippines and SE Asia,0705-07-,Veteran,Vietnam,SE Asia,9.83,109.05,-50,Submarine volcano,Fumarolic,U
Philippines and SE Asia,0700-01=,Bud Dajo,Philippines,Sulu Is-Philippines,5.95,121.07,440,Pyroclastic cone,Historical,D3
New Zealand to Fiji,0405-02-,Koro,Fiji,Fiji Is-SW Pacific,-17.32,179.4,522,Cinder cone,Holocene,Unknown
New Zealand to Fiji,0405-01-,Taveuni,Fiji,Fiji Is-SW Pacific,-16.82,-179.97,1241,Shield volcano,Radiocarbon,D7
New Zealand to Fiji,0405-03-,Nabukelevu,Tonga,Fiji Is-SW Pacific,-19.12,177.98,805,Lava domes,Radiocarbon,D5
New Zealand to Fiji,0402-02=,Brimstone Island,New Zealand,Kermadec Is,-30.23,-178.92,-2000,Submarine volcano,Uncertain,Unknown
New Zealand to Fiji,0402-01=,Curtis Island,New Zealand,Kermadec Is,-30.543,-178.556,47,Submarine volcano,Uncertain,Unknown
New Zealand to Fiji,0402-022,Giggenbach,New Zealand,Kermadec Is,-30.036,-178.712,-65,Submarine volcano,Fumarolic,U
New Zealand to Fiji,0402-021,Macauley,New Zealand,Kermadec Is,-30.21,-178.475,238,Caldera,Holocene,U
New Zealand to Fiji,0402-05-,Monowai,New Zealand,Kermadec Is,-25.887,-177.188,-132,Submarine volcano,Historical,D1
New Zealand to Fiji,0402-03=,Raoul Island,New Zealand,Kermadec Is,-29.27,-177.92,516,Stratovolcano,Historical,D1
New Zealand to Fiji,0402-04=,Unnamed,New Zealand,Kermadec Is,-29.18,-177.87,-560,Submarine volcano,Historical,D3
New Zealand to Fiji,0402-001,Wright,New Zealand,Kermadec Is,-31.85,-179.18,-900,Submarine volcanoes,Fumarolic,U
New Zealand to Fiji,0401-02=,Auckland Volcanic Field,New Zealand,New Zealand,-36.9,174.87,260,Volcanic field,Radiocarbon,D6
New Zealand to Fiji,0401-15-,Brothers,New Zealand,New Zealand,-34.875,179.075,-1350,Submarine volcano,Fumarolic,U
New Zealand to Fiji,0401-101,Clark,New Zealand,New Zealand,-36.446,177.839,-860,Submarine volcano,Fumarolic,U
New Zealand to Fiji,0401-14-,Healy,New Zealand,New Zealand,-35.004,178.973,-980,Submarine volcano,Radiocarbon,D6
New Zealand to Fiji,0401-01=,Kaikohe-Bay of Islands,New Zealand,New Zealand,-35.3,173.9,388,Volcanic field,Radiocarbon,D6
New Zealand to Fiji,0401-061,Maroa,New Zealand,New Zealand,-38.42,176.08,897,Caldera,Tephrochronology,D6
New Zealand to Fiji,0401-021,Mayor Island,New Zealand,New Zealand,-37.28,176.25,355,Shield volcano,Radiocarbon,D7
New Zealand to Fiji,0401-09=,Ngauruhoe,New Zealand,New Zealand,-39.158,175.63,2291,Stratovolcano,Historical,D1
New Zealand to Fiji,0401-05=,Okataina,New Zealand,New Zealand,-38.12,176.5,1111,Lava dome,Historical,D1
New Zealand to Fiji,0401-06-,Reporoa,New Zealand,New Zealand,-38.42,176.33,592,Caldera,Tephrochronology,D6
New Zealand to Fiji,0401-10=,Ruapehu,New Zealand,New Zealand,-39.28,175.57,2797,Stratovolcano,Historical,D1
New Zealand to Fiji,0401-131,Rumble II West,New Zealand,New Zealand,-35.353,178.527,-1200,Submarine volcano,Fumarolic,U
New Zealand to Fiji,0401-13-,Rumble III,New Zealand,New Zealand,-35.745,178.478,-220,Submarine volcano,Hydrophonic,D1
New Zealand to Fiji,0401-12-,Rumble IV,New Zealand,New Zealand,-36.13,178.05,-500,Submarine volcano,Fumarolic,U
New Zealand to Fiji,0401-11-,Rumble V,New Zealand,New Zealand,-36.142,178.196,-400,Submarine volcano,Fumarolic,U
New Zealand to Fiji,0401-102,Tangaroa,New Zealand,New Zealand,-36.321,178.028,-600,Submarine volcano,Fumarolic,U
New Zealand to Fiji,0401-03=,Taranaki,New Zealand,New Zealand,-39.3,174.07,2518,Stratovolcano,Radiocarbon,D4
New Zealand to Fiji,0401-07=,Taupo,New Zealand,New Zealand,-38.82,176,760,Caldera,Radiocarbon,D6
New Zealand to Fiji,0401-08=,Tongariro,New Zealand,New Zealand,-39.157,175.632,1978,Stratovolcano,Historical,D1
New Zealand to Fiji,0401-04=,Whakaari/White Island,New Zealand,New Zealand,-37.52,177.18,294,Stratovolcano,Historical,D1
New Zealand to Fiji,0401-011,Whangarei,New Zealand,New Zealand,-35.75,174.27,397,Cinder cone,Holocene,Unknown
New Zealand to Fiji,0404-02-,Tutuila,American Samoa,Samoa-SW Pacific,-14.295,-170.7,653,Tuff cone,Holocene,U
New Zealand to Fiji,0404-04=,Savai'i,Samoa,Samoa-SW Pacific,-13.612,-172.525,1858,Shield volcano,Historical,D2
New Zealand to Fiji,0404-03-,Upolu,Samoa,Samoa-SW Pacific,-13.935,-171.72,1100,Shield volcano,Holocene,U
New Zealand to Fiji,0404-01=,Ofu-Olosega,United States,Samoa-SW Pacific,-14.175,-169.618,639,Shield volcano,Historical,D3
New Zealand to Fiji,0404-001,Ta'u,United States,Samoa-SW Pacific,-14.23,-169.454,931,Shield volcano,Holocene,U
New Zealand to Fiji,0404-00-,Vailulu'u,United States,Samoa-SW Pacific,-14.215,-169.058,-592,Submarine volcano,Uncertain,Unknown
New Zealand to Fiji,0404-05-,Wallis Islands,Wallis & Futuna,SW Pacific,-13.3,-176.17,143,Shield volcano,Holocene,U
New Zealand to Fiji,0403-102,Curacoa,Tonga,Tonga-SW Pacific,-15.62,-173.67,-33,Submarine volcano,Historical,D2
New Zealand to Fiji,0403-05=,Fonuafo'ou,Tonga,Tonga-SW Pacific,-20.32,-175.42,-17,Submarine volcano,Historical,D2
New Zealand to Fiji,0403-10=,Fonualei,Tonga,Tonga-SW Pacific,-18.023,-174.317,188,Stratovolcano,Historical,D2
New Zealand to Fiji,0403-08=,Home Reef,Tonga,Tonga-SW Pacific,-18.992,-174.775,-10,Submarine volcano,Historical,D1
New Zealand to Fiji,0403-04=,Hunga Tonga-Hunga Ha'apai,Tonga,Tonga-SW Pacific,-20.536,-175.382,114,Submarine volcano,Historical,D1
New Zealand to Fiji,0403-061,Kao,Tonga,Tonga-SW Pacific,-19.668,-175.016,1009,Stratovolcano,Holocene,U
New Zealand to Fiji,0403-09=,Late,Tonga,Tonga-SW Pacific,-18.806,-174.65,540,Stratovolcano,Historical,D3
New Zealand to Fiji,0403-07=,Lateiki,Tonga,Tonga-SW Pacific,-19.18,-174.87,43,Submarine volcano,Historical,D1
New Zealand to Fiji,0403-11=,Niuafo'ou,Tonga,Tonga-SW Pacific,-15.6,-175.63,260,Shield volcano,Historical,D1
New Zealand to Fiji,0403-101,Tafahi,Tonga,Tonga-SW Pacific,-15.85,-173.72,560,Submarine volcano,Historical,D1
New Zealand to Fiji,0403-12-,Tafu-Maka,Tonga,Tonga-SW Pacific,-15.37,-174.23,-1400,Submarine volcano,Historical,D1
New Zealand to Fiji,0403-06=,Tofua,Tonga,Tonga-SW Pacific,-19.75,-175.07,515,Caldera,Historical,D2
New Zealand to Fiji,0403-02=,Unnamed,Tonga,Tonga-SW Pacific,-21.07,-175.33,0,Not Volcanic,Historical,D2
New Zealand to Fiji,0403-01=,Unnamed,Tonga,Tonga-SW Pacific,-21.338,-175.65,-68,Submarine volcano,Historical,D2
New Zealand to Fiji,0403-03=,Unnamed,Tonga,Tonga-SW Pacific,-20.852,-175.55,-296,Submarine volcano,Historical,D1
New Zealand to Fiji,0403-001,Unnamed,Tonga,Tonga-SW Pacific,-24.8,-177.02,-385,Submarine volcano,Fumarolic,U
New Zealand to Fiji,0403-011,Unnamed,Tonga,Tonga-SW Pacific,-21.15,-175.75,-65,Submarine volcano,Holocene,U
New Zealand to Fiji,0403-091,Unnamed,Tonga,Tonga-SW Pacific,-18.325,-174.365,-40,Submarine volcano,Historical,D1
New Zealand to Fiji,0403-13-,West Mata,Tonga,Tonga-SW Pacific,-15.1,-173.75,-1174,Submarine volcano,Historical,D1
Middle East and Indian Ocean,0302-06-,Dacht-I-Navar Group,Afghanistan,Afghanistan,33.95,67.92,3800,Lava dome,Holocene,U
Middle East and Indian Ocean,0302-07-,Vakak Group,Afghanistan,Afghanistan,34.25,67.97,3190,Volcanic field,Holocene,U
Middle East and Indian Ocean,0302-14-,Ormus Islands,Indian Ocean,Arabia-S,26,57,0,Submarine volcano,Holocene,D2
Middle East and Indian Ocean,0301-15-,Unnamed,Indian Ocean,Arabia-S,12.25,45,0,Submarine volcano,Uncertain,Unknown
Middle East and Indian Ocean,0301-09-,"Arhab, Harra of",Yemen,Arabia-S,15.63,44.08,3100,Volcanic field,Historical,D6
Middle East and Indian Ocean,0301-17-,"Bal Haf, Harra of",Yemen,Arabia-S,14.067,48.3,604,Volcanic field,Holocene,U
Middle East and Indian Ocean,0301-18-,Bir Borhut,Yemen,Arabia-S,15.515,50.935,464,Volcanic field,Holocene,Unknown
Middle East and Indian Ocean,0301-12-,"Dhamar, Harras of",Yemen,Arabia-S,14.57,44.67,3500,Volcanic field,Historical,D2
Middle East and Indian Ocean,0301-11-,"Haylan, Jabal",Yemen,Arabia-S,15.4,45.1,1550,Volcanic field,Anthropology,D7
Middle East and Indian Ocean,0301-10-,"Marha, Jabal el-",Yemen,Arabia-S,15.245,44.236,2506,Tuff cone,Holocene,U
Middle East and Indian Ocean,0301-16-,"Sawad, Harra Es-",Yemen,Arabia-S,13.58,46.12,1737,Volcanic field,Historical,D6
Middle East and Indian Ocean,0301-072,"Birk, Harrat al",Saudi Arabia,Arabia-W,18.37,41.63,587,Volcanic field,Holocene,U
Middle East and Indian Ocean,0301-001,Harrat Ash Shamah,Saudi Arabia,Arabia-W,32.333,37.583,1100,Volcanic field,Holocene,U
Middle East and Indian Ocean,0301-05=,"Ithnayn, Harrat",Saudi Arabia,Arabia-W,26.58,40.2,1625,Volcanic field,Holocene,U
Middle East and Indian Ocean,0301-06=,"Khaybar, Harrat",Saudi Arabia,Arabia-W,25,39.92,2093,Volcanic field,Historical,D6
Middle East and Indian Ocean,0301-071,"Kishb, Harrat",Saudi Arabia,Arabia-W,22.8,41.38,1475,Volcanic field,Holocene,U
Middle East and Indian Ocean,0301-04-,"Lunayyir, Harrat",Saudi Arabia,Arabia-W,25.17,37.75,1370,Volcanic field,Historical,D6
Middle East and Indian Ocean,0301-01=,"Rahah, Harrat ar",Saudi Arabia,Arabia-W,27.8,36.17,1950,Volcanic field,Anthropology,U
Middle East and Indian Ocean,0301-07=,"Rahat, Harrat",Saudi Arabia,Arabia-W,23.08,39.78,1744,Volcanic field,Historical,D6
Middle East and Indian Ocean,0301-02=,"Uwayrid, Harrat",Saudi Arabia,Arabia-W,27.08,37.25,1920,Volcanic field,Anthropology,D6
Middle East and Indian Ocean,0301-08-,"Yar, Jabal",Saudi Arabia,Arabia-W,17.05,42.83,305,Volcanic field,Historical,D3
Middle East and Indian Ocean,0305-01=,Unnamed,Indian Ocean,Indian O-E,11.75,80.75,0,Submarine volcano,Uncertain,Unknown
Middle East and Indian Ocean,0304-03-,"Est, Ile de l'",French Southern & Antarctic Lands,Indian O-S,-46.43,52.2,1090,Stratovolcano,Holocene,Unknown
Middle East and Indian Ocean,0304-02=,Kerguelen Islands,French Southern & Antarctic Lands,Indian O-S,-49.58,69.5,1840,Stratovolcano,Holocene,U
Middle East and Indian Ocean,0304-01=,Heard,Heard I. & McDonald Is.,Indian O-S,-53.106,73.513,2745,Stratovolcano,Historical,D1
Middle East and Indian Ocean,0304-001,Amsterdam Island,Indian Ocean,Indian O-S,-37.83,77.52,881,Stratovolcano,Holocene,U
Middle East and Indian Ocean,0304-05-,"Cochons, Ile Aux",Indian Ocean,Indian O-S,-46.1,50.23,775,Stratovolcano,Holocene,U
Middle East and Indian Ocean,0304-011,McDonald Islands,Indian Ocean,Indian O-S,-53.03,72.6,230,Complex volcano,Historical,D1
Middle East and Indian Ocean,0304-04-,"Possession, Ile de la",Indian Ocean,Indian O-S,-46.42,51.75,934,Stratovolcano,Holocene,U
Middle East and Indian Ocean,0304-06-,Prince Edward Island,Indian Ocean,Indian O-S,-46.63,37.95,672,Shield volcano,Holocene,U
Middle East and Indian Ocean,0304-002,St. Paul,Indian Ocean,Indian O-S,-38.72,77.53,268,Stratovolcano,Historical,D4
Middle East and Indian Ocean,0304-07-,Marion Island,South Africa,Indian O-S,-46.9,37.75,1230,Shield volcano,Historical,D1
Middle East and Indian Ocean,0303-001,"Grille, La",Comoros,Indian O-W,-11.47,43.33,1087,Shield volcano,Holocene,U
Middle East and Indian Ocean,0303-01=,Karthala,Comoros,Indian O-W,-11.75,43.38,2361,Shield volcano,Historical,D1
Middle East and Indian Ocean,0303-02=,"Fournaise, Piton de la",Reunion,Indian O-W,-21.244,55.708,2632,Shield volcano,Historical,D1
Middle East and Indian Ocean,0304-00-,Boomerang Seamount,Antarctica,Indian O.-S,-37.721,77.825,-650,Submarine volcano,Historical,D2
Middle East and Indian Ocean,0302-03-,Bazman,Iran,Iran,28.07,60,3490,Stratovolcano,Fumarolic,U
Middle East and Indian Ocean,0302-01-,Damavand,Iran,Iran,35.951,52.109,5670,Stratovolcano,Holocene,U
Middle East and Indian Ocean,0302-04-,Kuh-e Nader,Iran,Iran,28.17,60.67,1500,Volcanic field,Holocene,Unknown
Middle East and Indian Ocean,0302-02-,Qal'eh Hasan Ali,Iran,Iran,29.4,57.57,0,Maar,Holocene,Unknown
Middle East and Indian Ocean,0302-002,Sabalan,Iran,Iran,38.268,47.835,4784,Stratovolcano,Holocene,U
Middle East and Indian Ocean,0302-001,Sahand,Iran,Iran,37.75,46.43,3707,Stratovolcano,Holocene,U
Middle East and Indian Ocean,0302-05-,Taftan,Iran,Iran,28.6,61.13,3940,Stratovolcano,Holocene,U
Middle East and Indian Ocean,0302-00-,Unnamed,Iran,Iran,39.25,45.167,,Volcanic field,Holocene,U
Middle East and Indian Ocean,0303-011,Ambre-Bobaomby,Madagascar,Madagascar,-12.6,49.15,1475,Volcanic field,Holocene,U
Middle East and Indian Ocean,0303-013,Ankaizina Field,Madagascar,Madagascar,-14.3,48.67,2878,Cinder cone,Holocene,U
Middle East and Indian Ocean,0303-014,Itasy Volcanic Field,Madagascar,Madagascar,-19.033,46.7,1800,Scoria cone,Radiocarbon,D7
Middle East and Indian Ocean,0303-012,Nosy-Be,Madagascar,Madagascar,-13.32,48.48,214,Cinder cone,Holocene,U
Middle East and Indian Ocean,0303-015,Vakinankaratra,Madagascar,Madagascar,-19.85,46.942,2644,Cinder cone,Holocene,U
Middle East and Indian Ocean,0300-05-,Es Safa,Syria,Syria,33.08,37.15,979,Volcanic field,Historical,D3
Middle East and Indian Ocean,0300-01-,Sharat Kovakab,Syria,Syria,36.536,40.858,516,Volcanic field,Holocene,U
Middle East and Indian Ocean,0300-06-,Unnamed,Syria,Syria,32.658,36.425,1436,Volcanic field,Holocene,U
Middle East and Indian Ocean,0300-03-,Unnamed,Syria,Syria,33.308,36.925,945,Volcanic field,Holocene,U
Middle East and Indian Ocean,0300-02-,Unnamed,Syria,Syria,36.67,37,0,Unknown,Historical,D6
Middle East and Indian Ocean,0300-04-,Unnamed,Syria,Syria,33.15,36.258,1197,Volcanic field,Holocene,U
Mexico and Central America,1405-033,Arenal,Costa Rica,Costa Rica,10.463,-84.703,1670,Stratovolcano,Historical,D1
Mexico and Central America,1405-05=,Barva,Costa Rica,Costa Rica,10.135,-84.1,2906,Complex volcano,Tephrochronology,D7
Mexico and Central America,1405-06=,Irazu,Costa Rica,Costa Rica,9.979,-83.852,3432,Stratovolcano,Historical,D1
Mexico and Central America,1405-03=,Miravalles,Costa Rica,Costa Rica,10.748,-85.153,2028,Stratovolcano,Historical,D2
Mexico and Central America,1405-01=,Orosi,Costa Rica,Costa Rica,10.98,-85.473,1659,Stratovolcano,Uncertain,Unknown
Mexico and Central America,1405-034,Platanar,Costa Rica,Costa Rica,10.3,-84.366,2267,Stratovolcano,Holocene,U
Mexico and Central America,1405-04=,Poas,Costa Rica,Costa Rica,10.2,-84.233,2708,Stratovolcano,Historical,D1
Mexico and Central America,1405-02=,Rincon de la Vieja,Costa Rica,Costa Rica,10.83,-85.324,1916,Complex volcano,Historical,D1
Mexico and Central America,1405-031,Tenorio,Costa Rica,Costa Rica,10.673,-85.015,1916,Stratovolcano,Holocene,U
Mexico and Central America,1405-07=,Turrialba,Costa Rica,Costa Rica,10.025,-83.767,3340,Stratovolcano,Historical,D3
Mexico and Central America,1403-01=,Apaneca Range,El Salvador,El Salvador,13.891,-89.786,2036,Stratovolcano,Holocene,U
Mexico and Central America,1403-071,Apastepeque Field,El Salvador,El Salvador,13.72,-88.77,700,Volcanic field,Holocene,U
Mexico and Central America,1403-101,"Aramuaca, Laguna",El Salvador,El Salvador,13.428,-88.105,181,Maar,Holocene,U
Mexico and Central America,1403-09=,Chinameca,El Salvador,El Salvador,13.478,-88.33,1300,Stratovolcano,Holocene,U
Mexico and Central America,1403-051,"Cinotepeque, Cerro",El Salvador,El Salvador,14.02,-89.25,665,Volcanic field,Holocene,U
Mexico and Central America,1403-041,Coatepeque Caldera,El Salvador,El Salvador,13.87,-89.55,746,Caldera,Holocene,U
Mexico and Central America,1403-11=,Conchagua,El Salvador,El Salvador,13.277,-87.853,1250,Stratovolcano,Uncertain,Unknown
Mexico and Central America,1403-12=,Conchaguita,El Salvador,El Salvador,13.22,-87.765,550,Stratovolcano,Historical,D3
Mexico and Central America,1403-052,Guazapa,El Salvador,El Salvador,13.9,-89.12,1438,Stratovolcano,Holocene,U
Mexico and Central America,1403-06=,Ilopango,El Salvador,El Salvador,13.672,-89.053,450,Caldera,Historical,D3
Mexico and Central America,1403-03=,Izalco,El Salvador,El Salvador,13.813,-89.633,1950,Stratovolcano,Historical,D1
Mexico and Central America,1403-001,San Diego,El Salvador,El Salvador,14.27,-89.48,781,Volcanic field,Holocene,U
Mexico and Central America,1403-04=,San Marcelino,El Salvador,El Salvador,13.853,-89.63,2381,Stratovolcano,Historical,D2
Mexico and Central America,1403-10=,San Miguel,El Salvador,El Salvador,13.434,-88.269,2130,Stratovolcano,Historical,D1
Mexico and Central America,1403-05=,San Salvador,El Salvador,El Salvador,13.734,-89.294,1893,Stratovolcano,Historical,D2
Mexico and Central America,1403-07=,San Vicente,El Salvador,El Salvador,13.595,-88.837,2182,Stratovolcano,Holocene,U
Mexico and Central America,1403-02=,Santa Ana,El Salvador,El Salvador,13.853,-89.63,2381,Stratovolcano,Historical,D2
Mexico and Central America,1403-002,"Singuil, Cerro",El Salvador,El Salvador,14.054,-89.631,926,Cinder cone,Holocene,U
Mexico and Central America,1403-072,Taburete,El Salvador,El Salvador,13.435,-88.532,1172,Stratovolcano,Holocene,U
Mexico and Central America,1403-08=,Tecapa,El Salvador,El Salvador,13.494,-88.502,1593,Stratovolcano,Holocene,U
Mexico and Central America,1403-082,"Tigre, El",El Salvador,El Salvador,13.47,-88.43,1640,Stratovolcano,Holocene,U
Mexico and Central America,1403-081,Usulutan,El Salvador,El Salvador,13.419,-88.471,1449,Stratovolcano,Holocene,U
Mexico and Central America,1402-08=,Acatenango,Guatemala,Guatemala,14.501,-90.876,3976,Stratovolcano,Historical,D1
Mexico and Central America,1402-10=,Agua,Guatemala,Guatemala,14.465,-90.743,3760,Stratovolcano,Holocene,U
Mexico and Central America,1402-04=,Almolonga,Guatemala,Guatemala,14.797,-91.519,3173,Stratovolcano,Historical,D3
Mexico and Central America,1402-06=,Atitlan,Guatemala,Guatemala,14.583,-91.186,3535,Stratovolcano,Historical,D3
Mexico and Central America,1402-15-,Chingo,Guatemala,Guatemala,14.12,-89.73,1775,Stratovolcano,Holocene,U
Mexico and Central America,1402-20-,Chiquimula Volcanic Field,Guatemala,Guatemala,14.83,-89.55,1192,Cinder cone,Holocene,U
Mexico and Central America,1402-111,Cuilapa-Barbarena,Guatemala,Guatemala,14.33,-90.4,1454,Volcanic field,Holocene,U
Mexico and Central America,1402-14-,Flores,Guatemala,Guatemala,14.308,-89.992,1600,Volcanic field,Holocene,U
Mexico and Central America,1402-09=,Fuego,Guatemala,Guatemala,14.473,-90.88,3763,Stratovolcano,Historical,D1
Mexico and Central America,1402-19-,Ipala,Guatemala,Guatemala,14.55,-89.63,1650,Stratovolcano,Holocene,U
Mexico and Central America,1402-18-,Ixtepeque,Guatemala,Guatemala,14.42,-89.68,1292,Lava dome,Holocene,U
Mexico and Central America,1402-121,Jumaytepeque,Guatemala,Guatemala,14.34,-90.271,1802,Volcanic field,Holocene,U
Mexico and Central America,1402-13-,Moyuta,Guatemala,Guatemala,14.03,-90.1,1662,Stratovolcano,Hot Springs,U
Mexico and Central America,1402-11=,Pacaya,Guatemala,Guatemala,14.382,-90.601,2569,Complex volcano,Historical,D1
Mexico and Central America,1402-21-,Quezaltepeque,Guatemala,Guatemala,14.57,-89.45,1200,Volcanic field,Holocene,U
Mexico and Central America,1402-03=,Santa Maria,Guatemala,Guatemala,14.757,-91.552,3745,Stratovolcano,Historical,D1
Mexico and Central America,1402-16-,"Santiago, Cerro",Guatemala,Guatemala,14.33,-89.87,1192,Volcanic field,Holocene,U
Mexico and Central America,1402-17-,Suchitan,Guatemala,Guatemala,14.4,-89.78,2042,Stratovolcano,Holocene,U
Mexico and Central America,1402-141,Tahual,Guatemala,Guatemala,14.43,-89.9,1716,Stratovolcano,Holocene,U
Mexico and Central America,1402-02=,Tajumulco,Guatemala,Guatemala,15.043,-91.903,4203,Stratovolcano,Holocene,U
Mexico and Central America,1402-12=,Tecuamburro,Guatemala,Guatemala,14.156,-90.407,1845,Stratovolcano,Radiocarbon,D7
Mexico and Central America,1402-07=,Toliman,Guatemala,Guatemala,14.612,-91.189,3158,Stratovolcano,Holocene,U
Mexico and Central America,1403-13-,"Tigre, Isla El",Honduras,Honduras,13.272,-87.641,783,Stratovolcano,Holocene,U
Mexico and Central America,1403-16-,Utila Island,Honduras,Honduras,16.1,-86.9,74,Pyroclastic cone,Holocene,U
Mexico and Central America,1403-15-,"Yojoa, Lago",Honduras,Honduras,14.964,-87.983,1060,Volcanic field,Holocene,U
Mexico and Central America,1403-14-,"Zacate Grande, Isla",Honduras,Honduras,13.33,-87.63,640,Stratovolcano,Holocene,U
Mexico and Central America,1401-094,"Atlixcos, Los",Mexico,Mexico,19.809,-96.526,800,Shield volcano,Holocene,U
Mexico and Central America,1401-03=,Ceboruco,Mexico,Mexico,21.125,-104.508,2280,Stratovolcano,Historical,D3
Mexico and Central America,1401-08=,Chichinautzin,Mexico,Mexico,19.08,-99.13,3930,Volcanic field,Radiocarbon,D6
Mexico and Central America,1401-12=,"Chichon, El",Mexico,Mexico,17.36,-93.228,1150,Tuff cone,Historical,D1
Mexico and Central America,1401-096,Cofre de Perote,Mexico,Mexico,19.492,-97.15,4282,Shield volcano,Radiocarbon,D6
Mexico and Central America,1401-04=,Colima,Mexico,Mexico,19.514,-103.62,3850,Stratovolcano,Historical,D1
Mexico and Central America,1401-012,Comondu-La Purisima,Mexico,Mexico,26,-111.92,780,Volcanic field,Holocene,Unknown
Mexico and Central America,1401-005,Coronado,Mexico,Mexico,29.08,-113.513,440,Stratovolcano,Fumarolic,U
Mexico and Central America,1401-098,"Cumbres,  Las",Mexico,Mexico,19.15,-97.27,3940,Stratovolcano,Radiocarbon,D7
Mexico and Central America,1401-022,Durango Volcanic Field,Mexico,Mexico,24.15,-104.45,2075,Cinder cone,Holocene,U
Mexico and Central America,1401-097,"Gloria, La",Mexico,Mexico,19.33,-97.25,3500,Volcanic field,Holocene,U
Mexico and Central America,1401-006,Guadalupe,Mexico,Mexico,29.07,-118.28,1100,Shield volcano,Holocene,U
Mexico and Central America,1401-093,"Humeros, Los",Mexico,Mexico,19.68,-97.45,3150,Caldera,Holocene,Unknown
Mexico and Central America,1401-023,"Isabel, Isla",Mexico,Mexico,21.848,-105.886,95,Stratovolcano,Holocene,U
Mexico and Central America,1401-082,Iztaccihuatl,Mexico,Mexico,19.179,-98.642,5230,Stratovolcano,Holocene,U
Mexico and Central America,1401-004,Jaraguay Volcanic Field,Mexico,Mexico,29.33,-114.5,960,Cinder cone,Holocene,U
Mexico and Central America,1401-062,Jocotitlan,Mexico,Mexico,19.73,-99.758,3900,Stratovolcano,Radiocarbon,D6
Mexico and Central America,1401-091,"Malinche, La",Mexico,Mexico,19.231,-98.032,4461,Stratovolcano,Radiocarbon,D7
Mexico and Central America,1401-031,Mascota Volcanic Field,Mexico,Mexico,20.62,-104.83,2560,Shield volcano,Holocene,U
Mexico and Central America,1401-06=,Michoacan-Guanajuato,Mexico,Mexico,19.85,-101.75,3860,Cinder cone,Historical,D2
Mexico and Central America,1401-095,Naolinco Volcanic Field,Mexico,Mexico,19.67,-96.75,2000,Pyroclastic cone,Holocene,U
Mexico and Central America,1401-10=,"Orizaba, Pico de",Mexico,Mexico,19.03,-97.27,5564,Stratovolcano,Historical,D5
Mexico and Central America,1401-081,Papayo,Mexico,Mexico,19.308,-98.7,3600,Lava dome,Holocene,U
Mexico and Central America,1401-05=,Paricutin Volcanic Field,Mexico,Mexico,19.48,-102.25,3860,Cinder cone,Historical,D2
Mexico and Central America,1401-001,Pinacate,Mexico,Mexico,31.772,-113.498,1200,Cinder cone,Holocene,U
Mexico and Central America,1401-09=,Popocatepetl,Mexico,Mexico,19.023,-98.622,5393,Stratovolcano,Historical,D1
Mexico and Central America,1401-00-,"Prieto, Cerro",Mexico,Mexico,32.418,-115.305,223,Lava dome,Holocene,Unknown
Mexico and Central America,1401-007,San Borja Volcanic Field,Mexico,Mexico,28.5,-113.75,1360,Cinder cone,Holocene,U
Mexico and Central America,1401-003,"San Luis, Isla",Mexico,Mexico,29.97,-114.4,180,Tuff cone,Holocene,U
Mexico and Central America,1401-11=,San Martin,Mexico,Mexico,18.57,-95.2,1650,Shield volcano,Historical,D4
Mexico and Central America,1401-002,San Quintin Volcanic Field,Mexico,Mexico,30.468,-115.996,260,Cinder cone,Holocene,U
Mexico and Central America,1401-024,Sanganguey,Mexico,Mexico,21.45,-104.73,2340,Stratovolcano,Holocene,U
Mexico and Central America,1401-092,Serdan-Oriental,Mexico,Mexico,19.27,-97.47,3485,Tuff cone,Holocene,U
Mexico and Central America,1401-13=,Tacana,Mexico,Mexico,15.132,-92.109,4064,Stratovolcano,Historical,D1
Mexico and Central America,1401-07-,"Toluca, Nevado de",Mexico,Mexico,19.108,-99.758,4680,Stratovolcano,Radiocarbon,D7
Mexico and Central America,1401-011,"Tortuga, Isla",Mexico,Mexico,27.438,-111.881,224,Shield volcano,Holocene,U
Mexico and Central America,1401-01=,Tres Virgenes,Mexico,Mexico,27.47,-112.591,1934,Stratovolcano,Radiocarbon,D7
Mexico and Central America,1401-008,Unnamed,Mexico,Mexico,28,-115,0,Submarine volcano,Uncertain,Unknown
Mexico and Central America,1401-061,Zitacuaro-Valle de Bravo,Mexico,Mexico,19.4,-100.25,3500,Stratovolcano,Radiocarbon,D6
Mexico and Central America,1401-02=,Barcena,Mexico,Mexico-Is,19.3,-110.82,332,Cinder cone,Historical,D2
Mexico and Central America,1401-021,Socorro,Mexico,Mexico-Is,18.78,-110.95,1050,Shield volcano,Historical,D1
Mexico and Central America,1404-091,Apoyeque,Nicaragua,Nicaragua,12.242,-86.342,518,Pyroclastic shield,Radiocarbon,D7
Mexico and Central America,1404-14-,"Azul, Volcan",Nicaragua,Nicaragua,12.53,-83.87,201,Cinder cone,Holocene,U
Mexico and Central America,1404-132,"Ciguatepe, Cerro El",Nicaragua,Nicaragua,12.53,-86.142,603,Stratovolcano,Holocene,Unknown
Mexico and Central America,1404-12=,Concepcion,Nicaragua,Nicaragua,11.538,-85.622,1700,Stratovolcano,Historical,D1
Mexico and Central America,1404-01=,Cosiguina,Nicaragua,Nicaragua,12.98,-87.57,872,Stratovolcano,Historical,D3
Mexico and Central America,1404-131,Esteli,Nicaragua,Nicaragua,13.17,-86.4,899,Fissure vent,Holocene,Unknown
Mexico and Central America,1404-101,Granada,Nicaragua,Nicaragua,11.92,-85.98,300,Fissure vent,Holocene,U
Mexico and Central America,1404-133,"Lajas, Las",Nicaragua,Nicaragua,12.3,-85.73,926,Shield volcano,Holocene,Unknown
Mexico and Central America,1404-13-,Maderas,Nicaragua,Nicaragua,11.446,-85.515,1394,Stratovolcano,Holocene,U
Mexico and Central America,1404-10=,Masaya,Nicaragua,Nicaragua,11.985,-86.165,594,Caldera,Historical,D1
Mexico and Central America,1404-11=,Mombacho,Nicaragua,Nicaragua,11.826,-85.968,1344,Stratovolcano,Holocene,U
Mexico and Central America,1404-09=,Momotombo,Nicaragua,Nicaragua,12.423,-86.539,1270,Stratovolcano,Historical,D2
Mexico and Central America,1404-07=,"Negro, Cerro",Nicaragua,Nicaragua,12.506,-86.702,728,Cinder cone,Historical,D1
Mexico and Central America,1404-092,Nejapa-Miraflores,Nicaragua,Nicaragua,12.12,-86.32,360,Fissure vent,Holocene,U
Mexico and Central America,1404-08=,"Pilas, Las",Nicaragua,Nicaragua,12.495,-86.688,1088,Complex volcano,Historical,D2
Mexico and Central America,1404-06-,Rota,Nicaragua,Nicaragua,12.55,-86.75,832,Stratovolcano,Holocene,U
Mexico and Central America,1404-02=,San Cristobal,Nicaragua,Nicaragua,12.702,-87.004,1745,Stratovolcano,Historical,D1
Mexico and Central America,1404-04=,Telica,Nicaragua,Nicaragua,12.606,-86.84,1036,Stratovolcano,Historical,D1
Mexico and Central America,1404-111,Zapatera,Nicaragua,Nicaragua,11.73,-85.82,629,Shield volcano,Holocene,U
Mexico and Central America,1406-01-,Baru,Panama,Panama,8.808,-82.543,3474,Complex volcano,Historical,D5
Mexico and Central America,1406-03-,"Valle, El",Panama,Panama,8.58,-80.17,1185,Stratovolcano,Holocene?,?
Mediterranean and West Asia,0104-06-,Aragats,Armenia,Armenia,40.53,44.2,4095,Stratovolcano,Holocene,U
Mediterranean and West Asia,0104-07-,Ghegam Volcanic Ridge,Armenia,Armenia,40.283,45,3597,Volcanic field,Holocene,U
Mediterranean and West Asia,0104-09-,Porak,Armenia,Armenia,40.028,45.74,3029,Stratovolcano,Anthropology,D7
Mediterranean and West Asia,0104-10-,Tskhouk-Karckar,Armenia,Armenia,39.742,45.992,3139,Pyroclastic cones,Tephrochronology,D7
Mediterranean and West Asia,0104-08-,Vaiyots-Sar,Armenia,Armenia,39.797,45.497,2575,Unknown,Holocene,U
Mediterranean and West Asia,0100-02-,Chaine des Puys,France,France,45.775,2.97,1464,Cinder cone,Radiocarbon,D7
Mediterranean and West Asia,0104-03-,Kabargin Oth Group,Georgia,Georgia,42.55,44,3650,Cinder cone,Holocene,U
Mediterranean and West Asia,0104-02-,Kazbek,Georgia,Georgia,42.7,44.5,5050,Stratovolcano,Tephrochronology,D7
Mediterranean and West Asia,0104-05-,Samsari Volcanic Center,Georgia,Georgia,41.542,43.7,3290,Lava cone,Holocene,U
Mediterranean and West Asia,0104-04-,Unnamed,Georgia,Georgia,42.45,44.25,3750,Cinder cone,Holocene,U
Mediterranean and West Asia,0100-01-,West Eifel Volcanic Field,Germany,Germany,50.17,6.85,600,Maar,Radiocarbon,D7
Mediterranean and West Asia,0102-02=,Methana,Greece,Greece,37.615,23.336,760,Lava dome,Historical,D7
Mediterranean and West Asia,0102-03=,Milos,Greece,Greece,36.699,24.439,751,Stratovolcano,Holocene,U
Mediterranean and West Asia,0102-05=,Nisyros,Greece,Greece,36.586,27.16,698,Stratovolcano,Historical,D3
Mediterranean and West Asia,0102-04=,Santorini,Greece,Greece,36.404,25.396,367,Shield volcano,Historical,D2
Mediterranean and West Asia,0102-051,Yali,Greece,Greece,36.671,27.14,180,Lava dome,Holocene,U
Mediterranean and West Asia,0101-01=,Campi Flegrei,Italy,Italy,40.827,14.139,458,Caldera,Historical,D5
Mediterranean and West Asia,0101-07=,Campi Flegrei del Mar di Sicilia,Italy,Italy,37.1,12.7,-8,Submarine volcanoes,Historical,D3
Mediterranean and West Asia,0101-004,Colli Albani,Italy,Italy,41.73,12.7,949,Caldera,Holocene,Unknown
Mediterranean and West Asia,0101-06=,Etna,Italy,Italy,37.748,14.999,3320,Stratovolcano,Historical,D1
Mediterranean and West Asia,0101-03=,Ischia,Italy,Italy,40.73,13.897,789,Complex volcano,Historical,D6
Mediterranean and West Asia,0101-001,Larderello,Italy,Italy,43.25,10.87,500,Explosion crater,Historical,D6
Mediterranean and West Asia,0101-042,Lipari,Italy,Italy,38.49,14.933,590,Stratovolcanoes,Radiocarbon,D6
Mediterranean and West Asia,0101-031,Palinuro,Italy,Italy,39.48,14.83,-70,Submarine volcano,Radiocarbon,D7
Mediterranean and West Asia,0101-041,Panarea,Italy,Italy,38.638,15.064,399,Stratovolcano,Historical,D6
Mediterranean and West Asia,0101-071,Pantelleria,Italy,Italy,36.77,12.02,836,Shield volcano,Historical,D3
Mediterranean and West Asia,0101-04=,Stromboli,Italy,Italy,38.789,15.213,924,Stratovolcano,Historical,D1
Mediterranean and West Asia,0101-02=,Vesuvius,Italy,Italy,40.821,14.426,1281,Complex volcano,Historical,D2
Mediterranean and West Asia,0101-05=,Vulcano,Italy,Italy,38.404,14.962,500,Stratovolcano,Historical,D3
Mediterranean and West Asia,0101-003,Vulsini,Italy,Italy,42.6,11.93,800,Caldera,Historical,D7
Mediterranean and West Asia,0104-01-,Elbrus,Russia,Russia-SW,43.351,42.442,5642,Stratovolcano,Tephrochronology,D6
Mediterranean and West Asia,0100-04-,Calatrava Volcanic Field,Spain,Spain,38.87,-4.02,1117,Pyroclastic cones,Radiocarbon,D7
Mediterranean and West Asia,0100-03-,Olot Volcanic Field,Spain,Spain,42.17,2.53,893,Pyroclastic cone,Holocene,Unknown
Mediterranean and West Asia,0103-004,Acigol-Nevsehir,Turkey,Turkey,38.537,34.621,1683,Maar,Holocene,U
Mediterranean and West Asia,0103-04-,Ararat,Turkey,Turkey,39.7,44.3,5165,Stratovolcano,Holocene,U
Mediterranean and West Asia,0103-01=,Erciyes Dagi,Turkey,Turkey,38.531,35.447,3864,Stratovolcano,Holocene,U
Mediterranean and West Asia,0103-022,Girekol,Turkey,Turkey,39.17,43.33,0,Unknown,Holocene,U
Mediterranean and West Asia,0103-003,Gollu Dag,Turkey,Turkey,38.25,34.57,2143,Lava dome,Holocene,U
Mediterranean and West Asia,0103-002,Hasan Dagi,Turkey,Turkey,38.13,34.17,3253,Stratovolcano,Holocene,U
Mediterranean and West Asia,0103-011,Karaca Dag,Turkey,Turkey,37.67,39.83,1957,Shield volcano,Holocene,U
Mediterranean and West Asia,0103-001,Karapinar Field,Turkey,Turkey,37.667,33.6,1302,Cinder cone,Holocene,D7
Mediterranean and West Asia,0103-05-,Kars Plateau,Turkey,Turkey,40.75,42.9,3000,Volcanic field,Holocene,Unknown
Mediterranean and West Asia,0103-00-,Kula,Turkey,Turkey,38.58,28.52,750,Cinder cone,Holocene,U
Mediterranean and West Asia,0103-02=,Nemrut Dagi,Turkey,Turkey,38.654,42.229,2948,Stratovolcano,Historical,D6
Mediterranean and West Asia,0103-021,Suphan Dagi,Turkey,Turkey,38.92,42.82,4434,Stratovolcano,Holocene,U
Mediterranean and West Asia,0103-03=,Tenduruk Dagi,Turkey,Turkey,39.356,43.874,3514,Shield volcano,Holocene,U
 Kuril Islands,0900-39=,Alaid,Russia,Kuril Is,50.861,155.565,2285,Stratovolcano,Historical,D1
 Kuril Islands,0900-04=,Berutarubesan [Berutarube],Russia,Kuril Is,44.462,146.932,1221,Stratovolcano,Holocene,U
 Kuril Islands,0900-03=,Chachadake [Tiatia],Russia,Kuril Is,44.353,146.252,1822,Stratovolcano,Historical,D1
 Kuril Islands,0900-36=,Chikurachki,Russia,Kuril Is,50.324,155.461,1781,Stratovolcano,Historical,D1
 Kuril Islands,0900-26=,Chirinkotan,Russia,Kuril Is,48.98,153.48,724,Stratovolcano,Historical,D1
 Kuril Islands,0900-09=,Chirippusan [Chirip],Russia,Kuril Is,45.338,147.92,1587,Stratovolcano,Historical,D3
 Kuril Islands,0900-15=,Chirpoi,Russia,Kuril Is,46.532,150.871,742,Caldera,Historical,D1
 Kuril Islands,0900-38=,Ebeko,Russia,Kuril Is,50.686,156.014,1103,Somma volcano,Historical,D1
 Kuril Islands,0900-27=,Ekarma,Russia,Kuril Is,48.958,153.93,1170,Stratovolcano,Historical,D1
 Kuril Islands,0900-05=,Etorofu-Atosanupuri [Atosanupuri],Russia,Kuril Is,44.808,147.131,1206,Stratovolcano,Historical,D2
 Kuril Islands,0900-07=,Etorofu-Yakeyama [Grozny Group],Russia,Kuril Is,45.012,147.871,1158,Complex volcano,Historical,D1
 Kuril Islands,0900-34=,Fuss Peak,Russia,Kuril Is,50.267,155.246,1742,Stratovolcano,Historical,D3
 Kuril Islands,0900-17=,Goriaschaia Sopka,Russia,Kuril Is,46.83,151.75,891,Stratovolcano,Historical,D2
 Kuril Islands,0900-111,Ivao Group,Russia,Kuril Is,45.77,149.68,1426,Cinder cone,Holocene,U
 Kuril Islands,0900-35=,Karpinsky Group,Russia,Kuril Is,50.148,155.373,1326,Cone,Historical,D2
 Kuril Islands,0900-20=,Ketoi,Russia,Kuril Is,47.35,152.475,1172,Stratovolcano,Historical,D2
 Kuril Islands,0900-30=,Kharimkotan,Russia,Kuril Is,49.12,154.508,1145,Stratovolcano,Historical,D2
 Kuril Islands,0900-12=,Kolokol Group,Russia,Kuril Is,46.042,150.083,1328,Somma volcano,Historical,D1
 Kuril Islands,0900-351,Lomonosov Group,Russia,Kuril Is,50.25,155.43,1681,Cinder cone,Holocene,U
 Kuril Islands,0900-161,Milna,Russia,Kuril Is,46.815,151.786,1504,Somma volcano,Holocene,U
 Kuril Islands,0900-041,Moekeshiwan [Lvinaya Past],Russia,Kuril Is,44.608,146.994,528,Stratovolcano,Radiocarbon,D7
 Kuril Islands,0900-10=,Moyorodake [Medvezhia],Russia,Kuril Is,45.389,148.838,1124,Somma volcano,Historical,D1
 Kuril Islands,0900-32=,Nemo Peak,Russia,Kuril Is,49.57,154.808,1018,Caldera,Historical,D2
 Kuril Islands,0900-06-,Nishihitokappuyama [Bogatyr Ridge],Russia,Kuril Is,44.833,147.342,1634,Stratovolcano,Holocene,U
 Kuril Islands,0900-19=,Prevo Peak,Russia,Kuril Is,47.02,152.12,1360,Stratovolcano,Historical,D3
 Kuril Islands,0900-25=,Raikoke,Russia,Kuril Is,48.292,153.25,551,Stratovolcano,Historical,D2
 Kuril Islands,0900-11-,Rakkibetsudake [Demon],Russia,Kuril Is,45.5,148.85,1205,Stratovolcano,Holocene,U
 Kuril Islands,0900-22=,Rasshua,Russia,Kuril Is,47.77,153.02,956,Stratovolcano,Historical,D2
 Kuril Islands,0900-02=,Raususan [Mendeleev],Russia,Kuril Is,43.979,145.733,882,Stratovolcano,Historical,D3
 Kuril Islands,0900-091,Rucharuyama [Golets-Tornyi Group],Russia,Kuril Is,45.25,148.35,442,Pyroclastic cone,Holocene,Unknown
 Kuril Islands,0900-112,Rudakov,Russia,Kuril Is,45.874,149.819,532,Stratovolcano,Holocene,Unknown
 Kuril Islands,0900-021,Ruruidake [Smirnov],Russia,Kuril Is,44.454,146.139,1486,Stratovolcano,Holocene,U
 Kuril Islands,0900-24=,Sarychev Peak,Russia,Kuril Is,48.092,153.2,1496,Stratovolcano,Historical,D1
 Kuril Islands,0900-08=,Sashiusudake [Baransky],Russia,Kuril Is,45.1,148.019,1125,Stratovolcano,Historical,D2
 Kuril Islands,0900-331,Shirinki,Russia,Kuril Is,50.2,154.98,761,Stratovolcano,Holocene,U
 Kuril Islands,0900-29=,Sinarka,Russia,Kuril Is,48.873,154.182,911,Stratovolcano,Historical,D3
 Kuril Islands,0900-211,Srednii,Russia,Kuril Is,47.6,152.92,36,Submarine volcano,Holocene,U
 Kuril Islands,0900-31=,Tao-Rusyr Caldera,Russia,Kuril Is,49.35,154.7,1325,Stratovolcano,Historical,D2
 Kuril Islands,0900-01=,Tomariyama [Golovnin],Russia,Kuril Is,43.844,145.504,535,Caldera,Historical,D3
 Kuril Islands,0900-113,Tri Sestry,Russia,Kuril Is,45.93,149.92,998,Stratovolcano,Holocene,Unknown
 Kuril Islands,0900-16-,Unnamed,Russia,Kuril Is,46.47,151.28,-502,Submarine volcano,Hydrophonic,D1
 Kuril Islands,0900-13-,Unnamed,Russia,Kuril Is,46.1,150.5,-100,Submarine volcano,Uncertain,Unknown
 Kuril Islands,0900-061,Unnamed,Russia,Kuril Is,45.022,147.019,-195,Submarine volcano,Uncertain,Unknown
 Kuril Islands,0900-23=,Unnamed,Russia,Kuril Is,48.08,153.33,-150,Submarine volcano,Historical,D2
 Kuril Islands,0900-191,Uratman,Russia,Kuril Is,47.12,152.25,678,Somma volcano,Holocene,U
 Kuril Islands,0900-21=,Ushishur,Russia,Kuril Is,47.52,152.8,401,Caldera,Historical,D3
 Kuril Islands,0900-37-,Vernadskii Ridge,Russia,Kuril Is,50.55,155.97,1183,Cinder cone,Holocene,U
 Kuril Islands,0900-18=,Zavaritzki Caldera,Russia,Kuril Is,46.925,151.95,624,Caldera,Historical,D2
 Melanesia and Australia,0500-01=,St. Andrew Strait,Papua New Guinea,Admiralty Is-SW Paci,-2.38,147.35,270,Complex volcano,Historical,D2
 Melanesia and Australia,0500-02-,Baluan,United States,Admiralty Is-SW Paci,-2.57,147.28,254,Stratovolcano,Holocene,U
 Melanesia and Australia,0500-03-,Central Bismarck Sea,United States,Admiralty Is-SW Paci,-3.03,147.78,-1300,Submarine volcano,Hydrophonic,D1
 Melanesia and Australia,0509-01-,Newer Volcanics Province,Australia,Australia,-37.77,142.5,1011,Shield volcano,Radiocarbon,D7
 Melanesia and Australia,0505-02=,Bagana,Papua New Guinea,Bougainville-SW Paci,-6.137,155.196,1855,Lava cone,Historical,D1
 Melanesia and Australia,0505-01=,Balbi,Papua New Guinea,Bougainville-SW Paci,-5.92,154.98,2715,Stratovolcano,Holocene,U
 Melanesia and Australia,0505-011,Billy Mitchell,Papua New Guinea,Bougainville-SW Paci,-6.092,155.225,1544,Pyroclastic shield,Radiocarbon,D5
 Melanesia and Australia,0505-03=,Loloru,Papua New Guinea,Bougainville-SW Paci,-6.52,155.62,1887,Pyroclastic shield,Radiocarbon,D7
 Melanesia and Australia,0505-021,Takuan Group,Papua New Guinea,Bougainville-SW Paci,-6.442,155.608,2210,Volcanic complex,Holocene,U
 Melanesia and Australia,0505-00-,Tore,Papua New Guinea,Bougainville-SW Paci,-5.835,154.935,2175,Lava cone,Holocene,U
 Melanesia and Australia,0503-06=,Dawson Strait Group,Papua New Guinea,D'Entrecasteaux Is,-9.62,150.88,500,Volcanic field,Hydration Rind,D6
 Melanesia and Australia,0503-041,Goodenough,Papua New Guinea,D'Entrecasteaux Is,-9.358,150.246,220,Volcanic field,Holocene,U
 Melanesia and Australia,0503-05=,Iamalele,Papua New Guinea,D'Entrecasteaux Is,-9.52,150.53,200,Lava dome,Holocene,U
 Melanesia and Australia,0502-11=,Bamus,Papua New Guinea,New Britain-SW Pac,-5.2,151.23,2248,Stratovolcano,Anthropology,D3
 Melanesia and Australia,0502-05=,Bola,Papua New Guinea,New Britain-SW Pac,-5.141,150.038,1116,Stratovolcano,Holocene,U
 Melanesia and Australia,0502-04=,Dakataua,Papua New Guinea,New Britain-SW Pac,-5.094,150.094,408,Caldera,Anthropology,D3
 Melanesia and Australia,0502-03=,Garove,Papua New Guinea,New Britain-SW Pac,-4.687,149.511,368,Stratovolcano,Holocene,U
 Melanesia and Australia,0502-06=,Garua Harbour,Papua New Guinea,New Britain-SW Pac,-5.3,150.07,565,Volcanic field,Holocene,Unknown
 Melanesia and Australia,0502-10=,Hargy,Papua New Guinea,New Britain-SW Pac,-5.33,151.1,1148,Stratovolcano,Radiocarbon,D6
 Melanesia and Australia,0502-07=,Krummel-Garbuna-Welcker,Papua New Guinea,New Britain-SW Pac,-5.416,150.027,564,Stratovolcano,Holocene,U
 Melanesia and Australia,0502-01=,Langila,Papua New Guinea,New Britain-SW Pac,-5.525,148.42,1330,Complex volcano,Historical,D1
 Melanesia and Australia,0502-071,Lolo,Papua New Guinea,New Britain-SW Pac,-5.466,150.509,796,Stratovolcano,Holocene,Unknown
 Melanesia and Australia,0502-13=,Lolobau,Papua New Guinea,New Britain-SW Pac,-4.92,151.158,858,Caldera,Historical,D2
 Melanesia and Australia,0502-021,Mundua,Papua New Guinea,New Britain-SW Pac,-4.624,149.339,171,Complex volcano,Holocene,U
 Melanesia and Australia,0502-14=,Rabaul,Papua New Guinea,New Britain-SW Pac,-4.271,152.203,688,Pyroclastic shield,Historical,D1
 Melanesia and Australia,0502-09=,Sulu Range,Papua New Guinea,New Britain-SW Pac,-5.5,150.942,610,Hydrothermal field,Hot Springs,Unknown
 Melanesia and Australia,0502-15-,Tavui,Papua New Guinea,New Britain-SW Pac,-4.12,152.2,200,Caldera,Radiocarbon,D7
 Melanesia and Australia,0502-12=,Ulawun,Papua New Guinea,New Britain-SW Pac,-5.05,151.33,2334,Stratovolcano,Historical,D1
 Melanesia and Australia,0502-131,Unnamed,Papua New Guinea,New Britain-SW Pac,-4.75,150.85,0,Submarine volcano,Uncertain,Unknown
 Melanesia and Australia,0502-001,Unnamed,Papua New Guinea,New Britain-SW Pac,-5.2,148.57,0,Submarine volcano,Uncertain,Unknown
 Melanesia and Australia,0502-08=,Witori,Papua New Guinea,New Britain-SW Pac,-5.576,150.516,724,Caldera,Historical,D2
 Melanesia and Australia,0503-001,Crater Mountain,Papua New Guinea,New Guinea,-6.58,145.08,3233,Stratovolcano,Holocene,Unknown
 Melanesia and Australia,0503-00-,Doma Peaks,Papua New Guinea,New Guinea,-5.9,143.15,3568,Stratovolcano,Holocene,Unknown
 Melanesia and Australia,0503-011,Hydrographers Range,Papua New Guinea,New Guinea,-9,148.37,1915,Stratovolcano,Holocene,U
 Melanesia and Australia,0503-003,Koranga,Papua New Guinea,New Guinea,-7.33,146.708,1500,Explosion crater,Holocene,U
 Melanesia and Australia,0503-01=,Lamington,Papua New Guinea,New Guinea,-8.95,148.15,1680,Stratovolcano,Historical,D2
 Melanesia and Australia,0503-004,Madilogo,Papua New Guinea,New Guinea,-9.2,147.57,850,Pyroclastic cone,Holocene,U
 Melanesia and Australia,0503-021,Managlase Plateau,Papua New Guinea,New Guinea,-9.08,148.33,1342,Volcanic field,Anthropology,U
 Melanesia and Australia,0503-02=,Musa River,Papua New Guinea,New Guinea,-9.308,148.13,808,Hydrothermal field,Hot Springs,Unknown
 Melanesia and Australia,0503-031,Sessagara,Papua New Guinea,New Guinea,-9.48,149.13,370,Unknown,Holocene,U
 Melanesia and Australia,0503-03=,Victory,Papua New Guinea,New Guinea,-9.2,149.07,1925,Stratovolcano,Historical,D2
 Melanesia and Australia,0503-04=,Waiowa,Papua New Guinea,New Guinea,-9.57,149.075,640,Pyroclastic cone,Historical,D2
 Melanesia and Australia,0503-002,Yelia,Papua New Guinea,New Guinea,-7.05,145.858,3384,Stratovolcano,Holocene,Unknown
 Melanesia and Australia,0501-01=,Bam,Papua New Guinea,New Guinea-NE of,-3.613,144.818,685,Stratovolcano,Historical,D2
 Melanesia and Australia,0501-001,Blup Blup,Papua New Guinea,New Guinea-NE of,-3.507,144.605,402,Stratovolcano,Holocene,U
 Melanesia and Australia,0501-011,Boisa,Papua New Guinea,New Guinea-NE of,-3.994,144.963,240,Stratovolcano,Holocene,U
 Melanesia and Australia,0501-041,Hankow Reef,Papua New Guinea,New Guinea-NE of,-4.883,146.717,-5,Unknown,Uncertain,Unknown
 Melanesia and Australia,0501-002,Kadovar,Papua New Guinea,New Guinea-NE of,-3.608,144.588,365,Stratovolcano,Holocene,U
 Melanesia and Australia,0501-03=,Karkar,Papua New Guinea,New Guinea-NE of,-4.649,145.964,1839,Stratovolcano,Historical,D1
 Melanesia and Australia,0501-05=,Long Island,Papua New Guinea,New Guinea-NE of,-5.358,147.12,1280,Complex volcano,Historical,D1
 Melanesia and Australia,0501-02=,Manam,Papua New Guinea,New Guinea-NE of,-4.08,145.037,1807,Stratovolcano,Historical,D1
 Melanesia and Australia,0501-07=,Ritter Island,Papua New Guinea,New Guinea-NE of,-5.519,148.115,75,Stratovolcano,Historical,D1
 Melanesia and Australia,0501-08=,Sakar,Papua New Guinea,New Guinea-NE of,-5.414,148.094,992,Stratovolcano,Holocene,Unknown
 Melanesia and Australia,0501-06=,Umboi,Papua New Guinea,New Guinea-NE of,-5.589,147.875,1548,Complex volcano,Holocene,U
 Melanesia and Australia,0501-04=,Unnamed,Papua New Guinea,New Guinea-NE of,-4.311,146.256,-2000,Submarine volcano,Uncertain,Unknown
 Melanesia and Australia,0504-02=,Ambitle,Papua New Guinea,New Ireland-SW Pacif,-4.08,153.65,450,Stratovolcano,Radiocarbon,D7
 Melanesia and Australia,0504-01=,Lihir,Papua New Guinea,New Ireland-SW Pacif,-3.125,152.642,700,Volcanic complex,Holocene,U
 Melanesia and Australia,0506-01=,Tinakula,Solomon Is.,Santa Cruz Is-SW Pac,-10.386,165.804,796,Stratovolcano,Historical,D1
 Melanesia and Australia,0505-053,Coleman Seamount,Solomon Is.,Solomon Is-SW Pacifi,-8.841,157.16,-717,Submarine volcano,Holocene,U
 Melanesia and Australia,0505-062,Gallego,Solomon Is.,Solomon Is-SW Pacifi,-9.35,159.73,1000,Volcanic field,Holocene,Unknown
 Melanesia and Australia,0505-052,Kana Keoki,Solomon Is.,Solomon Is-SW Pacifi,-8.75,157.03,-700,Submarine volcano,Holocene,U
 Melanesia and Australia,0505-06=,Kavachi,Solomon Is.,Solomon Is-SW Pacifi,-8.991,157.979,-20,Submarine volcano,Historical,D1
 Melanesia and Australia,0505-07=,Savo,Solomon Is.,Solomon Is-SW Pacifi,-9.13,159.82,485,Stratovolcano,Historical,D3
 Melanesia and Australia,0505-05=,Simbo,Solomon Is.,Solomon Is-SW Pacifi,-8.292,156.52,335,Stratovolcano,Uncertain,Unknown
 Melanesia and Australia,0505-061,Unnamed,Solomon Is.,Solomon Is-SW Pacifi,-8.92,158.03,-240,Submarine volcanoes,Holocene,U
 Melanesia and Australia,0508-001,Eastern Gemini Seamount,Pacific Ocean,SW Pacific,-20.98,170.28,-80,Submarine volcano,Historical,D1
 Melanesia and Australia,0508-02=,Hunter Island,Pacific Ocean,SW Pacific,-22.4,172.05,297,Stratovolcano,Historical,D2
 Melanesia and Australia,0508-01=,Matthew Island,Pacific Ocean,SW Pacific,-22.33,171.32,177,Stratovolcano,Historical,D2
 Melanesia and Australia,0508-03-,Unnamed,Pacific Ocean,SW Pacific,-25.78,168.63,-2400,Submarine volcano,Hydrophonic,D1
 Melanesia and Australia,0507-03=,Ambae,Vanuatu,Vanuatu-SW Pacific,-15.389,167.835,1496,Shield volcano,Historical,D1
 Melanesia and Australia,0507-04=,Ambrym,Vanuatu,Vanuatu-SW Pacific,-16.25,168.12,1334,Pyroclastic shield,Historical,D1
 Melanesia and Australia,0507-11-,Aneityum,Vanuatu,Vanuatu-SW Pacific,-20.2,169.78,852,Stratovolcano,Holocene,Unknown
 Melanesia and Australia,0507-06=,Epi,Vanuatu,Vanuatu-SW Pacific,-16.68,168.37,833,Stratovolcano,Historical,D1
 Melanesia and Australia,0507-02=,Gaua,Vanuatu,Vanuatu-SW Pacific,-14.27,167.5,797,Stratovolcano,Historical,D1
 Melanesia and Australia,0507-07=,Kuwae,Vanuatu,Vanuatu-SW Pacific,-16.829,168.536,-2,Caldera,Historical,D1
 Melanesia and Australia,0507-05=,Lopevi,Vanuatu,Vanuatu-SW Pacific,-16.507,168.346,1413,Stratovolcano,Historical,D1
 Melanesia and Australia,0507-021,Mere Lava,Vanuatu,Vanuatu-SW Pacific,-14.45,168.05,1028,Stratovolcano,Holocene,U
 Melanesia and Australia,0507-001,Motlav,Vanuatu,Vanuatu-SW Pacific,-13.67,167.67,411,Stratovolcano,Holocene,U
 Melanesia and Australia,0507-08-,NE Shepherd Islands,Vanuatu,Vanuatu-SW Pacific,-16.992,168.592,216,Stratovolcano,Holocene,Unknown
 Melanesia and Australia,0507-081,North Vate,Vanuatu,Vanuatu-SW Pacific,-17.47,168.353,594,Stratovolcano,Holocene,U
 Melanesia and Australia,0507-01=,Suretamatai,Vanuatu,Vanuatu-SW Pacific,-13.8,167.47,921,Complex volcano,Historical,D1
 Melanesia and Australia,0507-09=,Traitor's Head,Vanuatu,Vanuatu-SW Pacific,-18.754,169.238,817,Stratovolcano,Historical,D3
 Melanesia and Australia,0507-10=,Yasur,Vanuatu,Vanuatu-SW Pacific,-19.532,169.447,361,Stratovolcano,Historical,D1
